{"type":"FeatureCollection","features":[{"type":"Feature","id":"hydrolakes:14421","properties":{"Hylak_id":14421,"Lake_name":"","Country":"China","Continent":"Asia","Poly_src":"SWBD","Lake_type":1,"Grand_id":0,"Lake_area":41.46,"Shore_len":29.47,"Shore_dev":1.29,"Vol_total":68.5,"Vol_res":0.0,"Vol_src":3,"Depth_avg":1.7,"Dis_avg":0.31,"Res_time":2557.4,"Elevation":902,"Slope_100":0.55,"Wshd_area":10706.8,"Pour_long":101.252083,"Pour_lat":42.297917,"source_id":"hydrolakes:14421","label":""},"geometry":{"type":"Polygon","coordinates":[[[101.26282864040809,42.33030273437544],[101.26447455512181,42.329866536458724],[101.26741400824659,42.332108832465735],[101.27107666015633,42.33204074435815],[101.27342393663201,42.33253173828183],[101.27456854926243,42.33376708984423],[101.2766630045574,42.33376085069483],[101.27900404188375,42.33541124131989],[101.27985582139769,42.332355685764355],[101.28148627387179,42.33070638020877],[101.28428521050358,42.329338650174066],[101.28889702690981,42.32501274956638],[101.29225979275202,42.32370334201431],[101.29277262369817,42.32261664496582],[101.29433241102458,42.32262125651084],[101.29429985894126,42.321800944010874],[101.2955824110245,42.319706217448356],[101.29458862304716,42.318711751302544],[101.29596733940986,42.31876627604208],[101.29697930230049,42.31767415364635],[101.29643215603329,42.316640353733135],[101.29756374783,42.3151646592886],[101.29818915473118,42.313189019097706],[101.29912339952284,42.3119707573789],[101.29844848632825,42.310319824219164],[101.29847873263901,42.30955864800387],[101.29762179904537,42.30876464843789],[101.29762885199693,42.30780300564277],[101.29652248806434,42.307088758681004],[101.29620239257821,42.30641031901092],[101.29543253580755,42.3031784396706],[101.2945218912763,42.30193657769149],[101.29268039279526,42.30042860243094],[101.29039835611997,42.299351399739976],[101.2904092068145,42.29786675347276],[101.28790798611118,42.29430664062545],[101.28846693250898,42.29291124132004],[101.28937934027806,42.29158528645877],[101.2892862955731,42.28479220920178],[101.28796047634563,42.283563910590715],[101.28875094943601,42.2809407552088],[101.2898274739585,42.27994330512195],[101.29013359917548,42.27933865017411],[101.28625000000017,42.278465169271215],[101.28533623589425,42.278785264757346],[101.28259128146709,42.278790418837275],[101.2753868272572,42.277024739583794],[101.27347751193582,42.27541124131989],[101.27169433593764,42.27436306423658],[101.26982706705769,42.27363606770871],[101.2698708767362,42.27253309461844],[101.26753824869803,42.271763237847665],[101.26513359917556,42.27014431423652],[101.26398179796018,42.26857367621568],[101.26017116970496,42.26711452908029],[101.25924981011298,42.266480577257425],[101.25511298285619,42.26648817274349],[101.25514865451419,42.26558865017404],[101.2536684841582,42.26512017144154],[101.25096693250879,42.263755425347654],[101.24951070149768,42.26257025824697],[101.2476124403214,42.262645399305995],[101.24696689181866,42.264013400608064],[101.2462552897137,42.262911241319955],[101.24500000000023,42.26194444444491],[101.24341518825969,42.26254638671912],[101.24386494954439,42.26339626736166],[101.24312282986119,42.26408393012201],[101.24261806911903,42.26725260416708],[101.2426662190756,42.26846652560812],[101.24204508463555,42.269640299479704],[101.23903306749145,42.27125542534765],[101.23728481716603,42.2718001302087],[101.23561401367209,42.27121473524363],[101.23407233344193,42.27127577039977],[101.23246283637167,42.270614691840706],[101.23102803548187,42.26839274088587],[101.2306997341584,42.2673556857643],[101.22903428819455,42.266280381944966],[101.22875528971394,42.26568901909769],[101.22714396158864,42.26506157769148],[101.22470947265651,42.26557101779554],[101.22170138888902,42.2671628146706],[101.22101379394553,42.26790473090324],[101.2198814561632,42.26843912760461],[101.21906222873275,42.26932345920187],[101.21846727159311,42.269299858941565],[101.2177079942494,42.27011935763926],[101.21514417860271,42.27130588107684],[101.21570407443596,42.27236409505264],[101.21370205349422,42.27349093967052],[101.21316847059506,42.27406684027824],[101.21318650987422,42.27547743055595],[101.21263319227461,42.276523166233176],[101.21267503526497,42.27757839626776],[101.21347791883687,42.27874538845526],[101.21346564398885,42.27905517578165],[101.21235853407126,42.27901123046922],[101.21173672146273,42.28080919053872],[101.21065734863288,42.28185655381998],[101.20958862304695,42.284886881511],[101.21180026584227,42.28602810329909],[101.21083312988293,42.286924099392934],[101.21239006890204,42.28910563151089],[101.21429375542544,42.29120849609416],[101.2148333740235,42.292351888021244],[101.21573235405828,42.29293240017404],[101.21572821723106,42.29557427300392],[101.21641045464418,42.29752088758721],[101.21560377332901,42.29826822916715],[101.21571051703569,42.300961914062896],[101.21513359917566,42.30180013020879],[101.21486640082475,42.30384684244831],[101.21654405381969,42.30540120442748],[101.21573554144993,42.306929253472674],[101.21654486762179,42.30845865885459],[101.21651184082054,42.309290635851085],[101.21708747016078,42.310441894531664],[101.21902248806458,42.3115836588546],[101.21835727267802,42.31284071180602],[101.21903306749141,42.313466796875446],[101.21930026584215,42.314588758681],[101.22070014105913,42.31652316623308],[101.22071248372424,42.317676595052546],[101.22236640082485,42.31874457465324],[101.22424947102871,42.32066704644143],[101.22708862304705,42.32263346354205],[101.22760091145858,42.32371907552141],[101.23083333333352,42.323042805989985],[101.23380296495242,42.323664008246965],[101.2367489284942,42.325002441406696],[101.23820624457477,42.32712483724009],[101.24153306749139,42.33068901909763],[101.24206746419293,42.3318215603303],[101.24318915473106,42.332922092014485],[101.24514417860269,42.334022352430964],[101.24655049641939,42.33516710069483],[101.2497948540584,42.33647325303866],[101.25438184950093,42.3370779079865],[101.25813829210097,42.333499620226064],[101.25935153537364,42.332578125000566],[101.2610137261288,42.33179361979205],[101.26282864040809,42.33030273437544]],[[101.22409959581177,42.28873453776089],[101.22320705837717,42.287620171441404],[101.22267456054698,42.28768636067747],[101.22237650553427,42.28587700737887],[101.22277777777782,42.28555555555596],[101.22294372558605,42.2865093315977],[101.22490525987445,42.28770073784767],[101.2248801676435,42.28848632812543],[101.22409959581177,42.28873453776089]]]}},{"type":"Feature","id":"hydrolakes:171244","properties":{"Hylak_id":171244,"Lake_name":"","Country":"Mongolia","Continent":"Asia","Poly_src":"SWBD","Lake_type":1,"Grand_id":0,"Lake_area":1.11,"Shore_len":4.67,"Shore_dev":1.25,"Vol_total":1.14,"Vol_res":0.0,"Vol_src":3,"Depth_avg":1.0,"Dis_avg":0.0,"Res_time":-1.0,"Elevation":1117,"Slope_100":0.49,"Wshd_area":165.6,"Pour_long":104.511642,"Pour_lat":44.802159,"source_id":"hydrolakes:171244","label":""},"geometry":{"type":"Polygon","coordinates":[[[104.52292209201431,44.806533071730485],[104.52318901909763,44.80452741834915],[104.52153320312533,44.80286075168266],[104.52235161675412,44.80131399790514],[104.52041124131995,44.80069973839721],[104.51731960720525,44.799015960694135],[104.5169444444449,44.798611111111825],[104.51568901909775,44.79874470604858],[104.51477050781295,44.799340502421785],[104.51294135199703,44.79926799350375],[104.51137830946232,44.800406074524574],[104.51027832031292,44.802670635647814],[104.51077338324689,44.80360606723434],[104.51264865451446,44.80419976552389],[104.51259765625048,44.805485504998785],[104.51202148437545,44.80601931677984],[104.5101489257816,44.80594509972525],[104.50958875868105,44.806736717224794],[104.51097764756992,44.807633594937556],[104.5118842230907,44.80861223856681],[104.51439534505249,44.80909164428772],[104.51624186197967,44.810893160502815],[104.52373155381997,44.81127157847152],[104.52467420789964,44.81062305450507],[104.52457492404568,44.808122389052244],[104.52263020833374,44.807365133498024],[104.52292209201431,44.806533071730485]]]}},{"type":"Feature","id":"hydrolakes:171318","properties":{"Hylak_id":171318,"Lake_name":"","Country":"Mongolia","Continent":"Asia","Poly_src":"SWBD","Lake_type":1,"Grand_id":0,"Lake_area":1.61,"Shore_len":7.85,"Shore_dev":1.74,"Vol_total":2.2,"Vol_res":0.0,"Vol_src":3,"Depth_avg":1.4,"Dis_avg":0.0,"Res_time":-1.0,"Elevation":1154,"Slope_100":0.6,"Wshd_area":275.1,"Pour_long":104.761645,"Pour_lat":44.679031,"source_id":"hydrolakes:171318","label":""},"geometry":{"type":"Polygon","coordinates":[[[104.76418674045175,44.66226591322214],[104.76388888888937,44.66194444444511],[104.76251573350737,44.662090572781665],[104.76092393663248,44.66311850653818],[104.76163791232693,44.665350731744354],[104.76309733072952,44.66586224026224],[104.7675878906254,44.66629253811368],[104.76874457465328,44.66708862304745],[104.77235568576424,44.66825980292498],[104.7719759114587,44.66975428263413],[104.77042209201443,44.67119408501583],[104.77124457465334,44.67181084526976],[104.7731890190978,44.672120598687854],[104.77272949218798,44.67302105373864],[104.76940212673674,44.67394865248002],[104.76797200520889,44.6753901841912],[104.76430013020871,44.676522488064904],[104.76361924913238,44.67757737901553],[104.76287489149348,44.67792848375166],[104.7621175130214,44.67874615139499],[104.76042805989624,44.67928098890576],[104.76008789062553,44.68090643988785],[104.76091634114653,44.68180026584264],[104.76319986979217,44.681533067491955],[104.76846679687543,44.67985582139818],[104.77625162760461,44.67899559868778],[104.7793001302087,44.67606894599123],[104.77764431423674,44.67339299519932],[104.77795247395869,44.671875152588484],[104.7793001302087,44.67144848293793],[104.77873480902826,44.66922024197112],[104.7773453776046,44.66793255276207],[104.7763140190977,44.66574739244328],[104.7748735894101,44.66475616455136],[104.77227322048651,44.663716261122545],[104.77069986979205,44.66263359917599],[104.76418674045175,44.66226591322214]]]}},{"type":"Feature","id":"hydrolakes:171355","properties":{"Hylak_id":171355,"Lake_name":"","Country":"Mongolia","Continent":"Asia","Poly_src":"SWBD","Lake_type":1,"Grand_id":0,"Lake_area":1.03,"Shore_len":4.95,"Shore_dev":1.38,"Vol_total":1.03,"Vol_res":0.0,"Vol_src":3,"Depth_avg":1.0,"Dis_avg":0.01,"Res_time":1187.6,"Elevation":1055,"Slope_100":0.49,"Wshd_area":728.3,"Pour_long":104.082292,"Pour_lat":44.628023,"source_id":"hydrolakes:171355","label":""},"geometry":{"type":"Polygon","coordinates":[[[104.09201361762194,44.63163914998438],[104.09073703342062,44.63098159790104],[104.08791937934075,44.63099767049215],[104.08824490017412,44.629967210558334],[104.09013617621576,44.62904975043466],[104.08986382378521,44.62819166395457],[104.08902506510452,44.62791944715775],[104.08666666666699,44.6258333333339],[104.08319173177114,44.62596944173248],[104.08208604600736,44.627086113824475],[104.07846950954911,44.62958055284355],[104.0774446614588,44.630647226969984],[104.07628390842052,44.63124521891342],[104.07490831163233,44.63158050537169],[104.07319173177132,44.633747219510326],[104.07236680772598,44.63593675401535],[104.07680826822951,44.636247219510096],[104.0781426323789,44.637636108399136],[104.07963758680586,44.637066463894996],[104.08205647786508,44.63464731852281],[104.08235839843792,44.63402499728795],[104.09235839843785,44.63373692830464],[104.09201361762194,44.63163914998438]]]}},{"type":"Feature","id":"hydrolakes:171420","properties":{"Hylak_id":171420,"Lake_name":"","Country":"Mongolia","Continent":"Asia","Poly_src":"SWBD","Lake_type":1,"Grand_id":0,"Lake_area":1.0,"Shore_len":4.37,"Shore_dev":1.24,"Vol_total":2.04,"Vol_res":0.0,"Vol_src":3,"Depth_avg":2.0,"Dis_avg":0.0,"Res_time":-1.0,"Elevation":1028,"Slope_100":0.49,"Wshd_area":7286.8,"Pour_long":103.714583,"Pour_lat":44.486027,"source_id":"hydrolakes:171420","label":""},"geometry":{"type":"Polygon","coordinates":[[[103.72899251302118,44.492321302626465],[103.72937310112889,44.49028225368983],[103.7304087999135,44.48935692681266],[103.73012071397613,44.48807047526117],[103.72847384982686,44.48762939453201],[103.7262372504344,44.488026869032694],[103.72505425347265,44.48748396131782],[103.72226426866354,44.48519473605745],[103.71777777777822,44.48222222222279],[103.71654893663225,44.48238657633527],[103.71545491536489,44.483364088270946],[103.71496256510454,44.48443661160002],[103.7104332139761,44.48583296034133],[103.7103466796878,44.48728685167157],[103.71236897786486,44.48818664550839],[103.71710205078153,44.491827833388186],[103.72899251302118,44.492321302626465]]]}},{"type":"Feature","id":"hydrolakes:171428","properties":{"Hylak_id":171428,"Lake_name":"","Country":"Mongolia","Continent":"Asia","Poly_src":"SWBD","Lake_type":1,"Grand_id":0,"Lake_area":3.31,"Shore_len":10.78,"Shore_dev":1.67,"Vol_total":4.06,"Vol_res":0.0,"Vol_src":3,"Depth_avg":1.2,"Dis_avg":0.0,"Res_time":-1.0,"Elevation":1148,"Slope_100":0.41,"Wshd_area":790.4,"Pour_long":104.877083,"Pour_lat":44.472917,"source_id":"hydrolakes:171428","label":""},"geometry":{"type":"Polygon","coordinates":[[[104.91490831163236,44.48215786404137],[104.91697211371593,44.47964680989645],[104.91735568576433,44.47854105631569],[104.9158550347226,44.47757195366813],[104.91297960069488,44.47768595377664],[104.90825249566018,44.474958496094416],[104.90491916232685,44.475455491808304],[104.90431098090335,44.47513359917593],[104.9026334635422,44.47486640082525],[104.90181098090329,44.4743002658426],[104.90078070746586,44.473974100749444],[104.90012424045182,44.47432149251364],[104.8994894748268,44.47429633246594],[104.89313639322972,44.471513570150364],[104.88940592447966,44.471223517524436],[104.88542209201444,44.46985582139814],[104.88330240885466,44.46951816135038],[104.88245008680593,44.46996921115516],[104.87832139756989,44.46980560302808],[104.87697428385462,44.469092780219796],[104.8747222222226,44.46861111111167],[104.87194661458386,44.46883799235076],[104.87152398003508,44.47017306857697],[104.87093315972277,44.47072041829483],[104.86995551215313,44.4706816609708],[104.8687245008685,44.46983459472722],[104.8650450303823,44.46987033420197],[104.86403320312559,44.47164489746149],[104.86609103732701,44.47355163574275],[104.86761827256981,44.47427256266326],[104.86966525607693,44.476930067274964],[104.8701508246532,44.47795820448198],[104.87128851996579,44.47901272243979],[104.87691080729206,44.47950263129411],[104.8775786675352,44.478781772190246],[104.88658257378529,44.478405863444664],[104.88707790798662,44.477355821398135],[104.88882649739634,44.47653306749203],[104.89147569444509,44.47746171739442],[104.89318901909763,44.479310845269765],[104.89703504774349,44.48000064426054],[104.90449435763946,44.479874098036646],[104.90485568576429,44.48086700439518],[104.90401150173682,44.48209374321891],[104.90404351128512,44.48400136311909],[104.90908365885463,44.48430026584265],[104.91013346354208,44.483744710287056],[104.91153320312549,44.48347751193654],[104.91291124131999,44.48263359917604],[104.91490831163236,44.48215786404137]]]}},{"type":"Feature","id":"hydrolakes:172233","properties":{"Hylak_id":172233,"Lake_name":"","Country":"China","Continent":"Asia","Poly_src":"SWBD","Lake_type":1,"Grand_id":0,"Lake_area":2.64,"Shore_len":10.87,"Shore_dev":1.89,"Vol_total":3.46,"Vol_res":0.0,"Vol_src":3,"Depth_avg":1.3,"Dis_avg":0.001,"Res_time":40014.3,"Elevation":928,"Slope_100":0.48,"Wshd_area":21.7,"Pour_long":101.017316,"Pour_lat":42.033484,"source_id":"hydrolakes:172233","label":""},"geometry":{"type":"Polygon","coordinates":[[[101.02861843532997,42.03452609592057],[101.032890218099,42.03356499566013],[101.03602688259554,42.02551459418447],[101.0356785074872,42.02483832465322],[101.03750596788205,42.02308241102469],[101.03888888888912,42.01861111111151],[101.0358441840279,42.01950195312543],[101.03460998535166,42.02013780381981],[101.03125807020405,42.02068332248297],[101.02990953233513,42.02170654296913],[101.03125278049055,42.02235839843786],[101.03152499728748,42.02279947916702],[101.02716071234829,42.02230360243112],[101.02537502712681,42.021692437066406],[101.02412007649758,42.02084174262194],[101.0209467909072,42.021809082031666],[101.020962999132,42.02378662109419],[101.01524603949662,42.023779025608064],[101.01609876844628,42.02212375217067],[101.01466152615035,42.02097493489623],[101.01319722493503,42.02208604600736],[101.0112310112849,42.02235839843786],[101.01069722493514,42.02180284288238],[101.00994669596378,42.02153049045182],[101.0094272867841,42.02313123914968],[101.01098890516528,42.02388861762188],[101.01255405002183,42.023197157118545],[101.01208624945758,42.025141330295526],[101.01153055826842,42.02626410590324],[101.01311509874154,42.02623182508722],[101.01513610839868,42.02739800347268],[101.01291931152366,42.027352701823304],[101.01250556098114,42.02778320312541],[101.01011372884119,42.02876708984411],[101.01013583713114,42.03042751736149],[101.0112731933595,42.03097927517405],[101.0119496663412,42.031683485243434],[101.01078742133251,42.032800021701746],[101.01235833062083,42.034030490451755],[101.01299011230475,42.03430284288237],[101.0202014838327,42.03318874783031],[101.02367750379801,42.03236382378515],[101.0240249972876,42.03362060546925],[101.0221646457249,42.03452338324695],[101.0239944797093,42.03511691623311],[101.02861843532997,42.03452609592057]],[[101.02879523383257,42.03372450086846],[101.0276445176869,42.03297526041706],[101.02625000000006,42.03328776041707],[101.02546291775195,42.033111436632396],[101.02516432020406,42.03240641276079],[101.0269444444445,42.03138888888947],[101.02712300618504,42.03164740668444],[101.02854410807305,42.03217936197956],[101.02842020670579,42.032731933594164],[101.0292625596789,42.03331353081637],[101.02879523383257,42.03372450086846]]]}},{"type":"Feature","id":"hydrolakes:172246","properties":{"Hylak_id":172246,"Lake_name":"","Country":"China","Continent":"Asia","Poly_src":"SWBD","Lake_type":1,"Grand_id":0,"Lake_area":4.86,"Shore_len":36.47,"Shore_dev":4.67,"Vol_total":5.17,"Vol_res":0.0,"Vol_src":3,"Depth_avg":1.1,"Dis_avg":0.0,"Res_time":-1.0,"Elevation":889,"Slope_100":0.31,"Wshd_area":40730.0,"Pour_long":101.577351,"Pour_lat":41.960042,"source_id":"hydrolakes:172246","label":""},"geometry":{"type":"Polygon","coordinates":[[[101.60846367730062,41.97513888888932],[101.60847507052983,41.97458089192753],[101.60708062066004,41.97179144965321],[101.60596421983524,41.97181423611153],[101.60540866427982,41.97123589409779],[101.60353786892381,41.971274142795494],[101.6029193793405,41.97024359809069],[101.60458604600711,41.969586046007294],[101.60494045681469,41.96849419487887],[101.60332736545155,41.96797092013924],[101.60096950954892,41.967641601562946],[101.60069715711819,41.967259114583726],[101.602505560981,41.96667209201428],[101.60291395399338,41.96624728732678],[101.60423475477455,41.965697157118484],[101.60576727973125,41.96803493923653],[101.6073611111114,41.96721381293446],[101.60820841471372,41.96765028211837],[101.60819132487018,41.970152180990056],[101.60876993815128,41.97070827908021],[101.60963609483525,41.97069064670194],[101.61096950954897,41.969302842882314],[101.61155327690994,41.969030490451814],[101.61151543511312,41.97088378906295],[101.61266086154546,41.971247287326776],[101.61375827365464,41.96901963975739],[101.61374701605922,41.968463812934374],[101.61211819118961,41.968496907552435],[101.61180826822925,41.96831542968789],[101.61374728732648,41.96734130859426],[101.61183471679726,41.96738037109412],[101.60984130859384,41.96652398003516],[101.60986599392402,41.96531955295177],[101.60862019856785,41.96450276692747],[101.6079086642797,41.96486952039976],[101.60624118381088,41.96487548828162],[101.6062529839412,41.9642968750004],[101.60431355794299,41.964297146267825],[101.60290256076416,41.964858398438025],[101.60289198133711,41.963752712674136],[101.60124443901935,41.96486952039976],[101.59916124131956,41.964855414496924],[101.59983127170165,41.96347493489628],[101.5970429144968,41.96488606770879],[101.59621527777801,41.96574761284779],[101.59374511718767,41.96524169921912],[101.5937531195749,41.964847819010856],[101.59311143663217,41.96423122829901],[101.59460191514773,41.96374755859421],[101.59515760633712,41.96316921658024],[101.59704467773463,41.963207736545485],[101.59902506510446,41.96248209635456],[101.59801093207489,41.96098605685802],[101.59623630099873,41.960141601563066],[101.59568725585962,41.96127305772609],[101.59423516167567,41.96272922092055],[101.59206583658869,41.96358479817758],[101.59208943684928,41.96474500868095],[101.59291937934046,41.96596950954904],[101.59319173177107,41.96691351996566],[101.59249037000887,41.96735839843785],[101.59194173177116,41.96622748480945],[101.58959133572063,41.966275227865026],[101.58891682942738,41.965573459201835],[101.58959282769109,41.96457628038229],[101.58901380750899,41.96401963975745],[101.58902479383693,41.96096381293438],[101.58791571723106,41.96098632812544],[101.58764160156267,41.95930284288238],[101.5862255859376,41.957548556858],[101.58428575303839,41.958191731771194],[101.58430840386325,41.95569200303862],[101.58388047960085,41.954861111111484],[101.58512071397593,41.95237304687538],[101.5855669487849,41.95194444444485],[101.58512491862007,41.95151963975741],[101.58516004774316,41.94979546441016],[101.58578762478328,41.948577202691354],[101.58430284288232,41.946808268229574],[101.58401258680578,41.94591417100736],[101.58318250868075,41.94514160156285],[101.58210476345499,41.94846272786492],[101.58123033311654,41.94903618706638],[101.58221042209215,41.949977756076805],[101.5812253146704,41.95127604166703],[101.58345893012165,41.951230468750566],[101.58466525607662,41.9521324327261],[101.58423597547778,41.9533867730039],[101.5823312717016,41.95430284288244],[101.58040581597237,41.953310818142825],[101.5804047309029,41.95163519965314],[101.57884711371543,41.949300672743504],[101.57790839301254,41.949019368489985],[101.57791341145844,41.94623046875046],[101.57653049045149,41.94485839843793],[101.57546712239599,41.94416097005245],[101.57514160156262,41.94336235894133],[101.57656860351591,41.94291937934065],[101.57835449218771,41.94353081597279],[101.57887003580748,41.945645345052526],[101.58000203450547,41.945062120226055],[101.57930270724853,41.94403049045178],[101.57928046332506,41.94237982855941],[101.57959757486998,41.942075195312896],[101.5801472981774,41.9420863172748],[101.5801287163631,41.94299641927125],[101.58127197265634,41.944025065104654],[101.58265285915815,41.941513943142866],[101.58106445312524,41.939940049913616],[101.58054741753494,41.941006130642734],[101.57860568576416,41.94096652560819],[101.57910359700543,41.940000000000396],[101.57872531467046,41.93926567925382],[101.57874674479194,41.93761908637197],[101.57763617621549,41.937641872830284],[101.57680202908006,41.93680772569485],[101.57708672417562,41.93485948350741],[101.57680270724836,41.93430799696216],[101.57681939019119,41.93349093967049],[101.5759604220923,41.931755913628876],[101.57538682725709,41.93125271267411],[101.5742869737415,41.931819390191436],[101.57291937934053,41.93195393880251],[101.57460055881108,41.93276963975734],[101.57459255642374,41.93434163411496],[101.57571926540822,41.93544813368101],[101.57568033854193,41.93735649956636],[101.57708062066001,41.938502061632335],[101.57540310329887,41.940170084635895],[101.57541951497421,41.94097466362882],[101.57428765190997,41.94321397569496],[101.5731727430558,41.94319118923653],[101.57236382378494,41.94234212239627],[101.573208685981,41.94153049045178],[101.57320827908,41.93849093967049],[101.57274142795166,41.93758463541701],[101.57319864908874,41.936248643663646],[101.57264160156268,41.93513617621562],[101.57205349392376,41.93486382378518],[101.57097127278661,41.93542127821223],[101.57042995876753,41.93485812717057],[101.57010199652797,41.934864637587225],[101.57014227973099,41.93288601345523],[101.57127644856803,41.931796603733005],[101.5698691134985,41.93179144965319],[101.56932400173622,41.93235894097268],[101.5684423828128,41.932636176215624],[101.56764160156297,41.931802842882405],[101.56678860134565,41.93138888888933],[101.566825358073,41.9295860460075],[101.56533026801225,41.92807617187549],[101.56598537868939,41.92647596571226],[101.56624159071197,41.92375542534762],[101.56735839843782,41.92176486545179],[101.56694444444474,41.92055555555601],[101.5658131239154,41.92122721354201],[101.56639879014779,41.92236382378513],[101.56429172092038,41.92376410590333],[101.56430867513063,41.9245966254345],[101.56346910264779,41.92540337456637],[101.56348198784747,41.92603325737883],[101.5642030164932,41.92814019097267],[101.56374715169295,41.92902533637198],[101.5637589518231,41.92960286458373],[101.56626383463583,41.93126410590321],[101.56625325520861,41.933214246962166],[101.56839911566857,41.93317030164968],[101.56902506510431,41.933699544271235],[101.56720106336837,41.93405571831636],[101.56475273980061,41.934005805121956],[101.56422254774321,41.93237196180593],[101.56193942599845,41.93295708550386],[101.56014160156269,41.93390679253508],[101.56135145399315,41.935912000868484],[101.56067206488763,41.938259277344116],[101.56071343315983,41.9393028428824],[101.56172512478338,41.93824978298653],[101.56295627170164,41.93617594401081],[101.56350206163205,41.9356971571184],[101.56466701931447,41.936909722222595],[101.56542494032146,41.93651936848994],[101.56540785047775,41.93568006727469],[101.56709214952286,41.93568006727469],[101.56708048502622,41.93625271267405],[101.56792222764784,41.93680474175386],[101.56708048502622,41.937913953993416],[101.56704861111143,41.94059326171913],[101.56646443684917,41.94287217881987],[101.56736043294302,41.94373291015671],[101.56763888888918,41.94487521701433],[101.57098673502628,41.944846733941404],[101.57097615559911,41.946025119358126],[101.57250840928856,41.94749728732671],[101.57207939995692,41.948750542535095],[101.57242214626746,41.949415961371926],[101.57193318684915,41.95084445529557],[101.57293931749177,41.95181098090313],[101.57207858615465,41.95263807508729],[101.57250840928856,41.953472222222615],[101.57144354926243,41.955539279514255],[101.57209581163227,41.95771999783034],[101.57208753797784,41.959373372396215],[101.57435424804714,41.960718858507335],[101.57596666124147,41.96068603515664],[101.57745429144984,41.96169433593792],[101.57820760091158,41.963247070312946],[101.57819132486992,41.96403862847262],[101.57975368923633,41.964796549479615],[101.58013617621566,41.96597493489634],[101.58097493489595,41.96652506510452],[101.58131334092894,41.9679131401914],[101.58291395399328,41.96624701605947],[101.58349093967036,41.96625895182336],[101.58431382921037,41.9654025607644],[101.58430270724864,41.964858398438025],[101.58486382378487,41.964030490451876],[101.58522935655395,41.962904459635865],[101.58628675672747,41.962925889757344],[101.5873583984378,41.964613172743384],[101.58676947699672,41.96575629340322],[101.58539672851572,41.96707519531293],[101.58542344835081,41.96838595920178],[101.58757229275187,41.96765055338585],[101.58903238932317,41.96875840928857],[101.59011013454892,41.9687364366323],[101.59101820204023,41.969047309028156],[101.5922901746963,41.97037109375037],[101.59588189019115,41.970872667101105],[101.59640462239594,41.971416558160115],[101.59842841254374,41.97059570312541],[101.59877983940981,41.97131998697955],[101.60260891384576,41.9721503363719],[101.6015220811633,41.97319444444486],[101.60208645290822,41.97373670789972],[101.60274509006086,41.97536648220529],[101.60377983940981,41.975691731771235],[101.60467434353325,41.97476074218787],[101.60544175889771,41.97515597873297],[101.60541381835947,41.97653049045181],[101.60603081597236,41.97682996961851],[101.60738050672757,41.97680230034763],[101.60847534179703,41.97570773654559],[101.60846367730062,41.97513888888932]]]}},{"type":"Feature","id":"hydrolakes:172539","properties":{"Hylak_id":172539,"Lake_name":"","Country":"China","Continent":"Asia","Poly_src":"SWBD","Lake_type":1,"Grand_id":0,"Lake_area":1.02,"Shore_len":5.78,"Shore_dev":1.61,"Vol_total":0.54,"Vol_res":0.0,"Vol_src":3,"Depth_avg":0.5,"Dis_avg":0.259,"Res_time":24.2,"Elevation":1078,"Slope_100":0.23,"Wshd_area":4189.1,"Pour_long":100.13802,"Pour_lat":40.935423,"source_id":"hydrolakes:172539","label":""},"geometry":{"type":"Polygon","coordinates":[[[100.13452870368957,40.94020779079892],[100.13958055496227,40.93485324435801],[100.1379635853238,40.93432074652816],[100.1362555037606,40.93431396484408],[100.13540304395889,40.933736165364905],[100.13458076688977,40.93375298394125],[100.13319166713296,40.93319715711834],[100.13196229404872,40.93236382378501],[100.13088627921223,40.932773437500316],[100.12987499978811,40.93485812717046],[100.12905657344413,40.93487467447949],[100.12519892268722,40.93377495659752],[100.1230117347506,40.93271375868102],[100.12208402315787,40.93182264539962],[100.12180833339715,40.930691731771276],[100.12027777777791,40.92750000000029],[100.1185631802349,40.92783474392394],[100.11764234695181,40.92871934678857],[100.1176360005141,40.92903049045168],[100.1187527778414,40.93041395399342],[100.11963067717033,40.93214626736142],[100.11925349685879,40.93398790147603],[100.12048694213252,40.93482394748298],[100.122112927437,40.93514133029544],[100.12317472563853,40.93624647352465],[100.12583541976079,40.93723524305585],[100.12676944414795,40.93813259548642],[100.12708621978777,40.93874755859406],[100.12706951035409,40.93956624348988],[100.12965109931105,40.94179280598985],[100.13281182077208,40.94185736762188],[100.13452870368957,40.94020779079892]]]}},{"type":"Feature","id":"hydrolakes:172809","properties":{"Hylak_id":172809,"Lake_name":"","Country":"China","Continent":"Asia","Poly_src":"SWBD","Lake_type":1,"Grand_id":0,"Lake_area":2.04,"Shore_len":6.81,"Shore_dev":1.35,"Vol_total":7.09,"Vol_res":0.0,"Vol_src":3,"Depth_avg":3.5,"Dis_avg":0.0,"Res_time":-1.0,"Elevation":1490,"Slope_100":1.67,"Wshd_area":51.3,"Pour_long":103.368473,"Pour_lat":40.179281,"source_id":"hydrolakes:172809","label":""},"geometry":{"type":"Polygon","coordinates":[[[103.35681586371555,40.18098253038232],[103.35771538628495,40.180344509549],[103.36253906250045,40.18046440972256],[103.36514919704888,40.17987141927114],[103.36603217230947,40.17937879774331],[103.3699717881949,40.17941514756967],[103.37086154513912,40.1789181857643],[103.37309109158019,40.17909776475716],[103.37401746961831,40.17829969618083],[103.37367024739609,40.17776855468776],[103.37187174479192,40.177227105035115],[103.37081895616359,40.17600531684053],[103.36848334418448,40.17511881510444],[103.3668096245662,40.17373426649334],[103.36582302517411,40.17409667968775],[103.36431586371572,40.17346191406273],[103.3609060329864,40.17320041232671],[103.35860975477465,40.17157226562523],[103.35769178602453,40.17149848090298],[103.35484646267383,40.17235080295171],[103.35354193793444,40.17204752604192],[103.35055148654567,40.17062771267382],[103.34853868272609,40.17078938802098],[103.34694444444477,40.169722222222504],[103.34457302517399,40.170406358507364],[103.34380289713579,40.17163574218779],[103.34158827039971,40.172302517361345],[103.34148654513945,40.17356825086836],[103.3423792860246,40.175698242187764],[103.34181586371557,40.17618326822952],[103.34262858072952,40.17681586371555],[103.34613091362883,40.17867350260451],[103.35174669053856,40.1796050347225],[103.35290635850731,40.18042697482662],[103.35460394965321,40.180812717014135],[103.35586724175374,40.18151746961831],[103.35681586371555,40.18098253038232]]]}},{"type":"Feature","id":"hydrolakes:1360530","properties":{"Hylak_id":1360530,"Lake_name":"","Country":"Mongolia","Continent":"Asia","Poly_src":"SWBD","Lake_type":1,"Grand_id":0,"Lake_area":0.48,"Shore_len":3.68,"Shore_dev":1.49,"Vol_total":0.94,"Vol_res":0.0,"Vol_src":3,"Depth_avg":1.9,"Dis_avg":0.004,"Res_time":2708.0,"Elevation":1140,"Slope_100":0.55,"Wshd_area":88.3,"Pour_long":103.778634,"Pour_lat":44.860693,"source_id":"hydrolakes:1360530","label":""},"geometry":{"type":"Polygon","coordinates":[[[103.79131320529564,44.856470350689904],[103.7917952473963,44.85602019786893],[103.78888888888918,44.85472222222285],[103.78869628906278,44.854888087379265],[103.78878390842056,44.85597850905589],[103.78725613064273,44.85623967011833],[103.78555392795175,44.85528994295407],[103.78192871093785,44.8564229191681],[103.78247612847252,44.85791370021053],[103.78086588541714,44.85930108971132],[103.77784261067757,44.85957886695928],[103.778384602865,44.8620639832821],[103.78205810546922,44.8623710188607],[103.78464979383727,44.86401744791277],[103.78535861545168,44.8631949781053],[103.78653808593782,44.86292699654956],[103.78679524739624,44.86221760471727],[103.78620171441014,44.860601330333964],[103.78632866753537,44.85902216805414],[103.78878146701419,44.858091387749425],[103.79131320529564,44.856470350689904]]]}},{"type":"Feature","id":"hydrolakes:1360572","properties":{"Hylak_id":1360572,"Lake_name":"","Country":"Mongolia","Continent":"Asia","Poly_src":"SWBD","Lake_type":1,"Grand_id":0,"Lake_area":0.32,"Shore_len":2.32,"Shore_dev":1.15,"Vol_total":0.6,"Vol_res":0.0,"Vol_src":3,"Depth_avg":1.8,"Dis_avg":0.0,"Res_time":-1.0,"Elevation":1138,"Slope_100":0.57,"Wshd_area":60.4,"Pour_long":104.564583,"Pour_lat":44.844385,"source_id":"hydrolakes:1360572","label":""},"geometry":{"type":"Polygon","coordinates":[[[104.56413601345548,44.842808507284246],[104.56388888888938,44.842500000000655],[104.5626234266498,44.842623524136684],[104.56105577256994,44.843371469710235],[104.56063340928853,44.844089914958374],[104.56023790147617,44.8472710990913],[104.56320990668445,44.84817907969233],[104.56412299262189,44.848846172757305],[104.56817898220521,44.84950004047897],[104.56767605251787,44.84737540774938],[104.56672309027812,44.84607101228579],[104.56734564887194,44.8450117556261],[104.5669379340282,44.844279060364386],[104.56543212890676,44.84317907969222],[104.56413601345548,44.842808507284246]]]}},{"type":"Feature","id":"hydrolakes:1360655","properties":{"Hylak_id":1360655,"Lake_name":"","Country":"Mongolia","Continent":"Asia","Poly_src":"SWBD","Lake_type":1,"Grand_id":0,"Lake_area":0.27,"Shore_len":2.53,"Shore_dev":1.38,"Vol_total":0.43,"Vol_res":0.0,"Vol_src":3,"Depth_avg":1.6,"Dis_avg":0.0,"Res_time":-1.0,"Elevation":1120,"Slope_100":0.45,"Wshd_area":354.4,"Pour_long":104.423994,"Pour_lat":44.809977,"source_id":"hydrolakes:1360655","label":""},"geometry":{"type":"Polygon","coordinates":[[[104.43485568576426,44.808498899672486],[104.4323098415802,44.80819424947168],[104.43166666666718,44.80750000000057],[104.4296777343755,44.80771168179041],[104.4287158203129,44.80822061750689],[104.42641520182332,44.80812942504946],[104.42304253472275,44.80923083411386],[104.42125135633722,44.81011482662689],[104.42097764756983,44.810877727933075],[104.42808919270868,44.81124470604851],[104.42930013020884,44.81041137271518],[104.43319986979208,44.810144182841555],[104.43453152126796,44.80948450300491],[104.43485568576426,44.808498899672486]]]}},{"type":"Feature","id":"hydrolakes:1360672","properties":{"Hylak_id":1360672,"Lake_name":"","Country":"Mongolia","Continent":"Asia","Poly_src":"SWBD","Lake_type":1,"Grand_id":0,"Lake_area":0.18,"Shore_len":2.29,"Shore_dev":1.51,"Vol_total":0.31,"Vol_res":0.0,"Vol_src":3,"Depth_avg":1.7,"Dis_avg":0.0,"Res_time":-1.0,"Elevation":1122,"Slope_100":0.58,"Wshd_area":184.0,"Pour_long":104.474747,"Pour_lat":44.804816,"source_id":"hydrolakes:1360672","label":""},"geometry":{"type":"Polygon","coordinates":[[[104.48069715711858,44.80486388736358],[104.48299126519129,44.804570681254745],[104.48680284288241,44.80464847140905],[104.48645128038243,44.803843549093244],[104.48472222222262,44.80277777777843],[104.4789702690976,44.802959497240465],[104.47842502170175,44.80352709876229],[104.47430826822972,44.80410177866685],[104.47472466362899,44.80569166819316],[104.48069715711858,44.80486388736358]]]}},{"type":"Feature","id":"hydrolakes:1360871","properties":{"Hylak_id":1360871,"Lake_name":"","Country":"Mongolia","Continent":"Asia","Poly_src":"SWBD","Lake_type":1,"Grand_id":0,"Lake_area":0.14,"Shore_len":1.58,"Shore_dev":1.21,"Vol_total":0.24,"Vol_res":0.0,"Vol_src":3,"Depth_avg":1.7,"Dis_avg":0.0,"Res_time":-1.0,"Elevation":1147,"Slope_100":0.66,"Wshd_area":1.5,"Pour_long":104.688691,"Pour_lat":44.716893,"source_id":"hydrolakes:1360871","label":""},"geometry":{"type":"Polygon","coordinates":[[[104.6853851996533,44.717086808947045],[104.68985731336846,44.71713144938212],[104.68988932291722,44.71555282592834],[104.68833333333367,44.714722222222804],[104.68402506510455,44.7148909674757],[104.68291937934077,44.71595321655337],[104.68329806857696,44.7179138861768],[104.6853851996533,44.717086808947045]]]}},{"type":"Feature","id":"hydrolakes:1360912","properties":{"Hylak_id":1360912,"Lake_name":"","Country":"Mongolia","Continent":"Asia","Poly_src":"SWBD","Lake_type":1,"Grand_id":0,"Lake_area":0.24,"Shore_len":2.09,"Shore_dev":1.2,"Vol_total":0.46,"Vol_res":0.0,"Vol_src":3,"Depth_avg":1.9,"Dis_avg":0.0,"Res_time":-1.0,"Elevation":1114,"Slope_100":0.67,"Wshd_area":66.6,"Pour_long":104.545015,"Pour_lat":44.703437,"source_id":"hydrolakes:1360912","label":""},"geometry":{"type":"Polygon","coordinates":[[[104.55095675998314,44.701622958713756],[104.55027777777815,44.700555555556264],[104.54771837022622,44.700874599881274],[104.54598768446226,44.70237647162605],[104.54256130642409,44.70354227701881],[104.54267171223995,44.704431016710714],[104.54645046658038,44.704903649224775],[104.54688856336844,44.70594323052359],[104.54806722005247,44.70623463948647],[104.55069417317765,44.704788140191624],[104.55095675998314,44.701622958713756]]]}},{"type":"Feature","id":"hydrolakes:1361335","properties":{"Hylak_id":1361335,"Lake_name":"","Country":"Mongolia","Continent":"Asia","Poly_src":"SWBD","Lake_type":1,"Grand_id":0,"Lake_area":0.51,"Shore_len":3.97,"Shore_dev":1.56,"Vol_total":0.81,"Vol_res":0.0,"Vol_src":3,"Depth_avg":1.6,"Dis_avg":0.0,"Res_time":-1.0,"Elevation":1030,"Slope_100":0.35,"Wshd_area":7312.1,"Pour_long":103.683445,"Pour_lat":44.479879,"source_id":"hydrolakes:1361335","label":""},"geometry":{"type":"Polygon","coordinates":[[[103.68137288411504,44.4762809583882],[103.6808802625871,44.47517696804539],[103.67938096788237,44.47450795491608],[103.67898247612874,44.473614705404316],[103.67818413628521,44.47292700873538],[103.67792697482668,44.47207299126575],[103.6772222222225,44.471388888889464],[103.67537923177122,44.47211381700362],[103.6736911349829,44.47197814941467],[103.67264919704888,44.472743937175096],[103.67335991753521,44.474017808702854],[103.67123969184064,44.47429521348806],[103.67098253038239,44.474593675402105],[103.66961398654576,44.474904615614776],[103.66922878689269,44.477015482585216],[103.67070475260442,44.47735076904365],[103.67163275824691,44.47800869411964],[103.67336941189268,44.477869127062206],[103.67378526475738,44.4760390557189],[103.67479112413241,44.47570478651329],[103.67959174262205,44.47869279649575],[103.68077446831637,44.4800655788851],[103.68207302517413,44.48070478651323],[103.68341010199697,44.48096188015472],[103.68373969184057,44.478529561361256],[103.68137288411504,44.4762809583882]]]}},{"type":"Feature","id":"hydrolakes:1361342","properties":{"Hylak_id":1361342,"Lake_name":"","Country":"Mongolia","Continent":"Asia","Poly_src":"SWBD","Lake_type":1,"Grand_id":0,"Lake_area":0.39,"Shore_len":3.71,"Shore_dev":1.67,"Vol_total":0.61,"Vol_res":0.0,"Vol_src":3,"Depth_avg":1.6,"Dis_avg":0.0,"Res_time":-1.0,"Elevation":1030,"Slope_100":0.37,"Wshd_area":7309.3,"Pour_long":103.693976,"Pour_lat":44.475914,"source_id":"hydrolakes:1361342","label":""},"geometry":{"type":"Polygon","coordinates":[[[103.70596679687532,44.47708862304745],[103.70486653645861,44.47624471028706],[103.70235568576436,44.47597751193632],[103.69333333333367,44.47361111111178],[103.69172932942735,44.473830329047985],[103.69240912543438,44.47586836073191],[103.69529215494828,44.47763359917599],[103.69681098090325,44.477366400825304],[103.69883951822948,44.47653306749203],[103.70003363715318,44.476843770345624],[103.70052381727459,44.47788258870503],[103.70181098090308,44.478189154731524],[103.70389729817748,44.479293212891264],[103.71096679687531,44.479660847982416],[103.710699869792,44.478466932509264],[103.70596679687532,44.47708862304745]]]}},{"type":"Feature","id":"hydrolakes:1361482","properties":{"Hylak_id":1361482,"Lake_name":"","Country":"Mongolia","Continent":"Asia","Poly_src":"SWBD","Lake_type":1,"Grand_id":0,"Lake_area":0.17,"Shore_len":1.74,"Shore_dev":1.18,"Vol_total":0.28,"Vol_res":0.0,"Vol_src":3,"Depth_avg":1.6,"Dis_avg":0.0,"Res_time":-1.0,"Elevation":1216,"Slope_100":0.51,"Wshd_area":84.4,"Pour_long":104.904803,"Pour_lat":44.380039,"source_id":"hydrolakes:1361482","label":""},"geometry":{"type":"Polygon","coordinates":[[[104.90040961371585,44.381307542589695],[104.90096516927133,44.38068576388946],[104.90539333767413,44.38094967312338],[104.90548719618107,44.379368252224936],[104.90431857638919,44.378551805284985],[104.90207573784778,44.37820224338168],[104.90055555555614,44.377500000000566],[104.8991650390629,44.37768595377662],[104.89792426215325,44.379969177246664],[104.89863389757,44.38120171441028],[104.90040961371585,44.381307542589695]]]}},{"type":"Feature","id":"hydrolakes:1361484","properties":{"Hylak_id":1361484,"Lake_name":"","Country":"Mongolia","Continent":"Asia","Poly_src":"SWBD","Lake_type":1,"Grand_id":0,"Lake_area":0.29,"Shore_len":2.22,"Shore_dev":1.16,"Vol_total":0.64,"Vol_res":0.0,"Vol_src":3,"Depth_avg":2.2,"Dis_avg":0.0,"Res_time":-1.0,"Elevation":1215,"Slope_100":0.86,"Wshd_area":282.7,"Pour_long":104.915625,"Pour_lat":44.378087,"source_id":"hydrolakes:1361484","label":""},"geometry":{"type":"Polygon","coordinates":[[[104.91452745225752,44.376807556153096],[104.91416666666726,44.37638888888944],[104.91159993489634,44.37660342746386],[104.91153971354203,44.3782010565871],[104.91098253038251,44.37971761067763],[104.91151746961862,44.380149230957784],[104.912649197049,44.38040632459928],[104.91468424479211,44.381541714139075],[104.91737141927138,44.38235076904351],[104.91836697048649,44.38290632459916],[104.91925564236169,44.3825658501525],[104.91938368055617,44.38097028944287],[104.9185888671879,44.37918887668246],[104.91762858072963,44.3787603420688],[104.91621093750035,44.37711463080575],[104.91452745225752,44.376807556153096]]]}},{"type":"Feature","id":"hydrolakes:1362120","properties":{"Hylak_id":1362120,"Lake_name":"","Country":"Mongolia","Continent":"Asia","Poly_src":"SWBD","Lake_type":1,"Grand_id":0,"Lake_area":0.61,"Shore_len":3.78,"Shore_dev":1.36,"Vol_total":1.27,"Vol_res":0.0,"Vol_src":3,"Depth_avg":2.1,"Dis_avg":0.0,"Res_time":-1.0,"Elevation":1546,"Slope_100":0.59,"Wshd_area":31.9,"Pour_long":104.914731,"Pour_lat":43.918757,"source_id":"hydrolakes:1362120","label":""},"geometry":{"type":"Polygon","coordinates":[[[104.91873969184087,43.91098253038251],[104.91835232204897,43.910115017361704],[104.91385308159772,43.90944742838599],[104.91361111111166,43.909166666667204],[104.91320095486157,43.90931722005274],[104.91087185329923,43.909130113390404],[104.91014919704907,43.90976528591631],[104.9118202039935,43.91120503743548],[104.91177408854219,43.91261162651966],[104.91223144531307,43.913431464301766],[104.91202365451426,43.916017184787904],[104.91292697482697,43.91679524739641],[104.91354003906304,43.91828735351618],[104.91181586371584,43.920934990777425],[104.91524414062536,43.92123969184081],[104.91640516493112,43.91989210340762],[104.91745117187548,43.91768120659776],[104.91931586371584,43.915426974826914],[104.91978244357682,43.914381103516234],[104.91873969184087,43.91348253038245],[104.91848253038239,43.91285007053017],[104.91957302517397,43.911700507270496],[104.91873969184087,43.91098253038251]]]}},{"type":"Feature","id":"hydrolakes:1362168","properties":{"Hylak_id":1362168,"Lake_name":"","Country":"Mongolia","Continent":"Asia","Poly_src":"SWBD","Lake_type":1,"Grand_id":0,"Lake_area":0.11,"Shore_len":1.68,"Shore_dev":1.4,"Vol_total":0.27,"Vol_res":0.0,"Vol_src":3,"Depth_avg":2.3,"Dis_avg":0.0,"Res_time":-1.0,"Elevation":1598,"Slope_100":1.29,"Wshd_area":4.5,"Pour_long":104.791981,"Pour_lat":43.882197,"source_id":"hydrolakes:1362168","label":""},"geometry":{"type":"Polygon","coordinates":[[[104.79148654513949,43.88373074001794],[104.79249240451423,43.88212463378966],[104.79222222222262,43.88138888888949],[104.79123969184081,43.88151746961864],[104.79015625000056,43.88228576660225],[104.78844509548645,43.88294793023056],[104.7867702907991,43.882813381619485],[104.78565104166739,43.8832244194885],[104.78492133246584,43.88316582573839],[104.78459364149347,43.88454108344246],[104.78774414062542,43.88485080295197],[104.78921983506979,43.88402730306041],[104.79148654513949,43.88373074001794]]]}},{"type":"Feature","id":"hydrolakes:1363028","properties":{"Hylak_id":1363028,"Lake_name":"","Country":"Mongolia","Continent":"Asia","Poly_src":"SWBD","Lake_type":1,"Grand_id":0,"Lake_area":0.21,"Shore_len":2.06,"Shore_dev":1.27,"Vol_total":0.39,"Vol_res":0.0,"Vol_src":3,"Depth_avg":1.9,"Dis_avg":0.0,"Res_time":-1.0,"Elevation":1356,"Slope_100":0.68,"Wshd_area":360.5,"Pour_long":104.671875,"Pour_lat":43.445188,"source_id":"hydrolakes:1363028","label":""},"geometry":{"type":"Polygon","coordinates":[[[104.67040907118098,43.444313422309676],[104.67027777777832,43.44416666666723],[104.66925075954919,43.44435831705778],[104.66938856336856,43.446674533420605],[104.66875759548668,43.447835693359934],[104.67005099826423,43.448713650174284],[104.67298448350743,43.44766113281298],[104.67790907118098,43.44735243055601],[104.67757975260457,43.44630723741375],[104.67597981770882,43.44568657769156],[104.67377115885455,43.44527438693643],[104.67209092882001,43.44457546658043],[104.67040907118098,43.444313422309676]]]}},{"type":"Feature","id":"hydrolakes:1364393","properties":{"Hylak_id":1364393,"Lake_name":"","Country":"China","Continent":"Asia","Poly_src":"SWBD","Lake_type":1,"Grand_id":0,"Lake_area":0.86,"Shore_len":4.58,"Shore_dev":1.39,"Vol_total":1.85,"Vol_res":0.0,"Vol_src":3,"Depth_avg":2.1,"Dis_avg":0.0,"Res_time":-1.0,"Elevation":900,"Slope_100":0.56,"Wshd_area":6.0,"Pour_long":100.855483,"Pour_lat":42.377793,"source_id":"hydrolakes:1364393","label":""},"geometry":{"type":"Polygon","coordinates":[[[100.8488467068143,42.386522352431086],[100.85104777018233,42.38594563802121],[100.8523977322049,42.384488661024704],[100.85495435926691,42.38387966579904],[100.856539171007,42.381120605469164],[100.85655395507831,42.37961751302129],[100.85624192979617,42.37902777777822],[100.85679985894114,42.37797336154563],[100.85555555555572,42.37638888888932],[100.85422607421884,42.376948513455375],[100.85459086100286,42.37763780381988],[100.8542928059897,42.37848822699698],[100.85203904893683,42.37850151909771],[100.84987575954858,42.376294216580334],[100.84780212402381,42.377884385851075],[100.84417867024746,42.37880316840318],[100.84460686577694,42.37961263020884],[100.84290859646279,42.38118598090318],[100.84293443467885,42.38183729383718],[100.8451335991756,42.38301350911519],[100.8435548231339,42.38447618272613],[100.84171841091597,42.385057508681086],[100.84192267523878,42.38596679687549],[100.84543823242211,42.38523139105945],[100.8465230305992,42.38597791883723],[100.8488467068143,42.386522352431086]]]}},{"type":"Feature","id":"hydrolakes:1364495","properties":{"Hylak_id":1364495,"Lake_name":"","Country":"China","Continent":"Asia","Poly_src":"SWBD","Lake_type":1,"Grand_id":0,"Lake_area":0.15,"Shore_len":1.71,"Shore_dev":1.23,"Vol_total":0.13,"Vol_res":0.0,"Vol_src":3,"Depth_avg":0.8,"Dis_avg":0.362,"Res_time":4.0,"Elevation":904,"Slope_100":0.13,"Wshd_area":6159.7,"Pour_long":101.323655,"Pour_lat":42.277594,"source_id":"hydrolakes:1364495","label":""},"geometry":{"type":"Polygon","coordinates":[[[101.32401489257819,42.276262749566456],[101.32388888888903,42.27611111111162],[101.32277547200545,42.276437717014346],[101.32181844075546,42.27723280164969],[101.32216335720494,42.278186306424004],[101.32407063802094,42.27874593099017],[101.32399251302098,42.279512532552474],[101.3249461534291,42.2806605360247],[101.32589721679705,42.28075764974005],[101.32929267035598,42.279210069444844],[101.32830471462694,42.27829155816016],[101.32627360026072,42.27769558376781],[101.32401489257819,42.276262749566456]]]}},{"type":"Feature","id":"hydrolakes:1364715","properties":{"Hylak_id":1364715,"Lake_name":"","Country":"China","Continent":"Asia","Poly_src":"SWBD","Lake_type":1,"Grand_id":0,"Lake_area":0.67,"Shore_len":4.16,"Shore_dev":1.43,"Vol_total":1.35,"Vol_res":0.0,"Vol_src":3,"Depth_avg":2.0,"Dis_avg":0.029,"Res_time":539.5,"Elevation":890,"Slope_100":0.54,"Wshd_area":196.2,"Pour_long":101.58478,"Pour_lat":41.999002,"source_id":"hydrolakes:1364715","label":""},"geometry":{"type":"Polygon","coordinates":[[[101.58802652994814,42.00697347005246],[101.58760565863736,42.006219075521244],[101.5861043294272,42.006339789497076],[101.58507731119806,42.005766872830236],[101.58503770616329,42.003185492621924],[101.5862494574655,42.00214138454908],[101.58655531141511,42.0007950846358],[101.58622585720514,41.998671603733044],[101.58568413628495,41.99820475260458],[101.58555555555569,41.99750000000046],[101.58511189778659,41.997970377604645],[101.58377699110252,41.99786295572966],[101.58185099283872,41.99972574869838],[101.58142659505233,42.000676812066445],[101.58003553602475,42.00187527126781],[101.5781262207035,42.00172200520876],[101.5760519748265,42.00533827039976],[101.57512858072937,42.00651746961847],[101.57487141927106,42.00724989149353],[101.57851074218797,42.00822265625038],[101.58126030816004,42.00737141927124],[101.58240790473121,42.006731228298975],[101.58358588324677,42.00682590060802],[101.58454006618956,42.00793348524354],[101.58622721354197,42.008461914062934],[101.58802652994814,42.00697347005246]]]}},{"type":"Feature","id":"hydrolakes:1364783","properties":{"Hylak_id":1364783,"Lake_name":"","Country":"China","Continent":"Asia","Poly_src":"SWBD","Lake_type":1,"Grand_id":0,"Lake_area":0.25,"Shore_len":3.59,"Shore_dev":2.04,"Vol_total":0.31,"Vol_res":0.0,"Vol_src":3,"Depth_avg":1.2,"Dis_avg":0.0,"Res_time":-1.0,"Elevation":890,"Slope_100":0.27,"Wshd_area":1053.5,"Pour_long":101.559524,"Pour_lat":41.926977,"source_id":"hydrolakes:1364783","label":""},"geometry":{"type":"Polygon","coordinates":[[[101.56140733506976,41.926902669271215],[101.56169501410608,41.925422092014344],[101.56097751193596,41.926533203125416],[101.5603782823352,41.92680013020873],[101.5604615614152,41.92469970703172],[101.56129855685782,41.92311794704898],[101.56111111111136,41.922222222222615],[101.56068915473105,41.92235568576433],[101.56014417860257,41.92319986979203],[101.55970418294288,41.923466796875346],[101.559107123481,41.92236653645875],[101.55874823676226,41.92349962022604],[101.55791205512168,41.92346652560815],[101.55677124023447,41.924070366753824],[101.55576239691874,41.92663140191013],[101.55696248372408,41.927077907986586],[101.55767727322058,41.92597764756994],[101.55762179904536,41.92737575954908],[101.55838311089423,41.92808132595525],[101.55711724175376,41.928898925781596],[101.5560255262588,41.93138102213578],[101.55728176540822,41.93207790798664],[101.55785644531267,41.93026312934069],[101.55958862304698,41.92958875868101],[101.56035590277787,41.92796278211853],[101.56140733506976,41.926902669271215]]]}},{"type":"Feature","id":"hydrolakes:1365085","properties":{"Hylak_id":1365085,"Lake_name":"","Country":"China","Continent":"Asia","Poly_src":"SWBD","Lake_type":1,"Grand_id":0,"Lake_area":0.2,"Shore_len":2.16,"Shore_dev":1.37,"Vol_total":0.29,"Vol_res":0.0,"Vol_src":3,"Depth_avg":1.5,"Dis_avg":0.053,"Res_time":62.7,"Elevation":981,"Slope_100":0.4,"Wshd_area":712.8,"Pour_long":100.858603,"Pour_lat":41.622114,"source_id":"hydrolakes:1365085","label":""},"geometry":{"type":"Polygon","coordinates":[[[100.85737141927092,41.61623969184063],[100.85694444444471,41.61555555555594],[100.85520365397139,41.61573323567745],[100.85476040310346,41.617765028212204],[100.85514919704877,41.61846191406295],[100.85541856553846,41.61993842230936],[100.85654310438377,41.62152452256987],[100.85598917643256,41.62303276909762],[100.85718994140643,41.62370279947959],[100.85815246582047,41.623780110677444],[100.85905626085093,41.6226261393233],[100.85820475260437,41.61846191406295],[100.85762858072923,41.61764919704899],[100.85737141927092,41.61623969184063]]]}},{"type":"Feature","id":"hydrolakes:1366585","properties":{"Hylak_id":1366585,"Lake_name":"","Country":"China","Continent":"Asia","Poly_src":"SWBD","Lake_type":1,"Grand_id":0,"Lake_area":0.59,"Shore_len":7.04,"Shore_dev":2.59,"Vol_total":0.84,"Vol_res":0.0,"Vol_src":3,"Depth_avg":1.4,"Dis_avg":0.0,"Res_time":-1.0,"Elevation":1403,"Slope_100":0.27,"Wshd_area":1279.3,"Pour_long":103.57313,"Pour_lat":40.290119,"source_id":"hydrolakes:1366585","label":""},"geometry":{"type":"Polygon","coordinates":[[[103.5769238281253,40.29164605034748],[103.5776334635421,40.29103461371557],[103.57802490234417,40.289734700521194],[103.58014919704914,40.288204752604486],[103.58248860677122,40.2854117838545],[103.58487141927111,40.28403808593771],[103.58526828342048,40.283148871528056],[103.58640733506974,40.28324055989606],[103.5880395507815,40.281718750000266],[103.58744032118085,40.280645073785024],[103.58846191406298,40.280726996528074],[103.58775689019132,40.27932562934052],[103.58840359158046,40.2771777343753],[103.58923041449702,40.27548502604208],[103.59191487630238,40.271676432292054],[103.59138888888918,40.27083333333371],[103.59055257161504,40.27098578559071],[103.58950683593781,40.27280002170164],[103.58646755642388,40.27647406684059],[103.58657931857664,40.27786241319467],[103.58546603732702,40.27865180121552],[103.58294325086854,40.27911187066002],[103.58284315321208,40.2803597005211],[103.58464057074679,40.28126030816003],[103.57926161024352,40.287057291667],[103.57782280816014,40.28795844184049],[103.5761927625872,40.289850802951605],[103.57529920789977,40.28955837673635],[103.57437201605927,40.28848253038217],[103.57273952908042,40.28876898871562],[103.57126030815999,40.291324327257314],[103.57201117621554,40.2919482421878],[103.573884277344,40.29126030815996],[103.5750339084205,40.29235080295166],[103.57653808593778,40.292093641493295],[103.5769238281253,40.29164605034748]]]}},{"type":"Feature","id":"hydrolakes:1366717","properties":{"Hylak_id":1366717,"Lake_name":"","Country":"China","Continent":"Asia","Poly_src":"SWBD","Lake_type":1,"Grand_id":0,"Lake_area":0.19,"Shore_len":1.77,"Shore_dev":1.14,"Vol_total":1.17,"Vol_res":0.0,"Vol_src":3,"Depth_avg":6.0,"Dis_avg":0.001,"Res_time":13512.6,"Elevation":1148,"Slope_100":7.77,"Wshd_area":21.5,"Pour_long":102.118601,"Pour_lat":40.071646,"source_id":"hydrolakes:1366717","label":""},"geometry":{"type":"Polygon","coordinates":[[[102.11873467339456,40.069042968750296],[102.1186111111113,40.06888888888909],[102.11738878038227,40.06910156250024],[102.11432088216179,40.07062228732667],[102.11497856987876,40.071594509548845],[102.11724433051239,40.07257269965311],[102.11857204861144,40.072737630208564],[102.12029717339425,40.07199327256973],[102.1228984917538,40.07143012152807],[102.12095581054723,40.06932074652815],[102.11873467339456,40.069042968750296]]]}},{"type":"Feature","id":"hydrolakes:1366738","properties":{"Hylak_id":1366738,"Lake_name":"","Country":"China","Continent":"Asia","Poly_src":"SWBD","Lake_type":1,"Grand_id":0,"Lake_area":0.28,"Shore_len":2.06,"Shore_dev":1.09,"Vol_total":1.95,"Vol_res":0.0,"Vol_src":3,"Depth_avg":6.9,"Dis_avg":0.002,"Res_time":11286.9,"Elevation":1142,"Slope_100":9.11,"Wshd_area":28.8,"Pour_long":102.057713,"Pour_lat":40.056631,"source_id":"hydrolakes:1366738","label":""},"geometry":{"type":"Polygon","coordinates":[[[102.06053181966166,40.05501681857663],[102.06027777777797,40.05472222222244],[102.05806193033868,40.054907226562705],[102.05709364149345,40.056642795139226],[102.05787882487004,40.05801974826409],[102.06057996961823,40.05999891493087],[102.0639172363285,40.060450846354456],[102.06512356228319,40.05991265191],[102.0651832411026,40.05917046440993],[102.06427639431433,40.05697753906276],[102.06053181966166,40.05501681857663]]]}},{"type":"Feature","id":"hydrolakes:1366753","properties":{"Hylak_id":1366753,"Lake_name":"","Country":"China","Continent":"Asia","Poly_src":"SWBD","Lake_type":1,"Grand_id":0,"Lake_area":0.31,"Shore_len":2.2,"Shore_dev":1.11,"Vol_total":1.11,"Vol_res":0.0,"Vol_src":3,"Depth_avg":3.6,"Dis_avg":0.001,"Res_time":12817.7,"Elevation":1149,"Slope_100":2.23,"Wshd_area":24.0,"Pour_long":102.189428,"Pour_lat":40.041843,"source_id":"hydrolakes:1366753","label":""},"geometry":{"type":"Polygon","coordinates":[[[102.1892826334639,40.03599500868091],[102.18861111111141,40.035000000000196],[102.1877937825526,40.035196940104356],[102.18697794596375,40.03503580729199],[102.18584418402799,40.03550184461841],[102.18527438693599,40.03697916666687],[102.1836299641929,40.038836805555775],[102.1838000488284,40.039697808159985],[102.18575141059051,40.040666775173804],[102.18793958875887,40.0412272135419],[102.18872707790831,40.0418283420143],[102.18958034939254,40.04206054687529],[102.19026543511313,40.04028374565996],[102.19104600694465,40.039262152778065],[102.19072170681466,40.03762098524328],[102.1892826334639,40.03599500868091]]]}},{"type":"Feature","id":"hydrolakes:1366782","properties":{"Hylak_id":1366782,"Lake_name":"","Country":"China","Continent":"Asia","Poly_src":"SWBD","Lake_type":1,"Grand_id":0,"Lake_area":0.44,"Shore_len":2.54,"Shore_dev":1.08,"Vol_total":3.92,"Vol_res":0.0,"Vol_src":3,"Depth_avg":8.9,"Dis_avg":0.006,"Res_time":7557.1,"Elevation":1156,"Slope_100":13.31,"Wshd_area":144.7,"Pour_long":102.225367,"Pour_lat":40.016481,"source_id":"hydrolakes:1366782","label":""},"geometry":{"type":"Polygon","coordinates":[[[102.22067816840308,40.02357421875024],[102.22337470160613,40.0234467230905],[102.22519002278665,40.02202473958357],[102.22510755750892,40.020999348958696],[102.22707302517375,40.017157660590556],[102.22500000000036,40.0161111111114],[102.22217651367197,40.01620171440993],[102.22114786783891,40.016579318576646],[102.21960083007843,40.01812174479204],[102.2178847927521,40.02099229600725],[102.21794365776941,40.021724175347515],[102.2194597710506,40.02303005642386],[102.22067816840308,40.02357421875024]]]}},{"type":"Feature","id":"hydrolakes:1366802","properties":{"Hylak_id":1366802,"Lake_name":"","Country":"China","Continent":"Asia","Poly_src":"SWBD","Lake_type":1,"Grand_id":0,"Lake_area":0.16,"Shore_len":1.96,"Shore_dev":1.37,"Vol_total":0.35,"Vol_res":0.0,"Vol_src":3,"Depth_avg":2.2,"Dis_avg":0.0,"Res_time":-1.0,"Elevation":1152,"Slope_100":0.96,"Wshd_area":3.0,"Pour_long":102.15463,"Pour_lat":40.003803,"source_id":"hydrolakes:1366802","label":""},"geometry":{"type":"Polygon","coordinates":[[[102.1571801757816,40.006270073785004],[102.15644924587718,40.004484592014194],[102.1554345703127,40.00373209635438],[102.15392171224005,40.00318033854188],[102.15361111111127,40.002777777778135],[102.15129923502622,40.002910698784945],[102.14971327039939,40.00410807291706],[102.15016099717911,40.00485026041696],[102.14999782986132,40.00595431857664],[102.15104532877638,40.00559950086824],[102.15239189995674,40.00460123697957],[102.15321234809062,40.00484320746551],[102.1545285373266,40.00673611111131],[102.15624782986134,40.006990017361375],[102.1571801757816,40.006270073785004]]]}}]}