{"type":"FeatureCollection","features":[{"type":"Feature","id":"hydrolakes:1397008","properties":{"Hylak_id":1397008,"Lake_name":"","Country":"Vietnam","Continent":"Asia","Poly_src":"SWBD","Lake_type":1,"Grand_id":0,"Lake_area":0.7,"Shore_len":3.63,"Shore_dev":1.22,"Vol_total":2.01,"Vol_res":0.0,"Vol_src":3,"Depth_avg":2.9,"Dis_avg":0.12,"Res_time":193.4,"Elevation":3,"Slope_100":1.1,"Wshd_area":2.3,"Pour_long":108.890895,"Pour_lat":14.993848,"source_id":"hydrolakes:1397008","label":""},"geometry":{"type":"Polygon","coordinates":[[[108.89337829589743,14.992070486281136],[108.89267110188695,14.9916666666673],[108.89202467176568,14.991909550561388],[108.88999152289392,14.991823851268009],[108.8900929768871,14.992817373276296],[108.88922220865783,14.994859484567144],[108.88684726291132,14.9984518565077],[108.88693081325852,15.001838080221319],[108.8881268310538,15.002831597196291],[108.8894337971995,15.003398340378055],[108.89217522515105,15.001949329376714],[108.89189663357098,14.999214972655466],[108.89420077853634,14.997446937031839],[108.89451273600156,14.995353469849192],[108.89440477159201,14.994294714398336],[108.89504496256416,14.993762847053233],[108.89529724121007,14.992976308399307],[108.89337829589743,14.992070486281136]]]}}]}