{"type":"FeatureCollection","features":[{"type":"Feature","id":"hydrolakes:178772","properties":{"Hylak_id":178772,"Lake_name":"","Country":"Philippines","Continent":"Asia","Poly_src":"SWBD","Lake_type":1,"Grand_id":0,"Lake_area":1.09,"Shore_len":7.61,"Shore_dev":2.06,"Vol_total":1.16,"Vol_res":0.0,"Vol_src":3,"Depth_avg":1.1,"Dis_avg":0.45,"Res_time":29.7,"Elevation":2,"Slope_100":0.52,"Wshd_area":6.8,"Pour_long":119.909031,"Pour_lat":16.241501,"source_id":"hydrolakes:178772","label":""},"geometry":{"type":"Polygon","coordinates":[[[119.90351765102929,16.249448055691403],[119.90481568230643,16.248329722086737],[119.90549308776968,16.24697519938178],[119.90494635688066,16.245486399332947],[119.90631945716126,16.244303402371088],[119.90857601589755,16.24344707912894],[119.90988488939189,16.243552246094055],[119.9110463375527,16.244375762939796],[119.91219778272949,16.24303927951405],[119.91107204861237,16.241601850721906],[119.9084618886323,16.241260325114297],[119.9080472479938,16.240779045952934],[119.90867548624806,16.239068298340214],[119.90648092058098,16.237177564833246],[119.90444444444574,16.23583333333363],[119.90055359310685,16.236579657660798],[119.8997139104219,16.237554287380817],[119.90020551893576,16.238892974853684],[119.90016582065294,16.240612928602673],[119.90270640903162,16.242801767985156],[119.90409921010462,16.243674146864407],[119.90336929745274,16.244703589545566],[119.90094262441113,16.245727047390744],[119.89961892446013,16.244190622965732],[119.89931588490936,16.243184119330692],[119.89873784807105,16.24236887613955],[119.8973714404649,16.242272050645795],[119.90041313595356,16.250396457248428],[119.90296609242876,16.250684119330742],[119.90351765102929,16.249448055691403]],[[119.90308978610699,16.245831909179913],[119.90416666666778,16.245555555555768],[119.90433887481805,16.246256663004715],[119.90397275712883,16.247128346761315],[119.90162225511455,16.248405778673316],[119.90127543555474,16.247868109809303],[119.90308978610699,16.245831909179913]]]}},{"type":"Feature","id":"hydrolakes:178774","properties":{"Hylak_id":178774,"Lake_name":"","Country":"Philippines","Continent":"Asia","Poly_src":"SWBD","Lake_type":1,"Grand_id":0,"Lake_area":2.66,"Shore_len":13.59,"Shore_dev":2.35,"Vol_total":4.48,"Vol_res":0.0,"Vol_src":3,"Depth_avg":1.7,"Dis_avg":0.831,"Res_time":62.4,"Elevation":0,"Slope_100":0.65,"Wshd_area":12.6,"Pour_long":119.922223,"Pour_lat":16.239859,"source_id":"hydrolakes:178774","label":""},"geometry":{"type":"Polygon","coordinates":[[[119.9226310729992,16.23792448255773],[119.92165271335307,16.234372812907225],[119.92089446173901,16.233695305718527],[119.91909607781429,16.23313998752195],[119.91846482171081,16.231764611138487],[119.91720805698088,16.231839514838498],[119.91681337144769,16.23093444824235],[119.91822799682728,16.230285169813726],[119.91816681756023,16.229258677164978],[119.91684221055885,16.228650733100267],[119.91598003811424,16.227450815836846],[119.91742944505592,16.22503533257401],[119.91734993828783,16.223701443142545],[119.91485726250659,16.221892428928186],[119.91416666666794,16.219722222222458],[119.91327112833773,16.219889373779495],[119.91236892700317,16.221183081733045],[119.91333682590187,16.223510165744585],[119.91282913208147,16.224444444444657],[119.91329817030277,16.22530758327929],[119.91193631490188,16.22696740044512],[119.91044687907021,16.22742733425582],[119.91011342366647,16.229213884141927],[119.90922460768081,16.229575517442697],[119.90735329522158,16.228757815891015],[119.90659736209562,16.227911766900263],[119.90719812181379,16.22623745388472],[119.90565622117913,16.223641883002642],[119.90481465657683,16.222889946831742],[119.9039574644313,16.221142798529968],[119.9030501174941,16.220332082112805],[119.9021903864554,16.220799272325507],[119.90181336720894,16.22225302802218],[119.90292447832024,16.224297739664962],[119.90329687330569,16.225503709581403],[119.90318399217512,16.22739757961716],[119.89963835398487,16.228760613335737],[119.90070525275456,16.232363416883913],[119.90025654686934,16.23318913777706],[119.90079285939652,16.235191582573975],[119.9056179894352,16.23472586737762],[119.90857366773946,16.237507629394884],[119.9103269534653,16.24040885077602],[119.91152818468004,16.239569786919674],[119.91286650763726,16.240606926812234],[119.91378939310817,16.24010542127843],[119.91377096388186,16.237981567382974],[119.91521154615748,16.23909795125354],[119.9177560763901,16.238946295844357],[119.91874218411027,16.236797739665064],[119.91963951110961,16.23563985188821],[119.92095117357161,16.235718027750863],[119.92133178711066,16.238967132568575],[119.92093778822272,16.24081122504373],[119.92099271138619,16.241732635498295],[119.92323222690288,16.242075517442743],[119.92381846110152,16.240798238118714],[119.9226310729992,16.23792448255773]],[[119.91338095771056,16.234120466444438],[119.91152706570205,16.23567908393028],[119.90965941535211,16.234523179796213],[119.91197578430297,16.231280653211968],[119.91361111111229,16.231111111111375],[119.91448955112162,16.232295294867868],[119.91338095771056,16.234120466444438]]]}},{"type":"Feature","id":"hydrolakes:178777","properties":{"Hylak_id":178777,"Lake_name":"","Country":"Philippines","Continent":"Asia","Poly_src":"SWBD","Lake_type":1,"Grand_id":0,"Lake_area":1.35,"Shore_len":8.18,"Shore_dev":1.99,"Vol_total":1.56,"Vol_res":0.0,"Vol_src":3,"Depth_avg":1.2,"Dis_avg":9.431,"Res_time":1.9,"Elevation":3,"Slope_100":0.53,"Wshd_area":141.6,"Pour_long":119.921523,"Pour_lat":16.218952,"source_id":"hydrolakes:178777","label":""},"geometry":{"type":"Polygon","coordinates":[[[119.91912678188856,16.230050337049875],[119.92041337755131,16.22956688774974],[119.92204639011078,16.229930436876316],[119.9225628577351,16.226463131375056],[119.92316609700634,16.224305555555816],[119.92262603759889,16.222373962402457],[119.92237396240364,16.219570482042343],[119.9215406290702,16.21568159315342],[119.92031691657286,16.212777777777887],[119.92095329284786,16.211666666666872],[119.92035352071235,16.210619472927704],[119.9205190785737,16.208995259603057],[119.91944444444567,16.208055555555802],[119.91902630276275,16.208402896457528],[119.91876285129234,16.209711591932717],[119.91965011596795,16.21144644843224],[119.91919594658856,16.212239430745683],[119.91789488898502,16.211209750705507],[119.91729248046994,16.2112711588544],[119.91731078253969,16.214104868571155],[119.91557751125873,16.214948289659446],[119.91451909383261,16.214840410020827],[119.91346235487322,16.21240378485811],[119.91319705539394,16.209745686849203],[119.91225517273085,16.208963300917105],[119.91043245103737,16.209472910563306],[119.91002759297817,16.210852559407897],[119.910162209406,16.212173258463736],[119.91090353224138,16.212789052327764],[119.91201366848543,16.21435163709873],[119.91488680521775,16.218863186306635],[119.91575098673621,16.22117033216705],[119.91713680691322,16.220073547363427],[119.91797233581661,16.220158725314832],[119.91854340447446,16.222104746500804],[119.91942760891499,16.223333333333528],[119.91863565233143,16.224433746338093],[119.91876507229415,16.225703413221765],[119.91797606574283,16.227351565891013],[119.91912678188856,16.230050337049875]]]}},{"type":"Feature","id":"hydrolakes:1395778","properties":{"Hylak_id":1395778,"Lake_name":"","Country":"Philippines","Continent":"Asia","Poly_src":"SWBD","Lake_type":1,"Grand_id":0,"Lake_area":0.24,"Shore_len":2.05,"Shore_dev":1.19,"Vol_total":0.52,"Vol_res":0.0,"Vol_src":3,"Depth_avg":2.2,"Dis_avg":0.093,"Res_time":64.5,"Elevation":0,"Slope_100":0.89,"Wshd_area":1.4,"Pour_long":119.935248,"Pour_lat":16.418812,"source_id":"hydrolakes:1395778","label":""},"geometry":{"type":"Polygon","coordinates":[[[119.93349462721193,16.41612439738401],[119.93305555555685,16.415555555555784],[119.93182343377111,16.415764862696506],[119.93234323289789,16.41710121525682],[119.93327683342955,16.418554766708212],[119.93395624796676,16.42177446097162],[119.93467666626094,16.421880921324316],[119.93675910102121,16.420715104209307],[119.93762101067574,16.419552565680874],[119.93723134358845,16.41823156515784],[119.93646927727718,16.41724427064287],[119.93557152642268,16.41670274310667],[119.93349462721193,16.41612439738401]]]}},{"type":"Feature","id":"hydrolakes:1395920","properties":{"Hylak_id":1395920,"Lake_name":"","Country":"Philippines","Continent":"Asia","Poly_src":"SWBD","Lake_type":1,"Grand_id":0,"Lake_area":0.24,"Shore_len":2.25,"Shore_dev":1.3,"Vol_total":0.74,"Vol_res":0.0,"Vol_src":3,"Depth_avg":3.1,"Dis_avg":0.19,"Res_time":45.3,"Elevation":0,"Slope_100":1.83,"Wshd_area":2.9,"Pour_long":119.906102,"Pour_lat":16.256153,"source_id":"hydrolakes:1395920","label":""},"geometry":{"type":"Polygon","coordinates":[[[119.90373411390652,16.25237699720617],[119.9033333333345,16.251944444444632],[119.90237588670635,16.252127244737608],[119.90232386271276,16.253439704047594],[119.90384524875356,16.255240037706358],[119.90609302520869,16.259578043620138],[119.907366409303,16.259033067491487],[119.90763359069939,16.257355821397823],[119.90818914625498,16.2557707553442],[119.90792196485859,16.255133599175508],[119.90494583977727,16.25349972195113],[119.90373411390652,16.25237699720617]]]}},{"type":"Feature","id":"hydrolakes:1395923","properties":{"Hylak_id":1395923,"Lake_name":"","Country":"Philippines","Continent":"Asia","Poly_src":"SWBD","Lake_type":1,"Grand_id":0,"Lake_area":0.26,"Shore_len":2.1,"Shore_dev":1.17,"Vol_total":0.77,"Vol_res":0.0,"Vol_src":3,"Depth_avg":3.0,"Dis_avg":0.258,"Res_time":34.5,"Elevation":0,"Slope_100":1.67,"Wshd_area":3.9,"Pour_long":119.918746,"Pour_lat":16.252125,"source_id":"hydrolakes:1395923","label":""},"geometry":{"type":"Polygon","coordinates":[[[119.92082550896669,16.252257775200974],[119.918938835993,16.25006791856572],[119.91738131205364,16.250193057590252],[119.91666666666788,16.249166666666838],[119.91566038343757,16.249298333062427],[119.9156540001776,16.251058926052735],[119.91814279344459,16.255956912570696],[119.91882562425513,16.256011776394587],[119.92065017700327,16.254439849853725],[119.92082550896669,16.252257775200974]]]}},{"type":"Feature","id":"hydrolakes:1395934","properties":{"Hylak_id":1395934,"Lake_name":"","Country":"Philippines","Continent":"Asia","Poly_src":"SWBD","Lake_type":1,"Grand_id":0,"Lake_area":0.16,"Shore_len":1.75,"Shore_dev":1.25,"Vol_total":0.27,"Vol_res":0.0,"Vol_src":3,"Depth_avg":1.7,"Dis_avg":0.014,"Res_time":223.8,"Elevation":5,"Slope_100":0.62,"Wshd_area":0.2,"Pour_long":119.928162,"Pour_lat":16.243899,"source_id":"hydrolakes:1395934","label":""},"geometry":{"type":"Polygon","coordinates":[[[119.92707299974359,16.24209365844746],[119.9269444444455,16.241944444444698],[119.92546810574112,16.242137603759943],[119.92537812974842,16.243257395426667],[119.926517444188,16.244238959418567],[119.9251492224812,16.245589396159062],[119.92555130005002,16.247073008219616],[119.92691440158546,16.246795857747543],[119.92929522196567,16.24401563856361],[119.92888975355476,16.242704332139965],[119.92707299974359,16.24209365844746]]]}},{"type":"Feature","id":"hydrolakes:1395936","properties":{"Hylak_id":1395936,"Lake_name":"","Country":"Philippines","Continent":"Asia","Poly_src":"SWBD","Lake_type":1,"Grand_id":0,"Lake_area":0.67,"Shore_len":5.25,"Shore_dev":1.81,"Vol_total":1.17,"Vol_res":0.0,"Vol_src":3,"Depth_avg":1.7,"Dis_avg":24.81,"Res_time":0.5,"Elevation":4,"Slope_100":0.4,"Wshd_area":379.2,"Pour_long":119.932292,"Pour_lat":16.242473,"source_id":"hydrolakes:1395936","label":""},"geometry":{"type":"Polygon","coordinates":[[[119.93348255581452,16.24292699178079],[119.93483756171463,16.23989034016944],[119.93601788838828,16.239231804741962],[119.93985077752126,16.238361036512742],[119.93873866611182,16.236838124593305],[119.93712853325843,16.236857723660194],[119.93583502875543,16.234539337158537],[119.93555555555679,16.233611111111315],[119.93366341485029,16.23376925998292],[119.93105223761773,16.234934421115668],[119.92904532538626,16.237010531955605],[119.92664831373537,16.2411690945097],[119.93311423407778,16.243587137858356],[119.93348255581452,16.24292699178079]],[[119.93170870463177,16.23651450263162],[119.93305555555685,16.236388888889053],[119.93361154344456,16.237246331109134],[119.93342145284146,16.23835047403992],[119.93136215210069,16.239767303467033],[119.92937164306755,16.240118492974375],[119.92965992397853,16.23844401041697],[119.93103341844466,16.237422315809624],[119.93170870463177,16.23651450263162]]]}},{"type":"Feature","id":"hydrolakes:1395939","properties":{"Hylak_id":1395939,"Lake_name":"","Country":"Philippines","Continent":"Asia","Poly_src":"SWBD","Lake_type":1,"Grand_id":0,"Lake_area":0.33,"Shore_len":3.93,"Shore_dev":1.93,"Vol_total":0.51,"Vol_res":0.0,"Vol_src":3,"Depth_avg":1.5,"Dis_avg":24.811,"Res_time":0.2,"Elevation":4,"Slope_100":0.38,"Wshd_area":379.0,"Pour_long":119.926539,"Pour_lat":16.237952,"source_id":"hydrolakes:1395939","label":""},"geometry":{"type":"Polygon","coordinates":[[[119.92843222724179,16.236153123643817],[119.92893691169013,16.232899831136308],[119.92742016262605,16.22763729519346],[119.92810057746169,16.2268475511342],[119.92923868815228,16.226134694417567],[119.92861111111228,16.22555555555573],[119.92701905992408,16.22584596422007],[119.92609199524037,16.226644677056413],[119.92628853692077,16.229090728759957],[119.92516988118604,16.230054507785553],[119.92473086039354,16.232067260742554],[119.9262297058118,16.23335859510661],[119.92619503445223,16.234850785997423],[119.9280893961602,16.23403810289193],[119.92786763509224,16.23555538601363],[119.92606248643773,16.236098870171645],[119.92587331983907,16.238453114827678],[119.92675142076399,16.238523678249976],[119.92843222724179,16.236153123643817]]]}},{"type":"Feature","id":"hydrolakes:1395953","properties":{"Hylak_id":1395953,"Lake_name":"","Country":"Philippines","Continent":"Asia","Poly_src":"SWBD","Lake_type":1,"Grand_id":0,"Lake_area":0.48,"Shore_len":3.46,"Shore_dev":1.41,"Vol_total":0.59,"Vol_res":0.0,"Vol_src":3,"Depth_avg":1.2,"Dis_avg":0.027,"Res_time":251.1,"Elevation":5,"Slope_100":0.21,"Wshd_area":0.4,"Pour_long":119.954779,"Pour_lat":16.227621,"source_id":"hydrolakes:1395953","label":""},"geometry":{"type":"Polygon","coordinates":[[[119.9553912014444,16.227511410183524],[119.95418518066538,16.225835656060326],[119.95250000000124,16.224722222222397],[119.95167162577434,16.224869842529586],[119.95126285129237,16.22626285129138],[119.95051400926508,16.2265876091854],[119.94886666192059,16.225885196262084],[119.94812950982117,16.22630739000124],[119.94823140462353,16.22730706108956],[119.95012603759892,16.228091973199014],[119.94883269416079,16.232722286648368],[119.94947658962786,16.234435899522794],[119.95114752875548,16.23484825982007],[119.95243843926448,16.233294186062437],[119.95207048204338,16.23265174018036],[119.95181840684796,16.23126941257084],[119.95453315734977,16.230922054714824],[119.95488834805087,16.22971165974957],[119.9547739325642,16.228589155409338],[119.9553912014444,16.227511410183524]]]}},{"type":"Feature","id":"hydrolakes:1395954","properties":{"Hylak_id":1395954,"Lake_name":"","Country":"Philippines","Continent":"Asia","Poly_src":"SWBD","Lake_type":1,"Grand_id":0,"Lake_area":0.69,"Shore_len":4.64,"Shore_dev":1.58,"Vol_total":1.19,"Vol_res":0.0,"Vol_src":3,"Depth_avg":1.7,"Dis_avg":23.942,"Res_time":0.6,"Elevation":3,"Slope_100":0.39,"Wshd_area":365.2,"Pour_long":119.925185,"Pour_lat":16.225138,"source_id":"hydrolakes:1395954","label":""},"geometry":{"type":"Polygon","coordinates":[[[119.92950964186048,16.221887580024088],[119.92976114061258,16.220185682508884],[119.92907159593489,16.22008378770653],[119.92808889601088,16.220676557753052],[119.9276210106757,16.220156775580733],[119.92737898932677,16.219287668864183],[119.9259901004379,16.217649010552464],[119.92627738105057,16.216296861437],[119.92781479729672,16.21586875067834],[119.92863219367263,16.213998294406736],[119.92765676710462,16.213025529649883],[119.92824078030168,16.211776275634975],[119.92750000000109,16.210000000000264],[119.9270654551201,16.21012100219758],[119.92646041870233,16.210904863145856],[119.92462698194828,16.212320048014533],[119.92397527059063,16.21381135728643],[119.92418344285875,16.215220031738454],[119.9229757266587,16.217100372314633],[119.92282859802361,16.21809597439261],[119.92321232266022,16.21873211330859],[119.9234543440088,16.22265677558073],[119.92415005154197,16.22359514024538],[119.92367106967612,16.22566224839977],[119.9245034874823,16.225785268147945],[119.92680889553628,16.224064500596967],[119.92865137736135,16.223310411241584],[119.92950964186048,16.221887580024088]]]}},{"type":"Feature","id":"hydrolakes:1395955","properties":{"Hylak_id":1395955,"Lake_name":"","Country":"Philippines","Continent":"Asia","Poly_src":"SWBD","Lake_type":1,"Grand_id":0,"Lake_area":0.26,"Shore_len":2.3,"Shore_dev":1.26,"Vol_total":0.53,"Vol_res":0.0,"Vol_src":3,"Depth_avg":2.0,"Dis_avg":0.178,"Res_time":34.7,"Elevation":5,"Slope_100":0.73,"Wshd_area":2.7,"Pour_long":119.900817,"Pour_lat":16.223509,"source_id":"hydrolakes:1395955","label":""},"geometry":{"type":"Polygon","coordinates":[[[119.90040633731536,16.22153810289194],[119.90027777777885,16.221388888889066],[119.89905448913703,16.221612023247758],[119.89904143863384,16.22294777764239],[119.89764921824252,16.224038102891882],[119.89626032935377,16.22445627848333],[119.89651744842644,16.22542699178075],[119.89788853539471,16.22603880140531],[119.89784685346928,16.227813313802244],[119.89859188079942,16.228678063286907],[119.90027525160178,16.226724175347385],[119.90207300398208,16.226182912191007],[119.9016751649657,16.2228322855633],[119.90040633731536,16.22153810289194]]]}},{"type":"Feature","id":"hydrolakes:1395957","properties":{"Hylak_id":1395957,"Lake_name":"","Country":"Philippines","Continent":"Asia","Poly_src":"SWBD","Lake_type":1,"Grand_id":0,"Lake_area":0.15,"Shore_len":1.69,"Shore_dev":1.21,"Vol_total":0.23,"Vol_res":0.0,"Vol_src":3,"Depth_avg":1.5,"Dis_avg":0.041,"Res_time":65.0,"Elevation":4,"Slope_100":0.45,"Wshd_area":0.6,"Pour_long":119.955041,"Pour_lat":16.223101,"source_id":"hydrolakes:1395957","label":""},"geometry":{"type":"Polygon","coordinates":[[[119.95598470899915,16.22570887247747],[119.95583333333457,16.221111111111327],[119.95372238159297,16.22127000596811],[119.95125278049164,16.222071397569607],[119.95159146626912,16.22278089735272],[119.95340916103902,16.223972642686874],[119.95509722391881,16.225690765381216],[119.95598470899915,16.22570887247747]]]}},{"type":"Feature","id":"hydrolakes:1395958","properties":{"Hylak_id":1395958,"Lake_name":"","Country":"Philippines","Continent":"Asia","Poly_src":"SWBD","Lake_type":1,"Grand_id":0,"Lake_area":0.58,"Shore_len":3.4,"Shore_dev":1.26,"Vol_total":1.37,"Vol_res":0.0,"Vol_src":3,"Depth_avg":2.4,"Dis_avg":0.082,"Res_time":193.9,"Elevation":4,"Slope_100":0.79,"Wshd_area":1.2,"Pour_long":119.962357,"Pour_lat":16.222813,"source_id":"hydrolakes:1395958","label":""},"geometry":{"type":"Polygon","coordinates":[[[119.96673110962047,16.2197331746421],[119.9658333333345,16.21805555555585],[119.96478945414356,16.218806321886063],[119.96310029771706,16.218373413086113],[119.96213399251423,16.218871205648043],[119.96236423068706,16.230152994791922],[119.96349722120607,16.230129869249367],[119.96512381659738,16.228436889648606],[119.96673194037652,16.224648607042354],[119.96847699483362,16.22291753133169],[119.96673110962047,16.2197331746421]]]}},{"type":"Feature","id":"hydrolakes:1395964","properties":{"Hylak_id":1395964,"Lake_name":"","Country":"Philippines","Continent":"Asia","Poly_src":"SWBD","Lake_type":1,"Grand_id":0,"Lake_area":0.75,"Shore_len":5.54,"Shore_dev":1.8,"Vol_total":1.19,"Vol_res":0.0,"Vol_src":3,"Depth_avg":1.6,"Dis_avg":14.353,"Res_time":1.0,"Elevation":4,"Slope_100":0.32,"Wshd_area":220.5,"Pour_long":119.940755,"Pour_lat":16.219926,"source_id":"hydrolakes:1395964","label":""},"geometry":{"type":"Polygon","coordinates":[[[119.94402591281579,16.227857004801592],[119.94269566853973,16.22595260620136],[119.94255137973477,16.22353183322508],[119.9436690521253,16.222924482557744],[119.94674531724843,16.224116448296684],[119.94717912462147,16.223318142361336],[119.94542448255879,16.22220219930034],[119.94651996188816,16.221053161621285],[119.94569587707656,16.220403832329794],[119.94417891608475,16.22122816297758],[119.94250000000119,16.21833333333359],[119.9403056250689,16.219043986002816],[119.93852436489641,16.22223105536591],[119.93704837375344,16.224135657416696],[119.93702993604995,16.227007005479777],[119.93736813015522,16.22738552517376],[119.94117368062456,16.227585483127427],[119.94218142191698,16.22848590427003],[119.94297184414461,16.22994045681446],[119.94354860941684,16.231808268229315],[119.94478016323632,16.233186628553767],[119.94707551744375,16.23253406100838],[119.94674941169006,16.231618092855],[119.9449040815577,16.230771162245162],[119.94429773966584,16.22931337144672],[119.94402591281579,16.227857004801592]]]}},{"type":"Feature","id":"hydrolakes:1395965","properties":{"Hylak_id":1395965,"Lake_name":"","Country":"Philippines","Continent":"Asia","Poly_src":"SWBD","Lake_type":1,"Grand_id":0,"Lake_area":0.28,"Shore_len":2.3,"Shore_dev":1.23,"Vol_total":0.47,"Vol_res":0.0,"Vol_src":3,"Depth_avg":1.7,"Dis_avg":0.014,"Res_time":391.0,"Elevation":4,"Slope_100":0.49,"Wshd_area":0.2,"Pour_long":119.97639,"Pour_lat":16.219656,"source_id":"hydrolakes:1395965","label":""},"geometry":{"type":"Polygon","coordinates":[[[119.97482159932571,16.223006625705523],[119.97528430514973,16.22205288357236],[119.97806626214032,16.2226226806643],[119.97985833062194,16.2214477369522],[119.97527777777907,16.217500000000257],[119.97460968865397,16.21771679348433],[119.9720861138249,16.222231089274203],[119.97357528686666,16.223469441732107],[119.97482159932571,16.223006625705523]]]}},{"type":"Feature","id":"hydrolakes:1395966","properties":{"Hylak_id":1395966,"Lake_name":"","Country":"Philippines","Continent":"Asia","Poly_src":"SWBD","Lake_type":1,"Grand_id":0,"Lake_area":0.55,"Shore_len":4.07,"Shore_dev":1.55,"Vol_total":0.73,"Vol_res":0.0,"Vol_src":3,"Depth_avg":1.3,"Dis_avg":14.403,"Res_time":0.6,"Elevation":4,"Slope_100":0.24,"Wshd_area":221.5,"Pour_long":119.932608,"Pour_lat":16.218114,"source_id":"hydrolakes:1395966","label":""},"geometry":{"type":"Polygon","coordinates":[[[119.93802421569939,16.219414469401215],[119.93852296617422,16.217670084635643],[119.93787779066429,16.216820916070162],[119.93437124464361,16.21816877577055],[119.93404313829325,16.217210472954832],[119.93567014906284,16.215907575819415],[119.93623463948683,16.214567972819168],[119.93738760206548,16.213196563720942],[119.93694444444566,16.212500000000205],[119.93367786831448,16.21323730468771],[119.93308121575376,16.213163079155947],[119.93176067776278,16.2148121303984],[119.93102762858183,16.216551767985266],[119.93298074510477,16.220040384928552],[119.93287456936434,16.220893978542904],[119.93371359931223,16.22439646403012],[119.93506084866107,16.224228888617915],[119.9358019934773,16.22330335829014],[119.93628083970924,16.22162857055679],[119.93694383409411,16.220500708686302],[119.93802421569939,16.219414469401215]]]}},{"type":"Feature","id":"hydrolakes:1395968","properties":{"Hylak_id":1395968,"Lake_name":"","Country":"Philippines","Continent":"Asia","Poly_src":"SWBD","Lake_type":1,"Grand_id":0,"Lake_area":0.25,"Shore_len":2.67,"Shore_dev":1.5,"Vol_total":0.49,"Vol_res":0.0,"Vol_src":3,"Depth_avg":2.0,"Dis_avg":0.068,"Res_time":83.6,"Elevation":4,"Slope_100":0.69,"Wshd_area":1.0,"Pour_long":119.972123,"Pour_lat":16.216268,"source_id":"hydrolakes:1395968","label":""},"geometry":{"type":"Polygon","coordinates":[[[119.97331573486446,16.216488749186567],[119.97219400194075,16.215862884521755],[119.97015443590061,16.21602678087038],[119.97040633307682,16.21346189710846],[119.97075157165648,16.212843119303614],[119.97055555555687,16.211944444444725],[119.96939494662945,16.212156151665795],[119.96885255601796,16.213633117675954],[119.96929522196581,16.21653810289189],[119.97021750556218,16.218915710449437],[119.96976483663047,16.219727037218036],[119.97056015862483,16.220650177002085],[119.97190435621593,16.220758175320327],[119.97401744418801,16.217777947320087],[119.97331573486446,16.216488749186567]]]}},{"type":"Feature","id":"hydrolakes:1395970","properties":{"Hylak_id":1395970,"Lake_name":"","Country":"Philippines","Continent":"Asia","Poly_src":"SWBD","Lake_type":1,"Grand_id":0,"Lake_area":0.49,"Shore_len":3.65,"Shore_dev":1.47,"Vol_total":1.06,"Vol_res":0.0,"Vol_src":3,"Depth_avg":2.2,"Dis_avg":0.205,"Res_time":60.0,"Elevation":0,"Slope_100":0.69,"Wshd_area":3.1,"Pour_long":119.910244,"Pour_lat":16.215221,"source_id":"hydrolakes:1395970","label":""},"geometry":{"type":"Polygon","coordinates":[[[119.9096012115491,16.22043528238953],[119.91032151116377,16.219229922824695],[119.9113750118691,16.219385596381585],[119.91277300516873,16.217500000000257],[119.91154735989164,16.215846862793114],[119.91122292412774,16.214681786431413],[119.90916666666777,16.212777777777887],[119.90817656623119,16.21317655775306],[119.90695836385214,16.21526545206723],[119.90715204450936,16.21657609727663],[119.90599010467656,16.218502994113692],[119.90761887444523,16.219385850694664],[119.90789878845334,16.22071233113627],[119.90861334059088,16.221896921793814],[119.90802469889468,16.222872755262813],[119.90917223612581,16.22567655775316],[119.9101567671047,16.224601220025193],[119.91146616617954,16.222570224338256],[119.9096012115491,16.22043528238953]]]}},{"type":"Feature","id":"hydrolakes:1395974","properties":{"Hylak_id":1395974,"Lake_name":"","Country":"Philippines","Continent":"Asia","Poly_src":"SWBD","Lake_type":1,"Grand_id":0,"Lake_area":0.19,"Shore_len":1.71,"Shore_dev":1.11,"Vol_total":0.28,"Vol_res":0.0,"Vol_src":3,"Depth_avg":1.5,"Dis_avg":14.184,"Res_time":0.2,"Elevation":4,"Slope_100":0.43,"Wshd_area":217.8,"Pour_long":119.944199,"Pour_lat":16.213187,"source_id":"hydrolakes:1395974","label":""},"geometry":{"type":"Polygon","coordinates":[[[119.94542700025903,16.20957300821965],[119.94416666666785,16.208055555555802],[119.9431042904335,16.208668060302898],[119.94255826314418,16.210663197835572],[119.94256578233637,16.212854258219636],[119.94422974480636,16.213892839220136],[119.94614669799932,16.213037448459488],[119.94682377285562,16.21208253648564],[119.94568411085453,16.21070476955873],[119.94542700025903,16.20957300821965]]]}},{"type":"Feature","id":"hydrolakes:1395978","properties":{"Hylak_id":1395978,"Lake_name":"","Country":"Philippines","Continent":"Asia","Poly_src":"SWBD","Lake_type":1,"Grand_id":0,"Lake_area":0.26,"Shore_len":2.16,"Shore_dev":1.19,"Vol_total":0.47,"Vol_res":0.0,"Vol_src":3,"Depth_avg":1.8,"Dis_avg":9.229,"Res_time":0.6,"Elevation":0,"Slope_100":0.57,"Wshd_area":138.3,"Pour_long":119.908571,"Pour_lat":16.210988,"source_id":"hydrolakes:1395978","label":""},"geometry":{"type":"Polygon","coordinates":[[[119.90351768917623,16.213085462782374],[119.90463059319501,16.212414160834612],[119.90614883846831,16.21301101684594],[119.90858412000989,16.21167127821201],[119.90900989956447,16.21073662651935],[119.90765892028946,16.209693840874763],[119.90717613644182,16.208514251709175],[119.90527777777896,16.208055555555802],[119.9041785515692,16.208556077745527],[119.903464109634,16.20845050387942],[119.90207292344962,16.208997412787767],[119.90182343800979,16.209414418538586],[119.90314489576679,16.210434400770566],[119.90353134155396,16.21182217068167],[119.90351768917623,16.213085462782374]]]}},{"type":"Feature","id":"hydrolakes:1395979","properties":{"Hylak_id":1395979,"Lake_name":"","Country":"Philippines","Continent":"Asia","Poly_src":"SWBD","Lake_type":1,"Grand_id":0,"Lake_area":0.22,"Shore_len":1.93,"Shore_dev":1.16,"Vol_total":0.44,"Vol_res":0.0,"Vol_src":3,"Depth_avg":2.0,"Dis_avg":1.126,"Res_time":4.5,"Elevation":3,"Slope_100":0.76,"Wshd_area":16.9,"Pour_long":119.884943,"Pour_lat":16.210383,"source_id":"hydrolakes:1395979","label":""},"geometry":{"type":"Polygon","coordinates":[[[119.88512449052706,16.212483622233265],[119.8865535524169,16.210696784125787],[119.88593226962729,16.208756747775908],[119.88500000000118,16.20750000000021],[119.88251294454057,16.209146372477562],[119.88136367797966,16.20963063557963],[119.87987647586516,16.210821584066082],[119.88096049838708,16.21182428995786],[119.88220272064319,16.211669769287255],[119.88512449052706,16.212483622233265]]]}},{"type":"Feature","id":"hydrolakes:1396112","properties":{"Hylak_id":1396112,"Lake_name":"","Country":"Philippines","Continent":"Asia","Poly_src":"SWBD","Lake_type":1,"Grand_id":0,"Lake_area":0.35,"Shore_len":2.72,"Shore_dev":1.29,"Vol_total":1.39,"Vol_res":0.0,"Vol_src":3,"Depth_avg":3.9,"Dis_avg":0.946,"Res_time":17.1,"Elevation":0,"Slope_100":2.65,"Wshd_area":13.6,"Pour_long":119.840279,"Pour_lat":16.066804,"source_id":"hydrolakes:1396112","label":""},"geometry":{"type":"Polygon","coordinates":[[[119.84239348888508,16.05853288438601],[119.84222222222337,16.058055555555768],[119.83951085700056,16.058338114420735],[119.83654304060798,16.061410590278058],[119.83644941803584,16.062981363932522],[119.83837922308305,16.065886298285818],[119.8399137997639,16.06707553439685],[119.84138699319743,16.066713324652994],[119.84043042103576,16.064953002929883],[119.84032023191583,16.063104248047182],[119.84239348888508,16.05853288438601]]]}},{"type":"Feature","id":"hydrolakes:1396448","properties":{"Hylak_id":1396448,"Lake_name":"","Country":"Philippines","Continent":"Asia","Poly_src":"SWBD","Lake_type":1,"Grand_id":0,"Lake_area":0.7,"Shore_len":3.92,"Shore_dev":1.32,"Vol_total":2.04,"Vol_res":0.0,"Vol_src":3,"Depth_avg":2.9,"Dis_avg":7.154,"Res_time":3.3,"Elevation":3,"Slope_100":1.13,"Wshd_area":95.9,"Pour_long":119.939675,"Pour_lat":15.672801,"source_id":"hydrolakes:1396448","label":""},"geometry":{"type":"Polygon","coordinates":[[[119.94258536444897,15.66701944986994],[119.94207823011732,15.665944892035782],[119.94044457329767,15.666009657118252],[119.93944444444571,15.663888888889005],[119.93825885348974,15.664050903320515],[119.93758635627017,15.667007988824082],[119.93768412272249,15.669474690755521],[119.93634752909463,15.673410508897746],[119.9406226179346,15.675495808919436],[119.94285371568577,15.677903781467137],[119.94402247958823,15.674916992187661],[119.94319027370989,15.670927191840406],[119.94188206142968,15.66902608235688],[119.94258536444897,15.66701944986994]]]}},{"type":"Feature","id":"hydrolakes:1396488","properties":{"Hylak_id":1396488,"Lake_name":"","Country":"Philippines","Continent":"Asia","Poly_src":"SWBD","Lake_type":1,"Grand_id":0,"Lake_area":0.16,"Shore_len":2.48,"Shore_dev":1.74,"Vol_total":0.34,"Vol_res":0.0,"Vol_src":3,"Depth_avg":2.1,"Dis_avg":0.451,"Res_time":8.6,"Elevation":9,"Slope_100":0.9,"Wshd_area":6.0,"Pour_long":119.942389,"Pour_lat":15.621496,"source_id":"hydrolakes:1396488","label":""},"geometry":{"type":"Polygon","coordinates":[[[119.9385673353421,15.622588094075695],[119.93850714789619,15.621152547200722],[119.93961850484334,15.621316799587817],[119.94108723110753,15.622405666775364],[119.9424975077323,15.622197265625118],[119.94328477647696,15.621722412109591],[119.94313538445482,15.620711466471562],[119.94250000000119,15.619722222222322],[119.94006251865079,15.620597127278927],[119.93892938402098,15.619757012261402],[119.93726827833518,15.620482923719862],[119.93745253669005,15.621729804145104],[119.93718888176949,15.622065429687666],[119.9362061818452,15.62147271050361],[119.93547509087563,15.621580742730202],[119.9351567671045,15.622444051106868],[119.93678116692553,15.62310885959215],[119.9385673353421,15.622588094075695]]]}},{"type":"Feature","id":"hydrolakes:1396499","properties":{"Hylak_id":1396499,"Lake_name":"","Country":"Philippines","Continent":"Asia","Poly_src":"SWBD","Lake_type":1,"Grand_id":0,"Lake_area":0.38,"Shore_len":2.44,"Shore_dev":1.12,"Vol_total":1.23,"Vol_res":0.0,"Vol_src":3,"Depth_avg":3.3,"Dis_avg":0.388,"Res_time":36.7,"Elevation":3,"Slope_100":1.73,"Wshd_area":5.2,"Pour_long":119.942618,"Pour_lat":15.613038,"source_id":"hydrolakes:1396499","label":""},"geometry":{"type":"Polygon","coordinates":[[[119.94407128228204,15.613063490125967],[119.94488834805071,15.612607625325722],[119.94542650858682,15.612650824652917],[119.94586759779298,15.611185777452363],[119.9470729997434,15.611282619900294],[119.94669125874947,15.609569159613955],[119.94361111111226,15.60722222222239],[119.94216428968758,15.607369791666827],[119.93987144470333,15.60839294433606],[119.94044587029458,15.611770562066113],[119.94110427856549,15.613246120876852],[119.94373385959312,15.613819647895127],[119.94407128228204,15.613063490125967]]]}},{"type":"Feature","id":"hydrolakes:1396589","properties":{"Hylak_id":1396589,"Lake_name":"","Country":"Philippines","Continent":"Asia","Poly_src":"SWBD","Lake_type":1,"Grand_id":0,"Lake_area":0.31,"Shore_len":2.68,"Shore_dev":1.36,"Vol_total":0.91,"Vol_res":0.0,"Vol_src":3,"Depth_avg":3.0,"Dis_avg":0.048,"Res_time":218.7,"Elevation":4,"Slope_100":1.52,"Wshd_area":0.6,"Pour_long":119.953125,"Pour_lat":15.493497,"source_id":"hydrolakes:1396589","label":""},"geometry":{"type":"Polygon","coordinates":[[[119.95594864739422,15.493493381076576],[119.95651996188809,15.492442084418599],[119.95472226460902,15.493155110677378],[119.95420572916794,15.490387708875971],[119.95286841498609,15.488890991211235],[119.9511058468301,15.489848768446336],[119.95000000000124,15.488611111111311],[119.9496298472099,15.488941853841311],[119.94950117323265,15.491100735134637],[119.95026182386732,15.492296752929917],[119.95242879231881,15.494232923719835],[119.95335335625651,15.49568664550793],[119.95560541788853,15.495357394748453],[119.95599503411296,15.494271579318763],[119.95594864739422,15.493493381076576]]]}},{"type":"Feature","id":"hydrolakes:1396595","properties":{"Hylak_id":1396595,"Lake_name":"","Country":"Philippines","Continent":"Asia","Poly_src":"SWBD","Lake_type":1,"Grand_id":0,"Lake_area":0.36,"Shore_len":3.18,"Shore_dev":1.5,"Vol_total":1.18,"Vol_res":0.0,"Vol_src":3,"Depth_avg":3.3,"Dis_avg":0.752,"Res_time":18.2,"Elevation":3,"Slope_100":1.81,"Wshd_area":9.5,"Pour_long":119.949641,"Pour_lat":15.485727,"source_id":"hydrolakes:1396595","label":""},"geometry":{"type":"Polygon","coordinates":[[[119.9503767734115,15.486790161132944],[119.95282699585084,15.484972601996674],[119.95656437344167,15.486446194119026],[119.9578295305052,15.484866265191158],[119.95888498094473,15.48456448025189],[119.96067105611274,15.483259819878697],[119.95946005927317,15.482290039062718],[119.95750061035278,15.482292073567976],[119.95722222222338,15.48194444444448],[119.955586895414,15.482113986545357],[119.95465922885603,15.483272433810953],[119.95393246968729,15.483734605577467],[119.9532815806084,15.482921820746697],[119.95188097636026,15.482521362304908],[119.95055616590827,15.483300103081717],[119.94929634094365,15.485374281141787],[119.94904313829323,15.486486952040082],[119.9503767734115,15.486790161132944]]]}},{"type":"Feature","id":"hydrolakes:1396643","properties":{"Hylak_id":1396643,"Lake_name":"","Country":"Philippines","Continent":"Asia","Poly_src":"SWBD","Lake_type":1,"Grand_id":0,"Lake_area":0.14,"Shore_len":1.99,"Shore_dev":1.51,"Vol_total":0.33,"Vol_res":0.0,"Vol_src":3,"Depth_avg":2.4,"Dis_avg":0.033,"Res_time":115.2,"Elevation":7,"Slope_100":1.22,"Wshd_area":0.4,"Pour_long":119.894593,"Pour_lat":15.43359,"source_id":"hydrolakes:1396643","label":""},"geometry":{"type":"Polygon","coordinates":[[[119.89409499698343,15.42782436794721],[119.89388888889016,15.427222222222326],[119.89265076955269,15.427623969184197],[119.8909749984752,15.431203748915038],[119.89354156918108,15.434024997287509],[119.89515340169379,15.433750813802305],[119.89291944291966,15.430455118815246],[119.89346944597145,15.42874721950966],[119.89409499698343,15.42782436794721]]]}},{"type":"Feature","id":"hydrolakes:1396650","properties":{"Hylak_id":1396650,"Lake_name":"","Country":"Philippines","Continent":"Asia","Poly_src":"SWBD","Lake_type":1,"Grand_id":0,"Lake_area":0.16,"Shore_len":1.78,"Shore_dev":1.27,"Vol_total":0.33,"Vol_res":0.0,"Vol_src":3,"Depth_avg":2.1,"Dis_avg":0.197,"Res_time":19.2,"Elevation":4,"Slope_100":0.92,"Wshd_area":2.5,"Pour_long":119.907552,"Pour_lat":15.420282,"source_id":"hydrolakes:1396650","label":""},"geometry":{"type":"Polygon","coordinates":[[[119.91105759514812,15.417193264431603],[119.91055555555664,15.416388888889117],[119.90945601569393,15.416532728407219],[119.90797477722299,15.417808905707659],[119.90764922248115,15.419593641493236],[119.9065471310098,15.421148003472354],[119.90647421519071,15.422055528428984],[119.90788704766277,15.422442152235362],[119.91025138855105,15.419107598198877],[119.91105759514812,15.417193264431603]]]}}]}