{"type":"FeatureCollection","features":[{"type":"Feature","id":"hydrolakes:15740","properties":{"Hylak_id":15740,"Lake_name":"","Country":"Philippines","Continent":"Asia","Poly_src":"SWBD","Lake_type":2,"Grand_id":6196,"Lake_area":16.12,"Shore_len":75.92,"Shore_dev":5.33,"Vol_total":1075.0,"Vol_res":1075.0,"Vol_src":2,"Depth_avg":66.7,"Dis_avg":25.239,"Res_time":493.0,"Elevation":219,"Slope_100":11.92,"Wshd_area":533.7,"Pour_long":121.177083,"Pour_lat":14.907201,"source_id":"hydrolakes:15740","label":""},"geometry":{"type":"Polygon","coordinates":[[[121.20071830976633,15.035444538858712],[121.20169215959277,15.032251372867563],[121.19999707766993,15.030421961678826],[121.19822841447558,15.030689149433272],[121.19652180368996,15.032078038322027],[121.19546596330383,15.028587121963938],[121.19539753611178,15.026859702004742],[121.19667574791725,15.025879519780972],[121.19988985924539,15.025265885459476],[121.1999454690544,15.023862084283223],[121.19925570397209,15.022844278547893],[121.20121052439305,15.019145090315533],[121.20252868031764,15.020010590023958],[121.20429354576885,15.0205693626408],[121.20486863257457,15.021787781185935],[121.20573743411518,15.02182221942536],[121.20603569257895,15.019639962514702],[121.2074060674704,15.0187550311623],[121.20737344757015,15.017931427426333],[121.20808220136803,15.017274693383513],[121.20684976592946,15.015944502089155],[121.2048757533426,15.015700925191709],[121.20362554989214,15.01435159471339],[121.20268343834704,15.01390697691221],[121.20332756269596,15.013715184530042],[121.20628478383304,15.013832397461442],[121.20772392500083,15.01337676154293],[121.20771165015259,15.008877743615528],[121.20740566056918,15.007911370595764],[121.20619906334701,15.005817095439],[121.20709980661951,15.001270141601935],[121.20817782311263,15.000699738397032],[121.20931497589044,15.001192381117505],[121.20971245039124,15.004926889208093],[121.21073899390262,15.005411372714946],[121.2112521639329,15.005965249803864],[121.21211601484441,15.005999484592394],[121.21129719431491,15.004088647630908],[121.21125718237914,15.0030789650815],[121.21162536000509,15.001533071730307],[121.21357685740082,15.002911372715005],[121.21433952558675,15.002500110202789],[121.21407232723595,15.001800261603876],[121.21335346872894,15.00146098666761],[121.2121278827916,14.999144897461463],[121.2129328686857,14.997733175490055],[121.21641933244445,14.999578039381788],[121.21735757842953,14.998996107313872],[121.21778902916742,14.996102884081097],[121.21628878502679,14.994633899265239],[121.21601439809103,14.992055405511223],[121.21492498836881,14.990965741475804],[121.21437248457096,14.990987642076675],[121.21394673044779,14.990593185425269],[121.21508829132011,14.989036844042062],[121.21598435523077,14.98900132921051],[121.21808396460585,14.992315483093648],[121.22139234134187,14.995239965651251],[121.22648864125517,14.994508849250508],[121.22688014787394,14.993391778734406],[121.22681884145032,14.991844601101718],[121.22721217912408,14.991420093112993],[121.22886684220981,14.992295650906499],[121.23133523956227,14.993018281725085],[121.23322651560392,14.992125693427624],[121.23325879642005,14.99131221347426],[121.23249002471852,14.988686286078973],[121.23487392228816,14.986366344028454],[121.23518479468379,14.98458065880709],[121.23487419355547,14.983993619283467],[121.23493780575171,14.982389013502711],[121.23387267445815,14.981825375027597],[121.23314622046502,14.985630387200615],[121.23074157094266,14.987858420478403],[121.23070684872022,14.988734436035543],[121.23145717424103,14.99087528228796],[121.23030991675432,14.991482353210813],[121.22850619225329,14.99042196061913],[121.22660413333415,14.987923639085977],[121.22603379370724,14.987901034885454],[121.22455633602493,14.989716525608117],[121.22463859785222,14.991792793274385],[121.22376525258323,14.992098897298547],[121.22023477569519,14.99215265486015],[121.2187945494581,14.989578039381627],[121.21764098500495,14.988160548740325],[121.21773653893308,14.985748591953268],[121.21625094322997,14.984609336853453],[121.21495570939732,14.984557999505341],[121.21224459557351,14.989169595506894],[121.20970641469245,14.991031277974855],[121.2090723272359,14.992840351529026],[121.2101859475701,14.993766203986638],[121.21342535457973,14.99363780975392],[121.21433952558675,14.994966324700613],[121.21349751169777,14.995432629055983],[121.21241515492693,14.995432595147406],[121.21134514082092,14.994866405063647],[121.21028841881576,14.995510198805505],[121.20928161000506,14.997069324917845],[121.2085354891284,14.9970988972986],[121.20728867651968,14.996661889818427],[121.20546121612495,14.99931084950805],[121.20408324574737,14.999639078776454],[121.20319837161537,15.00216377682193],[121.20328300703181,15.004300261603873],[121.20212788279144,15.003371755812282],[121.202662211676,14.999320356581393],[121.2030474791456,14.998592279222748],[121.20198967207097,14.997054998610167],[121.20125711456222,14.993509483337846],[121.19867661597283,14.99340720282703],[121.19692110924552,14.994022483826143],[121.19629454945806,14.993556654188808],[121.19672410132438,14.992965846591972],[121.19851677168049,14.992088627285852],[121.19902994171065,14.991534750197047],[121.2001535311204,14.991490215725833],[121.20069816816493,14.992078039381681],[121.2007067809036,14.990986980862488],[121.20126281117683,14.99047180175836],[121.20164428090357,14.989383396572975],[121.20018343834698,14.985555089315199],[121.20083420874624,14.983851894802967],[121.20160121720983,14.983446049160875],[121.20291686391118,14.98349820031109],[121.2036833976569,14.982787979974148],[121.20260226158922,14.981690627204614],[121.2013726066412,14.982341291639955],[121.20050346601636,14.982375742594797],[121.1993501050137,14.98183143615762],[121.20017285892004,14.978568941752542],[121.19980461347734,14.974982842339841],[121.19907232723597,14.972355817159439],[121.19796338626367,14.970744289822449],[121.19790669138519,14.969313015408375],[121.19849140818224,14.969289839003238],[121.20027207495724,14.97002126057987],[121.20115972957962,14.969198794895249],[121.19934596818638,14.967433581882517],[121.19907232723597,14.964578035143063],[121.1976834383471,14.962559653388496],[121.19795063669773,14.961800257365326],[121.1992390888463,14.960217047797698],[121.20005356909786,14.95777777777812],[121.1993501050137,14.955770763821477],[121.20027349911095,14.955161810981451],[121.20312967315613,14.954706827799896],[121.20433952558659,14.953129094442147],[121.20331284644169,14.952164145576035],[121.20035487931932,14.95352120293552],[121.19883096710146,14.953038720025518],[121.19656690188879,14.950595194499101],[121.19456108320372,14.949367056953122],[121.19311163387658,14.948908165826197],[121.19261528242254,14.946535771688275],[121.1932474031907,14.946510721842856],[121.19484448977937,14.947355812920875],[121.19569640492688,14.946219372219957],[121.19578266794758,14.94404253641818],[121.19437126386799,14.942734832764131],[121.19397684112477,14.940849566989925],[121.1943525464199,14.940139558580597],[121.1935252487853,14.93812548319545],[121.19344603871588,14.936127353244785],[121.19378397003112,14.935411368476423],[121.19557338517882,14.934255837334888],[121.19732095733565,14.932369766235922],[121.19949001115526,14.932756398519246],[121.20114630184537,14.931408462524814],[121.20361964982698,14.929894044664536],[121.20512226755716,14.930689146254167],[121.20569003014396,14.930241589016816],[121.20489508114207,14.929866409302122],[121.20394856150239,14.928844850328687],[121.20327527591206,14.929571516249496],[121.1994313495884,14.9315224795875],[121.19667486629834,14.929717364841451],[121.19524535512232,14.932301245795713],[121.1937928540371,14.933069856432212],[121.18854633982272,14.931856163873078],[121.1879612161249,14.93075035942968],[121.18825791480106,14.93006542629712],[121.18961730336446,14.928805914985219],[121.18806273793484,14.927542334662974],[121.18624402591212,14.929022479587559],[121.18592989830802,14.928302714030337],[121.18711730336452,14.926058739556709],[121.18682657257034,14.92595884535092],[121.18629454945807,14.926533075968905],[121.18487026017874,14.926804996067006],[121.18411037248336,14.927625122070708],[121.18198099151533,14.927995902167993],[121.18059820614218,14.927102957831892],[121.1785236889981,14.925180782742359],[121.17936488908492,14.924272859361906],[121.18363328101196,14.924717661540171],[121.18461845625075,14.923804872301275],[121.18489508114209,14.922355812920898],[121.18574665720547,14.920075853136325],[121.18739609839497,14.91854760064058],[121.18773938724041,14.916035647922456],[121.19006326690607,14.915426728990894],[121.19116149281768,14.915383190579462],[121.19370272545638,14.916522479587513],[121.19463730933239,14.915691384209936],[121.19303527211446,14.915309795803921],[121.19281703752239,14.914166666667029],[121.19204562096417,14.914437043932196],[121.19039299238347,14.91342517428967],[121.18906398576485,14.913477851020446],[121.18682074032182,14.91314335293282],[121.18446661434541,14.915684110853874],[121.18363497643304,14.915717069838138],[121.18157999053892,14.913813035753549],[121.18104857777848,14.912134348551888],[121.18011596059085,14.911127827962673],[121.1791805629129,14.911622780694302],[121.17773640329938,14.91028466966469],[121.1771503301656,14.908612620036308],[121.17797071048255,14.908178515964494],[121.17902797502245,14.908220418294661],[121.18003342749631,14.907288852268152],[121.17881570831241,14.904867663913762],[121.17821892011779,14.904844012790647],[121.1764322176441,14.906772367689712],[121.17441771840356,14.906852213542095],[121.17328958526548,14.90625529819107],[121.17212998511366,14.906757651435385],[121.17203782202762,14.909084006415924],[121.17277600833398,14.911190134684603],[121.17148369062579,14.91187394036234],[121.16922010013087,14.910805638631757],[121.16636555368996,14.907921964857678],[121.16402851755703,14.909572601318757],[121.15919968726195,14.909903462728266],[121.15851677168035,14.911194085015666],[121.15897412845112,14.912249832153748],[121.15960672393737,14.912932552761959],[121.16073899390267,14.91346692403198],[121.16244560468829,14.914855812920848],[121.16407768476626,14.914532546997464],[121.16599466339056,14.91297247992668],[121.16819823598166,14.915014233059708],[121.16901624270912,14.91674745347808],[121.17047993357272,14.916234436035609],[121.17232943444077,14.91630774603999],[121.17361666588613,14.915421964857671],[121.1742957159077,14.915820142958296],[121.1762114738288,14.917887742784728],[121.1773937926223,14.918445748223633],[121.17741576527845,14.919000125461537],[121.17686068444078,14.919599219428676],[121.17461370907205,14.920988388061915],[121.17406195125943,14.920966517130978],[121.17374321211025,14.921641845703562],[121.17189561011355,14.923353737725563],[121.17470024335995,14.925952377319788],[121.17949231692768,14.932408023410801],[121.18072841447554,14.934866409302174],[121.18161457712745,14.936022059123161],[121.18153211184972,14.938103883531767],[121.18207729142881,14.939259067112118],[121.18353420060822,14.940444785224486],[121.18565476538691,14.941116154989004],[121.18607760338614,14.941915164524062],[121.18546121612485,14.943673680623817],[121.18627339060401,14.945340737237245],[121.18680880455804,14.94944730122927],[121.18436780520898,14.950388463338584],[121.18383442576027,14.951396577623598],[121.18498880401552,14.952007429335254],[121.18704718075145,14.951468073527451],[121.18911288170625,14.95407534281452],[121.18986829349018,14.955676057604194],[121.19128756432372,14.956173494127484],[121.19316690460136,14.954880277845973],[121.1948667337029,14.954812901815217],[121.19572841447558,14.956441260444251],[121.19522467098585,14.958709021674679],[121.19325147220127,14.959829338921907],[121.19323940080369,14.961532550388426],[121.19212788279145,14.962982016669855],[121.19239508114231,14.963755298191018],[121.19379454945818,14.96541136847651],[121.19440144236182,14.967224561903663],[121.19393872806063,14.96820503234909],[121.19216619930626,14.970516476101807],[121.19151074954505,14.973799934387728],[121.18990694908928,14.974556859334712],[121.18985086456229,14.97597147199889],[121.19257248999628,14.976343430413522],[121.19350619225338,14.978107927110898],[121.1932389939027,14.980421960619253],[121.19275464602958,14.981803834703669],[121.19401285186711,14.98363224453442],[121.19412983591639,14.98658509572391],[121.19339978763094,14.98889105902822],[121.19212354251374,14.98986972385029],[121.19140929555186,14.989491780599394],[121.18820244062562,14.99142162746898],[121.18677584557355,14.990375256009088],[121.18553533993116,14.989036432902424],[121.18492851484461,14.9890123791169],[121.1848612405388,14.990709203084748],[121.18573899390259,14.991522483826088],[121.18663024281761,14.992902658251182],[121.1879168639112,14.992890688578711],[121.18935885338612,14.994618521796781],[121.19101677168027,14.995689150492865],[121.19333020755289,14.997695617676243],[121.19624002471869,14.997580286662185],[121.19742729414128,14.999320314195927],[121.19736503828199,15.000891778734399],[121.1979728128045,15.003616638184042],[121.19896829620285,15.00617311689632],[121.20205396243551,15.008080041673907],[121.20263298261796,15.009174355401512],[121.20185010501365,15.00958862940513],[121.19986985327762,15.009966693454771],[121.19834539852496,15.011084885067987],[121.19732780683654,15.0130078633631],[121.19795063669773,15.014866407182922],[121.19904723500503,15.016938743591709],[121.19821892011777,15.01737703959185],[121.19603860870285,15.017334662543817],[121.19438570885495,15.02037960052536],[121.19335224802586,15.021090746985976],[121.19046358971434,15.022306376563563],[121.19041767771324,15.023465201060446],[121.19179496992263,15.023519791497563],[121.19328232886357,15.022379252116309],[121.195050178256,15.02447129461541],[121.19407232723592,15.025144183901034],[121.19250196048239,15.025518246757144],[121.19163424401103,15.02849708451214],[121.19262938832543,15.028457640542342],[121.19376999976203,15.029514496062006],[121.19376403188,15.033692738745401],[121.19477436716642,15.035411371655357],[121.19684088192366,15.033873174985615],[121.19893954186273,15.033011146122078],[121.19938876061292,15.034725420210577],[121.19930778730543,15.036767797470475],[121.20065673207529,15.037802204556328],[121.20311990753106,15.038272479905515],[121.20354789960999,15.039081291887896],[121.20344068118555,15.041786234279925],[121.20453402428444,15.041829569836864],[121.20551825008761,15.038870333036243],[121.20428676408488,15.036775552432118],[121.20074421579926,15.036099218792799],[121.20071830976633,15.035444538858712]]]}},{"type":"Feature","id":"hydrolakes:178946","properties":{"Hylak_id":178946,"Lake_name":"","Country":"Philippines","Continent":"Asia","Poly_src":"SWBD","Lake_type":1,"Grand_id":0,"Lake_area":6.82,"Shore_len":22.76,"Shore_dev":2.46,"Vol_total":70.98,"Vol_res":0.0,"Vol_src":3,"Depth_avg":10.4,"Dis_avg":6.535,"Res_time":125.7,"Elevation":129,"Slope_100":3.99,"Wshd_area":89.2,"Pour_long":120.277083,"Pour_lat":14.98865,"source_id":"hydrolakes:178946","label":""},"geometry":{"type":"Polygon","coordinates":[[[120.288602932976,15.003554636637944],[120.29085024742898,15.003171314663916],[120.29328197282507,15.003190625509035],[120.29778360382011,15.000655661689336],[120.29909816545188,14.998882319132974],[120.30033489030563,14.998197220696909],[120.3019092412984,14.999264407688145],[120.30342472727386,14.999580557081856],[120.3037864792542,14.997358334859655],[120.30574213043138,14.995135243734126],[120.30574072323208,14.99354482862725],[120.30711981258753,14.99150799221502],[120.30544712717614,14.991542129516972],[120.30546503082195,14.990665062798769],[120.3041830212735,14.989433335198669],[120.30075167565161,14.988763470120261],[120.30015954986499,14.988458429972809],[120.29799390384187,14.988502625360013],[120.29712259307792,14.987912004259385],[120.29608508019265,14.98861528608586],[120.29545870690185,14.987875870599112],[120.29658126210455,14.986797341241243],[120.297422597825,14.986802266439213],[120.29885215986394,14.984219644334985],[120.3021253735684,14.982363887363476],[120.3046222200851,14.980133972168346],[120.30557548750056,14.980780156453875],[120.30637972740936,14.98036585066103],[120.30719022342191,14.97779354095502],[120.30897046634198,14.977215847439709],[120.30938979481931,14.97549579620403],[120.30879204023483,14.973854594760894],[120.31155683108796,14.972764099969197],[120.31368917904246,14.973862588671011],[120.31951052574937,14.973743782043925],[120.31989759036537,14.971901596917405],[120.31521344729873,14.971059985691113],[120.31156435875704,14.967352659437779],[120.31074172353044,14.96736945258283],[120.30959268585138,14.96680833604654],[120.30851000695066,14.967366078695022],[120.30763171105207,14.965886535644984],[120.30768655792167,14.963198877970797],[120.30670592641138,14.961944444444896],[120.3053962306376,14.962684012519503],[120.30438981177355,14.96373151143439],[120.30351426245727,14.968475002713149],[120.30288693973057,14.969400456746882],[120.30075189605645,14.969920934041738],[120.30129317616718,14.970971662733689],[120.30099693525443,14.971837153964998],[120.29987046362919,14.972913890415214],[120.29837259307794,14.972142257690848],[120.29740315134632,14.972641665141168],[120.29598187991593,14.972919125027488],[120.29515122534792,14.973783688015772],[120.29292718902508,14.97486267513733],[120.29166647396431,14.976174841987188],[120.29124407677477,14.978769565158814],[120.29077965009839,14.97985833485967],[120.28957466352608,14.977828462389141],[120.28902624569298,14.977363887363424],[120.28767546986813,14.978769785563543],[120.28628914106497,14.978741493225414],[120.28601426245729,14.979335458543972],[120.28680402347067,14.981247223748653],[120.28492385243652,14.980603675842758],[120.28263594960458,14.981265792847182],[120.28269205108552,14.984014155070383],[120.28149582983991,14.98577886369543],[120.27941013987146,14.987080557081924],[120.27671391184407,14.98503467136004],[120.27558682986728,14.98579866197423],[120.2743174342508,14.984835455153132],[120.27274043840146,14.984070375230942],[120.27153078942109,14.984890344408257],[120.27156991973794,14.986808297899415],[120.27016202517984,14.987265167236728],[120.27018248891108,14.988268034193823],[120.27295719797695,14.987913373311756],[120.27542747724664,14.988758905199234],[120.27931224626263,14.991202706231377],[120.28286654381577,14.991781315274068],[120.28410501495279,14.990941819085549],[120.28630261966197,14.990986667209597],[120.28748410769924,14.989756944444878],[120.28925838273722,14.990640135871445],[120.29076339101084,14.99012499915267],[120.29128647925427,14.989580557081808],[120.29241737592832,14.989304864671908],[120.29325369320276,14.988458459642573],[120.2942113687127,14.988478003608236],[120.29323092369873,14.990691668192994],[120.29295870690169,14.992439871894419],[120.29529484446147,14.993009376526288],[120.29433643992036,14.99458978017202],[120.29404396284241,15.000019446479314],[120.29118377064964,15.001792242262468],[120.29073648467937,15.000413890415189],[120.29037025678781,15.00014166514137],[120.28794200700486,15.001540171305862],[120.28797072743657,15.002947222392265],[120.288602932976,15.003554636637944]]]}}]}