{"type":"FeatureCollection","features":[{"type":"Feature","id":"hydrolakes:1321389","properties":{"Hylak_id":1321389,"Lake_name":"","Country":"Russia","Continent":"Europe","Poly_src":"SWBD","Lake_type":1,"Grand_id":0,"Lake_area":0.14,"Shore_len":1.57,"Shore_dev":1.16,"Vol_total":0.46,"Vol_res":0.0,"Vol_src":3,"Depth_avg":3.2,"Dis_avg":0.022,"Res_time":244.2,"Elevation":419,"Slope_100":2.27,"Wshd_area":6.6,"Pour_long":123.960417,"Pour_lat":53.980143,"source_id":"hydrolakes:1321389","label":""},"geometry":{"type":"Polygon","coordinates":[[[123.95889187283018,53.97794189453134],[123.95861111111162,53.97763888888886],[123.955699869792,53.9778032769097],[123.95624213324697,53.980017361111095],[123.95903320312533,53.980550265842055],[123.96104112413224,53.98137512207035],[123.96287733289967,53.98144788953988],[123.96321831597248,53.980803697374085],[123.96292209201414,53.97832804361974],[123.95889187283018,53.97794189453134]]]}},{"type":"Feature","id":"hydrolakes:1322834","properties":{"Hylak_id":1322834,"Lake_name":"","Country":"Russia","Continent":"Europe","Poly_src":"SWBD","Lake_type":1,"Grand_id":0,"Lake_area":0.51,"Shore_len":3.32,"Shore_dev":1.31,"Vol_total":1.93,"Vol_res":0.0,"Vol_src":3,"Depth_avg":3.8,"Dis_avg":0.089,"Res_time":250.9,"Elevation":437,"Slope_100":2.14,"Wshd_area":28.1,"Pour_long":124.776361,"Pour_lat":53.693734,"source_id":"hydrolakes:1322834","label":""},"geometry":{"type":"Polygon","coordinates":[[[124.76457790798656,53.68639417860237],[124.76319281684067,53.686421034071145],[124.76241021050379,53.687145996093875],[124.76296196831652,53.68871975368921],[124.76289496527829,53.690406494140746],[124.76735215928858,53.6935272894965],[124.7684776475698,53.69388359917542],[124.76971544053862,53.69521959092884],[124.77212320963582,53.696063503689174],[124.77441189236146,53.69646199544263],[124.7790223524309,53.69374376085062],[124.77562825520886,53.69169881184894],[124.7676689995663,53.68917887369787],[124.76568901909775,53.68778306749124],[124.76457790798656,53.68639417860237]]]}},{"type":"Feature","id":"hydrolakes:1324300","properties":{"Hylak_id":1324300,"Lake_name":"","Country":"Russia","Continent":"Europe","Poly_src":"SWBD","Lake_type":1,"Grand_id":0,"Lake_area":0.21,"Shore_len":2.29,"Shore_dev":1.41,"Vol_total":0.53,"Vol_res":0.0,"Vol_src":3,"Depth_avg":2.6,"Dis_avg":0.16,"Res_time":38.6,"Elevation":251,"Slope_100":1.28,"Wshd_area":51.3,"Pour_long":124.18451,"Pour_lat":53.391343,"source_id":"hydrolakes:1324300","label":""},"geometry":{"type":"Polygon","coordinates":[[[124.18374213324694,53.3908412000867],[124.18179768880248,53.39082546657983],[124.17959120008715,53.391674533420144],[124.17070638020863,53.391944444444334],[124.17029595269133,53.39270005967893],[124.17142144097255,53.39331163194436],[124.17692626953152,53.393979763454865],[124.18158745659764,53.39361490885415],[124.1856865776914,53.39159979926205],[124.18517768012191,53.39117513020824],[124.18374213324694,53.3908412000867]]]}},{"type":"Feature","id":"hydrolakes:1324733","properties":{"Hylak_id":1324733,"Lake_name":"","Country":"Russia","Continent":"Europe","Poly_src":"SWBD","Lake_type":1,"Grand_id":0,"Lake_area":0.12,"Shore_len":1.74,"Shore_dev":1.4,"Vol_total":0.54,"Vol_res":0.0,"Vol_src":3,"Depth_avg":4.4,"Dis_avg":0.13,"Res_time":47.6,"Elevation":305,"Slope_100":4.6,"Wshd_area":41.8,"Pour_long":124.605417,"Pour_lat":53.312312,"source_id":"hydrolakes:1324733","label":""},"geometry":{"type":"Polygon","coordinates":[[[124.60570990668435,53.31279310438367],[124.60583333333375,53.31208333333325],[124.60434136284766,53.31222900390617],[124.6026692708337,53.31293348524315],[124.60179009331631,53.31442911783853],[124.60144151475743,53.31604071723086],[124.59959879557334,53.317516411675285],[124.60031439887177,53.31831800672734],[124.60210042317743,53.31795884874123],[124.60427978515662,53.31599229600681],[124.60512342664981,53.31359578450525],[124.60570990668435,53.31279310438367]]]}},{"type":"Feature","id":"hydrolakes:1333054","properties":{"Hylak_id":1333054,"Lake_name":"","Country":"China","Continent":"Asia","Poly_src":"SWBD","Lake_type":1,"Grand_id":0,"Lake_area":0.23,"Shore_len":3.09,"Shore_dev":1.83,"Vol_total":0.38,"Vol_res":0.0,"Vol_src":3,"Depth_avg":1.7,"Dis_avg":2.341,"Res_time":1.9,"Elevation":857,"Slope_100":0.51,"Wshd_area":612.5,"Pour_long":122.66755,"Pour_lat":51.51836,"source_id":"hydrolakes:1333054","label":""},"geometry":{"type":"Polygon","coordinates":[[[122.66960883246554,51.52219672309002],[122.66738661024323,51.5210158962671],[122.66761338975721,51.52025227864567],[122.66816894531263,51.51986870659698],[122.66794216579893,51.519141167534485],[122.66757663302985,51.51888888888868],[122.66928005642382,51.5170909288193],[122.66905327691006,51.51636338975675],[122.66861111111143,51.51597222222205],[122.66744493272608,51.51610487196177],[122.66594672309049,51.516918945312284],[122.66539116753489,51.51747450086788],[122.6648356119793,51.51830783420121],[122.66460883246555,51.51919216579836],[122.66405327691001,51.51957573784705],[122.66429958767384,51.52157199435749],[122.66527777777793,51.52179117838517],[122.66643405490481,51.52153211805552],[122.66872450086822,51.52211968315953],[122.66849772135447,51.52308105468728],[122.66683105468763,51.52457573784699],[122.66708618164085,51.526018337673406],[122.66862562391515,51.526363389756796],[122.67004150390648,51.52603678385401],[122.67094672309054,51.52514648437477],[122.6698356119793,51.523636610242875],[122.66960883246554,51.52219672309002]]]}}]}