{"type":"FeatureCollection","features":[{"type":"Feature","id":"hydrolakes:1382293","properties":{"Hylak_id":1382293,"Lake_name":"","Country":"Japan","Continent":"Asia","Poly_src":"SWBD","Lake_type":1,"Grand_id":0,"Lake_area":0.12,"Shore_len":1.87,"Shore_dev":1.55,"Vol_total":0.34,"Vol_res":0.0,"Vol_src":3,"Depth_avg":2.9,"Dis_avg":0.033,"Res_time":119.7,"Elevation":0,"Slope_100":2.04,"Wshd_area":0.8,"Pour_long":129.001038,"Pour_lat":27.688554,"source_id":"hydrolakes:1382293","label":""},"geometry":{"type":"Polygon","coordinates":[[[129.00174316326257,27.686921655228673],[129.00032863960809,27.686035991136464],[128.9994133835317,27.686533335471438],[128.99916666586694,27.685734464219195],[128.99848008817594,27.685946491451148],[128.9988043883062,27.68758395952426],[128.99938517172615,27.688849336992632],[129.0014881719432,27.689814589180173],[129.00014675484243,27.690430304365975],[129.00045803413946,27.69162538009317],[129.00207546578002,27.68981360106767],[129.00174316326257,27.686921655228673]]]}},{"type":"Feature","id":"hydrolakes:1383379","properties":{"Hylak_id":1383379,"Lake_name":"Kannako","Country":"Japan","Continent":"Asia","Poly_src":"GRanD","Lake_type":2,"Grand_id":6180,"Lake_area":0.44,"Shore_len":7.11,"Shore_dev":3.03,"Vol_total":8.2,"Vol_res":8.2,"Vol_src":2,"Depth_avg":18.7,"Dis_avg":0.302,"Res_time":314.3,"Elevation":30,"Slope_100":4.88,"Wshd_area":6.7,"Pour_long":127.949532,"Pour_lat":26.482624,"source_id":"hydrolakes:1383379","label":"Kannako"},"geometry":{"type":"Polygon","coordinates":[[[127.9444355560002,26.49538361110001],[127.94458805600021,26.495155611100017],[127.94468972200008,26.495362777800096],[127.94540166700017,26.49498861110004],[127.94547805600007,26.495300555600238],[127.94580861100007,26.49465611110014],[127.94616444400015,26.49465611110014],[127.94616444400015,26.494822511100097],[127.9465713890001,26.494573055600142],[127.94695277800031,26.495196666700224],[127.9470544440004,26.494427566700097],[127.94649500000008,26.49372055562236],[127.94687638900035,26.493512777799992],[127.947385,26.493575512777966],[127.94769000000036,26.494198611177865],[127.94858000000028,26.49432361117789],[127.94916472200015,26.494136388900074],[127.94858000000028,26.494094722266652],[127.94847833300031,26.49361666670012],[127.94796972200038,26.493866111100033],[127.94763916700032,26.493679166700133],[127.94697805600043,26.49266055560014],[127.94735944400043,26.492951388900053],[127.94746138900001,26.492618888900097],[127.94685111100057,26.49222388890007],[127.9470544440004,26.491621111100073],[127.94761388900008,26.491600277800103],[127.94761388900008,26.491849722200243],[127.9478172220002,26.491309166700034],[127.94850388900034,26.491787588899967],[127.94870722200011,26.491392588900055],[127.94847833300031,26.491309166700034],[127.94891055600027,26.49120527780002],[127.94893611100042,26.49143388890019],[127.94913944400031,26.49110138890012],[127.94896138900032,26.490685555600066],[127.94873250000035,26.490748055656127],[127.94891055600027,26.490311388900125],[127.94931722200022,26.4899163889001],[127.94967333300019,26.490165833300125],[127.94987666700024,26.489188888900117],[127.95076666700015,26.48914722219996],[127.95142777800038,26.488108055600094],[127.95168222200039,26.488357555600203],[127.95193638900008,26.488087222200193],[127.95216527800028,26.4873180556001],[127.95196166700009,26.48686055560006],[127.95221611100021,26.48698527780016],[127.95302972200045,26.486694444400143],[127.95315666700037,26.487068333300044],[127.95361444400032,26.486673611100002],[127.9517583330001,26.484241388900045],[127.95114805600014,26.484449166700188],[127.95046166700007,26.483617777800077],[127.95033444400019,26.482869444399967],[127.95097000000015,26.482744722244547],[127.9502327780001,26.48207944439997],[127.94906340880857,26.482495318927477],[127.94954611100019,26.482931666699983],[127.94901222200014,26.48355527779995],[127.94913944400031,26.484303611100017],[127.95013111100008,26.48530166670008],[127.94977500000022,26.486195277866784],[127.9490886110002,26.48638256670006],[127.94936833300022,26.4865697222001],[127.94936833300022,26.486943888900043],[127.94771555600033,26.486652777800145],[127.9463680560001,26.487962577799976],[127.94659666700011,26.48914722219996],[127.94606277799994,26.48904333330006],[127.9456561110004,26.489230555600102],[127.94608833300009,26.489230555600102],[127.9465713890001,26.489666944400028],[127.94588472200002,26.489583888900142],[127.94585944400012,26.49018666670014],[127.94484222200015,26.490311388900125],[127.94557972200039,26.490644166700065],[127.94514750000025,26.490851944467124],[127.94509666700014,26.491496388900202],[127.94468972200008,26.491745833300115],[127.94466444400024,26.49222388890007],[127.94298611100027,26.4924941667],[127.9428591670005,26.49274361110014],[127.9432150000003,26.492785277811265],[127.9430880560003,26.49347111109995],[127.94318972200017,26.49299305560004],[127.94354555600034,26.492889166700024],[127.94339305600045,26.49266055560014],[127.94400333300024,26.492618888900097],[127.94400333300024,26.49311777779991],[127.94423194400008,26.49299305560004],[127.94415583300014,26.49259805560024],[127.9447913890001,26.49251505560005],[127.9453508330007,26.491932777800002],[127.94522361100042,26.493762222200132],[127.94463888900003,26.49426111110006],[127.9441050000002,26.49428194441117],[127.94504583300022,26.494863888900056],[127.94496944400021,26.495113333300083],[127.9443083330001,26.494905555600212],[127.9440794440003,26.49523805560011],[127.9444355560002,26.49538361110001]]]}},{"type":"Feature","id":"hydrolakes:1383400","properties":{"Hylak_id":1383400,"Lake_name":"","Country":"Japan","Continent":"Asia","Poly_src":"GRanD","Lake_type":2,"Grand_id":6181,"Lake_area":0.17,"Shore_len":3.61,"Shore_dev":2.51,"Vol_total":7.6,"Vol_res":7.6,"Vol_src":2,"Depth_avg":46.1,"Dis_avg":0.644,"Res_time":136.6,"Elevation":16,"Slope_100":9.54,"Wshd_area":14.2,"Pour_long":127.929694,"Pour_lat":26.466417,"source_id":"hydrolakes:1383400","label":""},"geometry":{"type":"Polygon","coordinates":[[[127.92877681566335,26.47162056959081],[127.93038796943551,26.47056501984099],[127.93027687198924,26.46992612081408],[127.92961023809983,26.469203886355615],[127.92874913973674,26.46889831559389],[127.92866582004416,26.46831497714038],[127.92911028022019,26.46800941667624],[127.92908248866263,26.468342750861325],[127.92974915605271,26.46839831694416],[127.92972140031884,26.467703867673208],[127.92994361624523,26.46781498094481],[127.93052697400367,26.467009415445716],[127.93022143296974,26.466759409642123],[127.9302769965604,26.466370515120218],[127.93124923779709,26.46603718937081],[127.93127701758357,26.465759406134794],[127.93088814946276,26.465426068469696],[127.93091590870154,26.465731622581927],[127.93044368011249,26.46598162158938],[127.92841588371084,26.46648161047574],[127.92769363830098,26.46723161449637],[127.92761029402999,26.467648289507224],[127.92722139959136,26.467787178214678],[127.92699914838778,26.46870385913212],[127.927054682147,26.469176086129323],[127.92741578789577,26.469287200466454],[127.92722133574802,26.469648313957236],[127.92766577133943,26.4697594288657],[127.92761020421614,26.47025943529883],[127.92824910479692,26.46992610554156],[127.92833241739743,26.470426112908342],[127.92752682924709,26.47128722671647],[127.92627683325793,26.47123165689004],[127.92427680892814,26.47206499094466],[127.92586016742263,26.471426105896455],[127.9272490483969,26.4716205582705],[127.92788794483772,26.471398340589985],[127.92799901100409,26.472676135307665],[127.92902674355054,26.47370393427252],[127.92947118678279,26.47387059947181],[127.92949901656823,26.47242614379877],[127.92877681566335,26.47162056959081]]]}},{"type":"Feature","id":"hydrolakes:1383471","properties":{"Hylak_id":1383471,"Lake_name":"Zukeyama","Country":"Japan","Continent":"Asia","Poly_src":"GRanD","Lake_type":2,"Grand_id":6182,"Lake_area":0.91,"Shore_len":15.47,"Shore_dev":4.59,"Vol_total":7.1,"Vol_res":7.1,"Vol_src":2,"Depth_avg":7.8,"Dis_avg":0.252,"Res_time":326.1,"Elevation":67,"Slope_100":2.92,"Wshd_area":5.4,"Pour_long":127.8053,"Pour_lat":26.39005,"source_id":"hydrolakes:1383471","label":"Zukeyama"},"geometry":{"type":"Polygon","coordinates":[[[127.79397055600015,26.404758888900062],[127.79443972200016,26.403855888900125],[127.79490888900006,26.404074166700013],[127.79524361100022,26.403718055600223],[127.79527722200004,26.40311555559998],[127.79577972200008,26.402622555600146],[127.79621527800003,26.402595555600044],[127.7960144440002,26.401471944399987],[127.7965166670001,26.401198333300044],[127.79695250000032,26.401471944433126],[127.79695250000032,26.402704722211013],[127.79732083300013,26.402868888900286],[127.79872805600013,26.400239444400142],[127.79856055600033,26.40013944440011],[127.79916361100027,26.398924722200036],[127.79939805600014,26.39903444440023],[127.7995319440002,26.398678333300097],[127.79926388900014,26.39843166670005],[127.80067111100021,26.398404444400114],[127.80023555600019,26.398874444400008],[127.80047000000019,26.399171388944694],[127.80134111100028,26.39870555560003],[127.8011402780001,26.399308333300098],[127.8005369440001,26.399719166700095],[127.80087222200007,26.399993055600135],[127.80013500000001,26.40051333335572],[127.8004030560001,26.401855555600093],[127.80073805600023,26.401691111100035],[127.8009055560002,26.40114333330007],[127.8005369440001,26.40095166670011],[127.80057055600031,26.400595555600205],[127.80124055600038,26.400239444400142],[127.801073056,26.399938333299986],[127.80150861100026,26.39958222220008],[127.80214527800007,26.399691666699937],[127.80154222200014,26.399445277800112],[127.80140805600024,26.39906166670005],[127.80184361100004,26.398924722200036],[127.80160916700021,26.398267522200115],[127.8009391670002,26.398486388900153],[127.8011402780001,26.397801666700047],[127.80057055600031,26.397611666700016],[127.80063777800024,26.397089722200064],[127.80006805600016,26.396897777800007],[127.80047000000019,26.396158333377855],[127.8009391670002,26.396897777800007],[127.80124055600038,26.396459722200063],[127.80087222200007,26.396359722200145],[127.8009055560002,26.395856944400236],[127.80154222200014,26.395726944400053],[127.80130777800025,26.39550111110009],[127.80063777800024,26.395692777800207],[127.80010166700038,26.395528333300035],[127.80043666700016,26.395199722200175],[127.80063777800024,26.395473611100044],[127.8010397220001,26.395093611100094],[127.80207833300011,26.395199722200175],[127.80164277800003,26.394761388900122],[127.80207833300011,26.393939722200173],[127.80187722200014,26.39333722220016],[127.80204472200012,26.392926111100223],[127.80244666700025,26.393939722200173],[127.80274833300012,26.394158888899938],[127.80268138900004,26.394515888900116],[127.80345166700005,26.39522694439995],[127.80365277800013,26.39522694439995],[127.80341833300014,26.3947066667003],[127.80358583300017,26.394487566700036],[127.8042225000001,26.394679166767048],[127.80502638900015,26.394323055599898],[127.80516055600015,26.3948161111],[127.80418888900022,26.39563805559999],[127.8044233330001,26.39637755560011],[127.80331777800023,26.396514444400168],[127.80321722200023,26.39752777780012],[127.80358583300017,26.39670611110006],[127.80425583300018,26.396843055600073],[127.80425583300018,26.397692222200078],[127.80502638900015,26.396213055600015],[127.80536138900021,26.396213055600015],[127.80495944400019,26.395555833300307],[127.80573000000027,26.39552833338331],[127.80573000000027,26.394487533383483],[127.80599805600019,26.394487533300094],[127.80606500000005,26.395281666755636],[127.80690250000009,26.39656916675608],[127.80814222200007,26.396569166700033],[127.80707000000024,26.393775277816587],[127.80566305600018,26.393063333300177],[127.80469138900014,26.393446666700015],[127.804523889,26.39410416670006],[127.80338472200009,26.394049166700142],[127.80358583300017,26.393391944400037],[127.80338472200009,26.39213194440015],[127.80365277800013,26.392323611099982],[127.8048925,26.39122805561101],[127.80643361099999,26.390570555600107],[127.80368638900012,26.38687305560012],[127.80281527800008,26.38728388890013],[127.80244666700025,26.387968611100234],[127.80191083300019,26.387694722200138],[127.80174333300005,26.387913888900016],[127.80201111100007,26.38832472220014],[127.801073056,26.388379444400073],[127.80134111100028,26.388571111100077],[127.80211166700002,26.388461666700266],[127.80231277799993,26.388653333300113],[127.80197777800015,26.388872533300173],[127.80127416700009,26.389009444400017],[127.80063777800024,26.388653333300113],[127.80050361100001,26.388790277800126],[127.8009391670002,26.389091666700153],[127.79966611100008,26.38889972220005],[127.79966611100008,26.38920111110008],[127.801073056,26.389529722200052],[127.80097277800002,26.38972166670004],[127.8004030560001,26.3896119444002],[127.8004030560001,26.389913333300115],[127.79966611100008,26.389885833299957],[127.7995319440002,26.390105833300083],[127.79976666700009,26.390159722200167],[127.79899611100001,26.39032416670011],[127.79899611100001,26.390543333300002],[127.7978569440001,26.390378888900102],[127.79799083300014,26.390817222199985],[127.79819194400022,26.390817222199985],[127.79792388900006,26.391255277799928],[127.79691888900015,26.391255277799928],[127.79762250000027,26.39174833336699],[127.79779000000013,26.39144722223375],[127.79805805600017,26.391447222200156],[127.79832583300015,26.391995222199967],[127.79822555600009,26.392625166700043],[127.79856055600033,26.392625166700043],[127.79859388900002,26.392159166700196],[127.7989625000003,26.392131944467167],[127.79829250000029,26.391173333389077],[127.79869444400026,26.39087194440009],[127.79906305600014,26.391008888900103],[127.80026916700024,26.390488333300027],[127.80036972200014,26.390926666700125],[127.80100611100016,26.390926666700125],[127.80097277800002,26.39172111110014],[127.80070472200032,26.391858055600153],[127.80003472200002,26.391118333300028],[127.79869444400026,26.39131027780013],[127.79909666700019,26.391803333300288],[127.79976666700009,26.391556666700126],[127.79996750000015,26.392049722267018],[127.7992975000002,26.39226888894399],[127.79976666700009,26.392515277800214],[127.79966611100008,26.39278916669997],[127.79926388900014,26.39259756670009],[127.79923055600028,26.39309055560011],[127.79799083300014,26.39309055560011],[127.79738777800009,26.39248805560004],[127.79608138900022,26.39284416670006],[127.79658388900003,26.393172777800032],[127.79608138900022,26.39358361110004],[127.79658388900003,26.393419166700085],[127.79678500000006,26.393693055666915],[127.7965166670001,26.39429583330019],[127.79701944400017,26.39440527779999],[127.79712000000012,26.394816111127966],[127.79755527800012,26.3943780556001],[127.79775638900009,26.394596944400178],[127.79712000000012,26.395062777894623],[127.79658388900003,26.39467916670003],[127.79631583300005,26.394980555600057],[127.79561222200022,26.394788888900052],[127.79547833300012,26.395035277800048],[127.79588027800025,26.39533666670019],[127.79665083300023,26.39541888890011],[127.79638277799995,26.39572888890001],[127.7974883330001,26.396322777800094],[127.7972875000001,26.39676083337804],[127.79588027800025,26.395884444400053],[127.79554527800002,26.39635444440006],[127.79594722200011,26.39640544439999],[127.79567916700017,26.396596666700077],[127.79507638900003,26.396356666700058],[127.79460722200002,26.397144444400055],[127.79514333300023,26.396843055600073],[127.7960144440002,26.397035055600043],[127.79638277799995,26.396788333299924],[127.79655027800032,26.397007533299984],[127.79631583300005,26.397582566700237],[127.79507638900003,26.397637555600056],[127.79547833300012,26.39782916670009],[127.7953777780001,26.399226111100063],[127.79467416699998,26.39952751110019],[127.79534416700005,26.399390555600007],[127.7955116670002,26.399554722199923],[127.79517666700002,26.40013472220005],[127.79517666700002,26.400787222199938],[127.79564583300004,26.401061388900132],[127.79504277799998,26.402047222200167],[127.79440611100006,26.401225555600092],[127.79454027800017,26.402677222200055],[127.79397055600015,26.404183888900036],[127.79397055600015,26.404758888900062]]]}},{"type":"Feature","id":"hydrolakes:1383665","properties":{"Hylak_id":1383665,"Lake_name":"","Country":"Japan","Continent":"Asia","Poly_src":"SWBD","Lake_type":1,"Grand_id":0,"Lake_area":0.43,"Shore_len":3.71,"Shore_dev":1.6,"Vol_total":1.52,"Vol_res":0.0,"Vol_src":3,"Depth_avg":3.6,"Dis_avg":1.961,"Res_time":8.9,"Elevation":2,"Slope_100":2.01,"Wshd_area":40.8,"Pour_long":127.681835,"Pour_lat":26.198029,"source_id":"hydrolakes:1383665","label":""},"geometry":{"type":"Polygon","coordinates":[[[127.69082328928346,26.194506572508942],[127.69277203161988,26.19413452932315],[127.69480398521961,26.19484674177977],[127.69513359307717,26.194428583142667],[127.6938888880889,26.19323446421913],[127.68775047328222,26.193306214436006],[127.68298608991324,26.194954028021073],[127.68124470405581,26.196423618949893],[127.68007297336527,26.198238126328363],[127.68014634515987,26.200089254800673],[127.68162172807081,26.200030796684416],[127.68434710687552,26.19863933075544],[127.68508592843483,26.197841940347587],[127.69082328928346,26.194506572508942]]]}}]}