{"type":"FeatureCollection","features":[{"type":"Feature","id":"hydrolakes:1385931","properties":{"Hylak_id":1385931,"Lake_name":"","Country":"Japan","Continent":"Asia","Poly_src":"SWBD","Lake_type":1,"Grand_id":0,"Lake_area":0.23,"Shore_len":1.98,"Shore_dev":1.16,"Vol_total":0.56,"Vol_res":0.0,"Vol_src":3,"Depth_avg":2.4,"Dis_avg":0.048,"Res_time":136.1,"Elevation":5,"Slope_100":1.12,"Wshd_area":1.0,"Pour_long":125.296824,"Pour_lat":24.731049,"source_id":"hydrolakes:1385931","label":""},"geometry":{"type":"Polygon","coordinates":[[[125.29841472467234,24.726810336642757],[125.29819444444922,24.726250000000107],[125.29653165658766,24.72638017654424],[125.29475089252458,24.728879328303947],[125.29418454861104,24.730319961442035],[125.29479026457136,24.73234481785039],[125.29639938805286,24.733315451393594],[125.29751788192789,24.73307343751202],[125.29775989585897,24.73081545141008],[125.29841037777186,24.72871580388812],[125.29841472467234,24.726810336642757]]]}}]}