{"type":"FeatureCollection","features":[{"type":"Feature","id":"hydrolakes:1323066","properties":{"Hylak_id":1323066,"Lake_name":"","Country":"Russia","Continent":"Europe","Poly_src":"SWBD","Lake_type":1,"Grand_id":0,"Lake_area":0.11,"Shore_len":1.67,"Shore_dev":1.42,"Vol_total":0.29,"Vol_res":0.0,"Vol_src":3,"Depth_avg":2.6,"Dis_avg":9.106,"Res_time":0.4,"Elevation":370,"Slope_100":1.66,"Wshd_area":1199.6,"Pour_long":130.485748,"Pour_lat":53.648135,"source_id":"hydrolakes:1323066","label":""},"geometry":{"type":"Polygon","coordinates":[[[130.4881787787566,53.64642286512628],[130.48833333333573,53.64555555555603],[130.48654391818803,53.646024576823436],[130.48404964871105,53.64756306966194],[130.48387278239164,53.64929836697104],[130.48478057861558,53.65077012803863],[130.48658742269112,53.652070515951095],[130.48702460395197,53.65159335666277],[130.48673163520192,53.648719278971896],[130.4881787787566,53.64642286512628]]]}},{"type":"Feature","id":"hydrolakes:1324376","properties":{"Hylak_id":1324376,"Lake_name":"","Country":"Russia","Continent":"Europe","Poly_src":"SWBD","Lake_type":1,"Grand_id":0,"Lake_area":0.15,"Shore_len":1.94,"Shore_dev":1.4,"Vol_total":0.43,"Vol_res":0.0,"Vol_src":3,"Depth_avg":2.8,"Dis_avg":29.236,"Res_time":0.2,"Elevation":289,"Slope_100":1.73,"Wshd_area":3930.5,"Pour_long":130.0581,"Pour_lat":53.377187,"source_id":"hydrolakes:1324376","label":""},"geometry":{"type":"Polygon","coordinates":[[[130.06500000000244,53.378015407986595],[130.06601019965507,53.37733072916711],[130.06870546129238,53.377385660807875],[130.06985833486152,53.37662990993971],[130.06791944292098,53.37569173177138],[130.06611111111334,53.37527777777831],[130.06074573093218,53.37545898437543],[130.05824015299703,53.37644721137195],[130.05764166514308,53.37760904947976],[130.05985323164452,53.37774034288253],[130.06172677358234,53.377099066840685],[130.06359198676455,53.37706108941018],[130.06500000000244,53.378015407986595]]]}},{"type":"Feature","id":"hydrolakes:1324555","properties":{"Hylak_id":1324555,"Lake_name":"","Country":"Russia","Continent":"Europe","Poly_src":"SWBD","Lake_type":1,"Grand_id":0,"Lake_area":0.14,"Shore_len":1.52,"Shore_dev":1.13,"Vol_total":0.39,"Vol_res":0.0,"Vol_src":3,"Depth_avg":2.7,"Dis_avg":29.401,"Res_time":0.2,"Elevation":282,"Slope_100":1.62,"Wshd_area":3959.7,"Pour_long":130.045493,"Pour_lat":53.345375,"source_id":"hydrolakes:1324555","label":""},"geometry":{"type":"Polygon","coordinates":[[[130.0470755216835,53.34486897786502],[130.0469444444468,53.34472222222274],[130.0451577589269,53.34496120876781],[130.0451153183006,53.34567328559075],[130.0454410171534,53.34627265082514],[130.04431336721012,53.34728013780426],[130.0446502261716,53.34917887369846],[130.0458461210485,53.34982869466188],[130.0473589452132,53.34991889105953],[130.0499485482132,53.3476051161029],[130.04861196306263,53.3457634819884],[130.0470755216835,53.34486897786502]]]}},{"type":"Feature","id":"hydrolakes:1325228","properties":{"Hylak_id":1325228,"Lake_name":"","Country":"Russia","Continent":"Europe","Poly_src":"SWBD","Lake_type":1,"Grand_id":0,"Lake_area":0.18,"Shore_len":2.76,"Shore_dev":1.84,"Vol_total":0.47,"Vol_res":0.0,"Vol_src":3,"Depth_avg":2.6,"Dis_avg":41.958,"Res_time":0.1,"Elevation":273,"Slope_100":1.43,"Wshd_area":4439.6,"Pour_long":130.107292,"Pour_lat":53.224127,"source_id":"hydrolakes:1325228","label":""},"geometry":{"type":"Polygon","coordinates":[[[130.12112218221273,53.22689168294329],[130.11543255276393,53.22540079752656],[130.11159922282127,53.22466891818618],[130.10500000000224,53.22250000000048],[130.10319974263746,53.22265692816882],[130.10354621039744,53.22336086697089],[130.1064934794132,53.22522867838586],[130.1089676072886,53.225746392144515],[130.11174558003967,53.22563625759591],[130.1159669240339,53.22681084526948],[130.12057732476387,53.22763359917582],[130.12112218221273,53.22689168294329]]]}},{"type":"Feature","id":"hydrolakes:1325366","properties":{"Hylak_id":1325366,"Lake_name":"","Country":"Russia","Continent":"Europe","Poly_src":"SWBD","Lake_type":1,"Grand_id":0,"Lake_area":0.17,"Shore_len":2.1,"Shore_dev":1.42,"Vol_total":0.25,"Vol_res":0.0,"Vol_src":3,"Depth_avg":1.4,"Dis_avg":0.057,"Res_time":50.3,"Elevation":269,"Slope_100":0.39,"Wshd_area":6.9,"Pour_long":130.009375,"Pour_lat":53.197552,"source_id":"hydrolakes:1325366","label":""},"geometry":{"type":"Polygon","coordinates":[[[130.00891118632643,53.19849948459239],[130.01055555555797,53.19816270616366],[130.01299165619974,53.198661566840656],[130.01374722269094,53.197935655382366],[130.01027777778,53.19666666666717],[130.0059947803308,53.19682196723136],[130.00269425675498,53.19999308268285],[130.00349427733397,53.20188490125918],[130.0049014735244,53.20142822265666],[130.00891118632643,53.19849948459239]]]}},{"type":"Feature","id":"hydrolakes:1325389","properties":{"Hylak_id":1325389,"Lake_name":"","Country":"Russia","Continent":"Europe","Poly_src":"SWBD","Lake_type":1,"Grand_id":0,"Lake_area":0.18,"Shore_len":2.01,"Shore_dev":1.35,"Vol_total":0.34,"Vol_res":0.0,"Vol_src":3,"Depth_avg":1.9,"Dis_avg":0.063,"Res_time":62.0,"Elevation":268,"Slope_100":0.72,"Wshd_area":7.7,"Pour_long":130.006461,"Pour_lat":53.191045,"source_id":"hydrolakes:1325389","label":""},"geometry":{"type":"Polygon","coordinates":[[[130.0098664061253,53.18846693250913],[130.0091666666691,53.1875000000004],[130.00803235319148,53.187655029297275],[130.00734518263306,53.189042561849476],[130.007387756244,53.190116644965826],[130.00458862847978,53.19104139539968],[130.00607250160886,53.19204101562548],[130.00668286085357,53.19319444444494],[130.00612237162295,53.1942536078563],[130.00784035100116,53.19485582139805],[130.01029979917985,53.19275227864631],[130.0110678052925,53.190806884766005],[130.0101335938794,53.189588623047314],[130.0098664061253,53.18846693250913]]]}},{"type":"Feature","id":"hydrolakes:1329055","properties":{"Hylak_id":1329055,"Lake_name":"","Country":"Russia","Continent":"Europe","Poly_src":"SWBD","Lake_type":1,"Grand_id":0,"Lake_area":0.15,"Shore_len":1.63,"Shore_dev":1.17,"Vol_total":0.4,"Vol_res":0.0,"Vol_src":3,"Depth_avg":2.6,"Dis_avg":0.03,"Res_time":152.9,"Elevation":908,"Slope_100":1.42,"Wshd_area":2.2,"Pour_long":133.5744,"Pour_lat":52.417298,"source_id":"hydrolakes:1329055","label":""},"geometry":{"type":"Polygon","coordinates":[[[133.57707302517616,52.4154269748268],[133.57694444444712,52.415277777778215],[133.57590006510674,52.415592176649625],[133.57348253038452,52.41698594835111],[133.57406385633936,52.41785725911501],[133.57539605034992,52.418258463541974],[133.57575249566253,52.420598687066445],[133.57802842882194,52.420781521267884],[133.57957302517627,52.419814181858044],[133.5793158637178,52.41790635850725],[133.57814046224217,52.416095648871874],[133.57707302517616,52.4154269748268]]]}},{"type":"Feature","id":"hydrolakes:1330661","properties":{"Hylak_id":1330661,"Lake_name":"","Country":"Russia","Continent":"Europe","Poly_src":"SWBD","Lake_type":1,"Grand_id":0,"Lake_area":0.49,"Shore_len":3.0,"Shore_dev":1.2,"Vol_total":0.86,"Vol_res":0.0,"Vol_src":3,"Depth_avg":1.7,"Dis_avg":0.027,"Res_time":368.2,"Elevation":237,"Slope_100":0.44,"Wshd_area":3.0,"Pour_long":130.519716,"Pour_lat":52.08245,"source_id":"hydrolakes:1330661","label":""},"geometry":{"type":"Polygon","coordinates":[[[130.52666758219635,52.088395182292004],[130.53080634223323,52.088281521267845],[130.53228146023451,52.08735758463564],[130.53070478651483,52.08623969184066],[130.52709367540388,52.08430745442746],[130.52790632460096,52.08274386935801],[130.52374420166257,52.08202148437533],[130.52138888889118,52.081111111111454],[130.51995676676677,52.08125732421911],[130.51806521945758,52.0827205403649],[130.5184618801564,52.08403808593795],[130.52042700873722,52.08623969184066],[130.52208309597688,52.08861816406301],[130.5241779242645,52.089500325521215],[130.52666758219635,52.088395182292004]]]}},{"type":"Feature","id":"hydrolakes:1334036","properties":{"Hylak_id":1334036,"Lake_name":"","Country":"Russia","Continent":"Europe","Poly_src":"SWBD","Lake_type":1,"Grand_id":0,"Lake_area":0.4,"Shore_len":2.79,"Shore_dev":1.25,"Vol_total":3.18,"Vol_res":0.0,"Vol_src":3,"Depth_avg":8.0,"Dis_avg":0.011,"Res_time":3345.4,"Elevation":1326,"Slope_100":11.22,"Wshd_area":1.1,"Pour_long":134.339583,"Pour_lat":51.302297,"source_id":"hydrolakes:1334036","label":""},"geometry":{"type":"Polygon","coordinates":[[[134.34041124132216,51.30042209201412],[134.3384865993949,51.3004337565107],[134.33717827691248,51.301646321614896],[134.33849283854443,51.30286431206622],[134.3408938259575,51.30926595052108],[134.34300618489863,51.31013346354189],[134.34585015191232,51.30965332031275],[134.3471251085096,51.30883029513916],[134.3470987955758,51.30683322482673],[134.34564615885688,51.3052652994794],[134.34332275390898,51.30389946831639],[134.34289143880466,51.302537163628756],[134.34041124132216,51.30042209201412]]]}},{"type":"Feature","id":"hydrolakes:1334454","properties":{"Hylak_id":1334454,"Lake_name":"","Country":"Russia","Continent":"Europe","Poly_src":"SWBD","Lake_type":1,"Grand_id":0,"Lake_area":0.21,"Shore_len":1.93,"Shore_dev":1.2,"Vol_total":0.59,"Vol_res":0.0,"Vol_src":3,"Depth_avg":2.9,"Dis_avg":0.516,"Res_time":13.2,"Elevation":741,"Slope_100":1.6,"Wshd_area":46.3,"Pour_long":131.668216,"Pour_lat":51.19482,"source_id":"hydrolakes:1334454","label":""},"geometry":{"type":"Polygon","coordinates":[[[131.67002373589645,51.1945529513892],[131.67055555555805,51.19388888888915],[131.663131646053,51.19446885850721],[131.66003404405632,51.196766493055804],[131.66098754883052,51.19734564887182],[131.66146945529783,51.19794759114626],[131.66478936089658,51.19845675998283],[131.66663438585311,51.197747667101],[131.66789577908224,51.19617241753491],[131.67002373589645,51.1945529513892]]]}},{"type":"Feature","id":"hydrolakes:1334773","properties":{"Hylak_id":1334773,"Lake_name":"","Country":"Russia","Continent":"Europe","Poly_src":"SWBD","Lake_type":1,"Grand_id":0,"Lake_area":0.56,"Shore_len":5.42,"Shore_dev":2.04,"Vol_total":1.36,"Vol_res":0.0,"Vol_src":3,"Depth_avg":2.4,"Dis_avg":42.088,"Res_time":0.4,"Elevation":266,"Slope_100":0.84,"Wshd_area":3435.7,"Pour_long":132.582447,"Pour_lat":51.096944,"source_id":"hydrolakes:1334773","label":""},"geometry":{"type":"Polygon","coordinates":[[[132.61483723958582,51.09671495225717],[132.61513617621796,51.094654405382244],[132.6073583984401,51.0943082682295],[132.60722222222472,51.09388888888918],[132.6052381727455,51.094370388455104],[132.60486382378718,51.09514160156266],[132.59930826823177,51.09594238281278],[132.59986653646075,51.094858669705275],[132.59831542969005,51.09458604600735],[132.59708604600945,51.09541937934051],[132.59438585069682,51.09585910373289],[132.58435736762402,51.09656005859392],[132.5812942165823,51.09649739583364],[132.58097493489845,51.09668457031273],[132.58284016927348,51.09758951822937],[132.5938549804714,51.09825737847257],[132.59553602430822,51.097682020399645],[132.61357611762395,51.09714653862875],[132.61483723958582,51.09671495225717]]]}},{"type":"Feature","id":"hydrolakes:1335341","properties":{"Hylak_id":1335341,"Lake_name":"","Country":"Russia","Continent":"Europe","Poly_src":"SWBD","Lake_type":1,"Grand_id":0,"Lake_area":0.17,"Shore_len":1.61,"Shore_dev":1.11,"Vol_total":0.23,"Vol_res":0.0,"Vol_src":3,"Depth_avg":1.4,"Dis_avg":0.002,"Res_time":1318.0,"Elevation":240,"Slope_100":0.36,"Wshd_area":0.1,"Pour_long":132.298958,"Pour_lat":50.922215,"source_id":"hydrolakes:1335341","label":""},"geometry":{"type":"Polygon","coordinates":[[[132.2981765408013,50.92043457031275],[132.2980555555581,50.9202777777781],[132.2953987630234,50.920398763021126],[132.29322075738088,50.92109673394117],[132.29182345920384,50.92193250868081],[132.29267225477673,50.92252441406271],[132.29515679253734,50.92317654079886],[132.29706380208597,50.924009874132196],[132.29849012587067,50.92376790364614],[132.3009049479192,50.92288085937531],[132.29972954644353,50.92086697048637],[132.2981765408013,50.92043457031275]]]}}]}