{"type":"FeatureCollection","features":[{"type":"Feature","id":"hydrolakes:13904","properties":{"Hylak_id":13904,"Lake_name":"","Country":"Russia","Continent":"Europe","Poly_src":"SWBD","Lake_type":1,"Grand_id":0,"Lake_area":12.88,"Shore_len":33.97,"Shore_dev":2.67,"Vol_total":18.32,"Vol_res":0.0,"Vol_src":3,"Depth_avg":1.4,"Dis_avg":32.712,"Res_time":6.5,"Elevation":29,"Slope_100":0.62,"Wshd_area":1454.8,"Pour_long":135.083503,"Pour_lat":48.778938,"source_id":"hydrolakes:13904","label":""},"geometry":{"type":"Polygon","coordinates":[[[135.0773794979566,48.78015136016967],[135.07854125977013,48.779602993199205],[135.0815886433964,48.77963568091633],[135.08430397881864,48.78099256025655],[135.0854113684806,48.78002644154998],[135.0839756351092,48.779348815681885],[135.08144834730814,48.77593084693183],[135.07908723619693,48.77419907609851],[135.07609113905613,48.77348537167143],[135.07396754795127,48.77392970760906],[135.06831714206737,48.77378281633298],[135.06434841580307,48.77241088165408],[135.0598171064634,48.7732534380778],[135.05931085375084,48.77379977054295],[135.0565196440001,48.775117044848514],[135.05651783413816,48.77612873647183],[135.05173079597074,48.77773097714021],[135.0501399782015,48.779297953051696],[135.04979313321036,48.78183593048226],[135.04902248383013,48.78295585778261],[135.0485607994974,48.784414055482216],[135.04617057376885,48.78431938317328],[135.04524600559267,48.78332152618549],[135.04475239648218,48.78176241702727],[135.04554406060572,48.779680168763434],[135.04484459771516,48.77935003638504],[135.0448809305871,48.77843328833808],[135.04542476230648,48.77740559194058],[135.04040078057636,48.77103257219227],[135.03983742608415,48.76925319393706],[135.03988656786197,48.76801336646315],[135.03839063009076,48.764211147496155],[135.03881883833589,48.763401956957864],[135.03974335988823,48.76254529463159],[135.04313477834518,48.76180907501339],[135.04439950731518,48.76185925947527],[135.04596692827477,48.76268865943189],[135.04772598690903,48.76295585778257],[135.0487447060525,48.7615669688937],[135.0507503594339,48.76046643720974],[135.05180099911638,48.76102239966633],[135.05369648404053,48.761053052878026],[135.05543378618495,48.76019869632438],[135.0554092110574,48.75957857913676],[135.05051998562732,48.75977239966619],[135.04981401655863,48.759010409648965],[135.04991716173424,48.75640814185374],[135.0518925433733,48.75457776533466],[135.05166666667128,48.75393336971831],[135.0490663062247,48.754035230612374],[135.04614893171976,48.75607326229641],[135.0437825139408,48.75597940378947],[135.04008905623152,48.75884208825124],[135.03824666765468,48.75876898169747],[135.0331618499801,48.75992078291273],[135.0304648420592,48.759890943503024],[135.02709332784463,48.76047810170627],[135.020763418414,48.76042534020445],[135.01666957855667,48.76187214467495],[135.015219334501,48.76181463599437],[135.0141686672681,48.76218288143707],[135.01192577574454,48.76209404137626],[135.01033622106354,48.76153685821674],[135.00839249293455,48.761541605395394],[135.00503469149737,48.763318406610665],[135.00379288250008,48.764658603008286],[135.00302064048378,48.764249938728824],[135.00097751723854,48.76602199276516],[134.99985581610395,48.7662891911159],[134.99895685196367,48.76690781633289],[134.9966231166038,48.7668153141629],[134.99388257027118,48.76761758738331],[134.9913488613281,48.76967962622871],[134.99081565751413,48.770809454787866],[134.9883700592033,48.77161525448395],[134.9879219618153,48.77218369523922],[134.9884944186653,48.77326550947521],[134.99329229196366,48.77256333391102],[134.99451936245413,48.77516343156725],[134.99316520850317,48.77713134063862],[134.9940262730962,48.77792913794747],[134.99711391025568,48.77554849558629],[134.99818914943722,48.77579480635029],[134.99762275696258,48.77686522735718],[134.99821481917104,48.77855440921502],[135.00046432283648,48.778465297886726],[135.00096692721513,48.777400302226965],[135.00207803832603,48.77656696889369],[135.00283736971153,48.776299770543005],[135.00337898148882,48.77801051815584],[135.00231834941906,48.77939357479647],[135.00091392093697,48.78005641659337],[135.00129666540818,48.78101141333815],[135.00298348003406,48.77985066029987],[135.00517304632848,48.778768303529034],[135.00597704358023,48.778800177444054],[135.00789609485662,48.7771784055256],[135.01047046449895,48.776687004701046],[135.01159173753973,48.77745848907591],[135.0123729282002,48.779113762513475],[135.01319592582303,48.77987629506555],[135.01346692615527,48.7815775483208],[135.01422178904681,48.78267455352915],[135.01457803726657,48.783799770543],[135.01662449519307,48.78490030222696],[135.01882553736817,48.784323587817255],[135.02127037260732,48.78181707740072],[135.02245167202886,48.78125948733987],[135.02515652127187,48.78126626902383],[135.02514680650944,48.78357760257427],[135.0257217280116,48.78466402835551],[135.02991873423719,48.78664482262644],[135.0304113727192,48.78768865943192],[135.03418421851717,48.792287319371155],[135.03736640506781,48.79378919111599],[135.03884890238913,48.79480929202737],[135.04691936069526,48.79189493113324],[135.05163897620758,48.79049803985737],[135.05600870768677,48.78708725969233],[135.0593327924987,48.785518384909324],[135.0620886315284,48.785188659431924],[135.06490548876042,48.78451957848574],[135.0679219648618,48.78241088165413],[135.07043703715465,48.779872632956256],[135.0725247022886,48.778672953051625],[135.0732918124774,48.77784504506559],[135.0759779273185,48.77657741268706],[135.07596386380123,48.776222594978776],[135.0792907545346,48.77627861168878],[135.07993587070496,48.77661986602914],[135.08055475023508,48.77728786190585],[135.08011123657678,48.77769883195799],[135.0773134528311,48.77770181589892],[135.0764649963424,48.7786174788763],[135.07340397305427,48.77934664554306],[135.07190047370506,48.780969366897125],[135.07041136848068,48.78184474667148],[135.06976270888032,48.78313177466629],[135.06874470181384,48.78378919111594],[135.0684775204175,48.78463310387633],[135.06733183119485,48.785694708693995],[135.06738186306882,48.78695691572523],[135.06982844882992,48.790337720846765],[135.06877431234182,48.79405272735721],[135.06779622396283,48.79532822648912],[135.06517383152033,48.796869974536094],[135.0648445214212,48.79893716746136],[135.06322802226214,48.80104518612461],[135.06263173421672,48.804074021845054],[135.06297014872683,48.80471353464884],[135.06517514547164,48.8037672184596],[135.06611965603759,48.801765807869344],[135.0679219648618,48.79963310387643],[135.06843273587145,48.798550882739164],[135.07018996345124,48.796524786819134],[135.07129155477338,48.796004902921425],[135.07188498603426,48.795364440681965],[135.07321990119544,48.79124226186241],[135.0731788804842,48.790207376879835],[135.07396103753427,48.78782809085561],[135.07342471653004,48.78526474992668],[135.07554932488802,48.78370631893705],[135.07657543606706,48.782598869935384],[135.0773794979566,48.78015136016967]]]}},{"type":"Feature","id":"hydrolakes:1344432","properties":{"Hylak_id":1344432,"Lake_name":"","Country":"Russia","Continent":"Europe","Poly_src":"SWBD","Lake_type":1,"Grand_id":0,"Lake_area":0.54,"Shore_len":4.19,"Shore_dev":1.62,"Vol_total":0.78,"Vol_res":0.0,"Vol_src":3,"Depth_avg":1.5,"Dis_avg":0.134,"Res_time":67.7,"Elevation":30,"Slope_100":0.3,"Wshd_area":6.1,"Pour_long":135.005208,"Pour_lat":48.707502,"source_id":"hydrolakes:1344432","label":""},"geometry":{"type":"Polygon","coordinates":[[[134.99820225716098,48.71269123647181],[134.99975744989632,48.71242430938861],[135.00147641818205,48.71074679202735],[135.00320309639437,48.711613084345004],[135.0067220221672,48.71159206112452],[135.00903558943452,48.71074679202735],[135.00994612376343,48.70972764055165],[135.01207552168552,48.70923217071663],[135.01149660322852,48.707634812860704],[135.00948807186995,48.70671304636761],[135.00777777778222,48.705518384909396],[135.00588251114357,48.70684216963167],[135.0048532984037,48.70658012536069],[135.0030555555602,48.70476670305169],[135.0015748352522,48.70504312449259],[135.00109346072333,48.70864229983988],[134.99981093725034,48.710077575447485],[134.99820225716098,48.71074679202735],[134.99429968993314,48.711649569805274],[134.99320225716104,48.713669155308594],[134.99360352516635,48.71429808868544],[134.99550106102026,48.71297267635896],[134.99820225716098,48.71269123647181]]]}},{"type":"Feature","id":"hydrolakes:1346033","properties":{"Hylak_id":1346033,"Lake_name":"","Country":"Russia","Continent":"Europe","Poly_src":"SWBD","Lake_type":1,"Grand_id":0,"Lake_area":0.27,"Shore_len":2.24,"Shore_dev":1.22,"Vol_total":0.36,"Vol_res":0.0,"Vol_src":3,"Depth_avg":1.3,"Dis_avg":0.045,"Res_time":93.4,"Elevation":34,"Slope_100":0.31,"Wshd_area":2.6,"Pour_long":135.002083,"Pour_lat":48.377547,"source_id":"hydrolakes:1346033","label":""},"geometry":{"type":"Polygon","coordinates":[[[135.00762352414063,48.3810430159856],[135.00733045790378,48.378686923320686],[135.00660139508165,48.37810315595965],[135.00570980920185,48.37683470977913],[135.00477397813182,48.37656710452734],[135.0036111111158,48.37532225860713],[135.00290130191826,48.37544582089015],[135.0019522709361,48.37600368221831],[135.00037121349374,48.3763457503606],[135.00039330588896,48.37773233347713],[134.99985111342994,48.377664787903996],[134.9991914240564,48.378052700230455],[134.99848758697982,48.37981688751347],[134.99967496024703,48.38031724016105],[135.00074292607235,48.37968939185373],[135.00484225485508,48.3810314871227],[135.0066906929062,48.38135307457935],[135.00762352414063,48.3810430159856]]]}}]}