{"type":"FeatureCollection","features":[{"type":"Feature","id":"hydrolakes:15720","properties":{"Hylak_id":15720,"Lake_name":"","Country":"India","Continent":"Asia","Poly_src":"GRanD","Lake_type":2,"Grand_id":4992,"Lake_area":75.14,"Shore_len":142.84,"Shore_dev":4.65,"Vol_total":1068.0,"Vol_res":1068.0,"Vol_src":2,"Depth_avg":14.2,"Dis_avg":38.369,"Res_time":322.2,"Elevation":621,"Slope_100":1.65,"Wshd_area":2240.5,"Pour_long":75.093718,"Pour_lat":15.818478,"source_id":"hydrolakes:15720","label":""},"geometry":{"type":"Polygon","coordinates":[[[75.01122083089786,15.837952258760026],[75.01226330811261,15.8363885429373],[75.01265423706826,15.834433898159375],[75.01278454672041,15.831827705121611],[75.01486950115049,15.82974275069148],[75.01565135906156,15.827136557654228],[75.01747569418785,15.823748506705158],[75.01903941001041,15.82387881635708],[75.02112436444054,15.821272623319373],[75.02672767947126,15.825312222527714],[75.02816108564201,15.82726686730581],[75.02803077599009,15.821272623319373],[75.0284217049458,15.816451166199784],[75.02972480146462,15.814887450377228],[75.03076727867972,15.8117600187324],[75.03128851728718,15.808371967783444],[75.03050665937582,15.803029272056165],[75.03089758833147,15.801074627278183],[75.03311285241347,15.799901840411337],[75.03480687788783,15.800032150062862],[75.03702214197006,15.80237772379678],[75.03728276127373,15.804592987878777],[75.03650090336242,15.807720419523946],[75.03545842614739,15.809284135346616],[75.03676152266604,15.813584353858403],[75.03858585779244,15.816972404807359],[75.04014957361488,15.821272623319373],[75.04119205082992,15.82544253217958],[75.0434073149118,15.830394298950978],[75.0434073149118,15.832870182336762],[75.04444979212712,15.825312222527714],[75.04484072108278,15.813975282814056],[75.04575288864584,15.812672186295345],[75.04731660446839,15.812672186295345],[75.0492712492466,15.813454044206708],[75.05057434576531,15.814757140725646],[75.05357146775862,15.816320856547975],[75.05318053880279,15.807329490568293],[75.05409270636608,15.805635465093872],[75.05513518358123,15.804462678227026],[75.05539580288479,15.803289891359952],[75.05695951870757,15.802768652752377],[75.05748075731503,15.8047232975307],[75.06086880826376,15.806026394049411],[75.0645174785164,15.807850729175755],[75.06438716886481,15.809414444998254],[75.06738429085766,15.809023516042828],[75.06881769702875,15.8105872318651],[75.06894800668044,15.812411566991443],[75.0715541997181,15.813454044206708],[75.07624534718582,15.812672186295345],[75.07950308848245,15.812541876643422],[75.0827608297796,15.811238780124597],[75.08276082977983,15.812802495947153],[75.07741813405266,15.8157996179404],[75.07403008310371,15.817363333762955],[75.07116327076244,15.82205448123085],[75.0745513217114,15.821402932971466],[75.07559379892632,15.821402932971466],[75.07611503753401,15.824790983920423],[75.0745513217114,15.82609408043885],[75.07741813405266,15.826354699742637],[75.0826305201279,15.821402932971466],[75.08640950003246,15.820751384711912],[75.09084002819628,15.820360455756202],[75.09422807914501,15.820360455756202],[75.09748582044205,15.819578597845066],[75.10035263278343,15.816320856547975],[75.1106470952821,15.80915382569458],[75.11520793309779,15.805374845790254],[75.11142895319347,15.802898962404583],[75.11142895319347,15.801335246581743],[75.11403514623072,15.800423079018572],[75.11781412613527,15.801595865885531],[75.12068093847688,15.801856485189205],[75.11677164892035,15.79442883503225],[75.11846567439466,15.79025892617193],[75.12237496395107,15.79025892617193],[75.12641456315953,15.78960737791266],[75.12341744116623,15.787392113830663],[75.12302651221057,15.785046540096971],[75.12315682186221,15.782310037407399],[75.1245902280333,15.779573534717997],[75.12589332455184,15.777749199591597],[75.12876013689339,15.77592486446548],[75.13097540097533,15.775012696902309],[75.131236020279,15.77397021968693],[75.13306035540552,15.770712478389953],[75.13110571062708,15.769800310826838],[75.12941168515266,15.769800310826838],[75.12276589290718,15.772927742472177],[75.11898691300235,15.775273316205983],[75.11664133926831,15.775794554813274],[75.11429576553473,15.777097651332213],[75.10908337945926,15.780876631236652],[75.10634687676998,15.783222204970741],[75.10374068373227,15.781919108451689],[75.10321944512481,15.77996446367348],[75.1036103740804,15.778531057502846],[75.10282851616904,15.777879509243462],[75.1016557293022,15.77814012854725],[75.10009201347964,15.780876631236652],[75.0994404652206,15.78426468218538],[75.0994404652206,15.786870875223372],[75.09722520113837,15.7884345910457],[75.09357653088551,15.790389235823909],[75.09227343436703,15.790389235823909],[75.08979755098119,15.787913352438125],[75.08810352550688,15.785307159400759],[75.08784290620275,15.783743443577919],[75.08680042898783,15.782310037407399],[75.08484578420985,15.7843949918377],[75.08328206838706,15.787652733134337],[75.0805455656976,15.792213570950253],[75.07468163136315,15.795862241202883],[75.07051172250306,15.794819763987846],[75.06490840747233,15.792343880602346],[75.06295376269401,15.787913352438125],[75.0621719047827,15.782179727755477],[75.0645174785164,15.77592486446548],[75.06347500130147,15.774882387250102],[75.05813230557442,15.777358270635887],[75.05604735114429,15.777879509243462],[75.0561776607961,15.780485702281169],[75.0534411581067,15.785567778704433],[75.04914093959479,15.787652733134337],[75.04744691412026,15.789737687564525],[75.04640443690522,15.790649855127583],[75.04458010177888,15.789867997216561],[75.04366793421593,15.788304281393891],[75.04353762456384,15.785958707660143],[75.0440588631713,15.784916230444935],[75.0440588631713,15.783482824274415],[75.04366793421593,15.782961585666953],[75.04054050257054,15.78426468218538],[75.03467656823614,15.781267560192305],[75.03298254276172,15.778009818895384],[75.03180975589476,15.770191239782719],[75.03167944624306,15.766803188833762],[75.03272192345781,15.765630401966916],[75.03272192345781,15.761590802758462],[75.03115820763537,15.762112041366038],[75.0282913952941,15.76406668614419],[75.02607613121222,15.768236595004396],[75.02477303469306,15.769018452915873],[75.02086374513664,15.767845666048686],[75.01956064861798,15.769148762567568],[75.0215152933963,15.77097309769374],[75.02425179608599,15.777879509243462],[75.02425179608599,15.780485702281169],[75.02399117678198,15.782179727755477],[75.0234699381744,15.783482824274415],[75.02268808026304,15.784004062881706],[75.01943033896617,15.782831276014747],[75.01851817140295,15.782831276014747],[75.01682414592841,15.782310037407399],[75.02008188722544,15.789867997216561],[75.01734538453587,15.791692332342791],[75.01330578532765,15.793516667469191],[75.01604228801722,15.795471312247003],[75.01539073975789,15.799380601803534],[75.01278454672041,15.804202058923124],[75.00861463786015,15.808241658131521],[75.00639937377815,15.808632587087118],[75.00392349039248,15.808632587087118],[75.00262039387354,15.807850729175755],[74.99805955605774,15.804202058923124],[74.98711354529979,15.787652733134337],[74.9873741646037,15.785958707660143],[74.98711354529979,15.785046540096971],[74.98528921017368,15.785828398007993],[74.98359518469903,15.784655611141147],[74.97838279862418,15.782440347059037],[74.97981620479464,15.786089017311781],[74.98203146887641,15.788955829653503],[74.98190115922472,15.79130140338708],[74.97825248897209,15.79025892617193],[74.97356134150431,15.789867997216561],[74.96991267125173,15.787652733134337],[74.96587307204362,15.787261804178854],[74.95570891919675,15.77996446367348],[74.95401489372244,15.774882387250102],[74.95401489372244,15.772145884560587],[74.9504965331218,15.773709600383256],[74.9469781725212,15.774230838990718],[74.94124454783844,15.76719411778953],[74.94033238027515,15.761460493106483],[74.93824742584496,15.763154518581018],[74.93616247141495,15.764327305447978],[74.93264411081418,15.763024208929096],[74.92938636951743,15.759505848328388],[74.92691048613165,15.752208507823184],[74.92625893787209,15.749472005133612],[74.92326181587879,15.743998999754751],[74.92052531318933,15.742044354976656],[74.91961314562627,15.740741258457717],[74.91961314562627,15.740089710198333],[74.92104655179679,15.738916923331487],[74.91870097806299,15.738395684724026],[74.91791912015208,15.736180420641915],[74.91492199815877,15.736050110990107],[74.91726757189258,15.737874446116336],[74.91609478502573,15.7404806391541],[74.91661602363291,15.744650548014022],[74.91661602363291,15.747387050703708],[74.91348859198791,15.750384172696783],[74.9047578453119,15.751166030608033],[74.90189103297064,15.749472005133612],[74.90189103297064,15.74673550244421],[74.90045762679989,15.748168908614844],[74.89928483993305,15.750905411304359],[74.89654833724347,15.752729746430646],[74.8914662608201,15.754293462253202],[74.88781759056758,15.754032842949528],[74.88364768170754,15.75181757886753],[74.88221427553668,15.750514482348763],[74.88025963075859,15.751687269215722],[74.87765343772077,15.751035720956224],[74.87530786398713,15.751035720956224],[74.8733532192091,15.747777979659304],[74.87035609721562,15.748429527918574],[74.86918331034866,15.748429527918574],[74.86748928487424,15.746996121747827],[74.86605587870395,15.744780857666228],[74.8657952593997,15.743868690103056],[74.86305875671076,15.745693025229173],[74.85823729959094,15.743998999754751],[74.8573251320276,15.742304974280444],[74.85432801003441,15.742435283932025],[74.85159150734484,15.742044354976656],[74.84963686256685,15.741001877761391],[74.84820345639622,15.736571349597796],[74.84794283709243,15.741001877761391],[74.84846407570012,15.742435283932025],[74.85054903012991,15.743868690103056],[74.85002779152273,15.745953644533074],[74.84794283709243,15.745693025229173],[74.84624881161807,15.74491116731781],[74.84507602475117,15.742174664628351],[74.84468509579534,15.740610948805909],[74.84429416683997,15.745693025229173],[74.84273045101736,15.746474883140422],[74.84116673519458,15.745693025229173],[74.83621496842312,15.744129309406844],[74.83139351130376,15.74373838045085],[74.82930855687351,15.742826212887678],[74.82774484105101,15.741523116368853],[74.8251386480137,15.740220019850312],[74.82201121636814,15.733574227604208],[74.82044750054592,15.731880202129787],[74.82175059706458,15.728231531877327],[74.81705944959697,15.731098344218822],[74.8102833476994,15.730837724915148],[74.80898025118023,15.73018617665565],[74.80363755545335,15.72836184152925],[74.8022041492826,15.728101222225575],[74.80051012380818,15.726537506402906],[74.79985857554902,15.72419193266893],[74.7995979562449,15.721325120327663],[74.79907671763766,15.724061623017235],[74.7981645500746,15.726146577447253],[74.79660083425176,15.726276887099345],[74.79399464121417,15.725885958143465],[74.7893034937465,15.724713171276619],[74.78695792001281,15.723279765105758],[74.78539420419003,15.72288883615039],[74.78265770150057,15.72171604928343],[74.78161522428593,15.723019145802084],[74.78409110767132,15.72523440988408],[74.78969442270227,15.731098344218822],[74.79256123504365,15.731619582826113],[74.79620990529605,15.731098344218822],[74.8002495045044,15.731228653870403],[74.8028556975421,15.732140821433575],[74.80441941336483,15.733704537256301],[74.80598312918693,15.734747014471282],[74.80937118013611,15.734877324123147],[74.82148997776108,15.742565593584231],[74.82396586114646,15.742826212887678],[74.8253992673171,15.744259619058312],[74.8253992673171,15.745693025229173],[74.82461740940585,15.74673550244421],[74.82461740940585,15.749472005133612],[74.82292338393148,15.751556959563743],[74.82709329279152,15.748429527918574],[74.82917824722182,15.748559837570554],[74.83478156225249,15.750253863044975],[74.83803930354935,15.749081076178129],[74.83999394832784,15.75181757886753],[74.84246983171334,15.752599436778894],[74.84755190813684,15.752208507823184],[74.84755190813684,15.755726868423949],[74.85133088804128,15.750775101652664],[74.85393708107887,15.7497326244374],[74.85810698993896,15.750253863044975],[74.86357999531782,15.752469127126858],[74.86905300069697,15.758072442157868],[74.871007645475,15.756378416683106],[74.87387445781627,15.756378416683106],[74.87843529563219,15.757942132505718],[74.8862538747448,15.76185142206208],[74.88768728091577,15.764327305447978],[74.88364768170754,15.768757833611858],[74.8845598492706,15.770842788042103],[74.88742666161198,15.767324427441338],[74.89016316430133,15.767715356396934],[74.893942144206,15.765500092314824],[74.89589678898409,15.765369782663129],[74.89837267236982,15.764718234403631],[74.89941514958497,15.766542569529975],[74.90254258123014,15.762502970321634],[74.90788527695707,15.761069564151114],[74.9163554043293,15.760678635195234],[74.92104655179679,15.763545447536785],[74.92404367379038,15.76667287918184],[74.92560738961271,15.768888143263666],[74.92417398344196,15.773709600383256],[74.92208902901194,15.777358270635887],[74.92638924752418,15.77410052933925],[74.92912575021387,15.773188361775965],[74.93303503977,15.773188361775965],[74.9368140196745,15.77436114864264],[74.93863835480062,15.777488580287866],[74.9375958775857,15.781658489148015],[74.93915959340808,15.784525301489168],[74.94332950226845,15.786740565571279],[74.94554476635011,15.787001184874953],[74.94815095938793,15.786479946267491],[74.95010560416603,15.787913352438125],[74.95036622346981,15.790128616520235],[74.94958436555856,15.792604499905906],[74.94776003043222,15.794298525380327],[74.94567507600203,15.797556266677304],[74.94489321809107,15.79925029215184],[74.94385074087569,15.804202058923124],[74.94684786286905,15.800814007974452],[74.95127839103287,15.798338124588668],[74.95453613233002,15.798468434240363],[74.95662108676004,15.796774408765941],[74.95805449293067,15.79442883503225],[74.95987882805701,15.794298525380327],[74.96378811761343,15.795601621899209],[74.96626400099933,15.799641221107208],[74.97043390985942,15.799380601803534],[74.97264917394125,15.802117104493107],[74.97512505732692,15.803159581708144],[74.97760094071282,15.802117104493107],[74.97916465653515,15.80172617553751],[74.98177084957285,15.803159581708144],[74.98437704261045,15.805505155442063],[74.9873741646037,15.80759010987208],[74.98998035764129,15.810326612561312],[74.98932880938179,15.816711785503571],[74.98763478390725,15.81944828819303],[74.98698323564821,15.822184790882545],[74.98698323564821,15.824660674268216],[74.98724385495171,15.826354699742637],[74.99050159624875,15.826354699742637],[74.99297747963465,15.824139435660868],[74.9962352209314,15.821924171578644],[75.00235977456981,15.82361819705335],[75.00574782551871,15.825181912875678],[75.00692061238561,15.82830934452096],[75.00574782551871,15.833652040248012],[75.0056175158669,15.837561329804373],[75.00835401855647,15.837040091196684],[75.01122083089786,15.837952258760026]]]}},{"type":"Feature","id":"hydrolakes:1394126","properties":{"Hylak_id":1394126,"Lake_name":"","Country":"India","Continent":"Asia","Poly_src":"SWBD","Lake_type":1,"Grand_id":0,"Lake_area":0.36,"Shore_len":4.09,"Shore_dev":1.92,"Vol_total":0.92,"Vol_res":0.0,"Vol_src":3,"Depth_avg":2.5,"Dis_avg":0.084,"Res_time":126.4,"Elevation":510,"Slope_100":1.06,"Wshd_area":23.3,"Pour_long":74.997958,"Pour_lat":18.089498,"source_id":"hydrolakes:1394126","label":""},"geometry":{"type":"Polygon","coordinates":[[[74.99640950520813,18.091270345051953],[74.9977297634548,18.09084364149288],[74.99807888454842,18.092380371093668],[74.99945475260415,18.09167697482627],[74.99971191406269,18.090823025173393],[75.00001030815974,18.090565863715142],[75.00026746961788,18.08771118164043],[74.9990277777776,18.08624999999978],[74.99800184461793,18.086384277343598],[74.99654188368055,18.088079020182136],[74.99417697482636,18.087327202690858],[74.99526746961806,18.089899088541472],[74.99065538194435,18.090369601779344],[74.98952704535566,18.092170817057138],[74.99048095703114,18.092489691840115],[74.99110080295128,18.091100802951246],[74.99228868272559,18.09084364149288],[74.99279242621526,18.091428222656134],[74.99556586371523,18.09193413628452],[74.99612114800351,18.093178304036314],[74.99677897135399,18.093600802951187],[74.99632215711796,18.092357042100673],[74.99640950520813,18.091270345051953]]]}},{"type":"Feature","id":"hydrolakes:1395035","properties":{"Hylak_id":1395035,"Lake_name":"","Country":"India","Continent":"Asia","Poly_src":"SWBD","Lake_type":1,"Grand_id":0,"Lake_area":0.55,"Shore_len":3.98,"Shore_dev":1.51,"Vol_total":1.72,"Vol_res":0.0,"Vol_src":3,"Depth_avg":3.1,"Dis_avg":0.462,"Res_time":43.0,"Elevation":635,"Slope_100":1.41,"Wshd_area":81.2,"Pour_long":74.998958,"Pour_lat":17.157187,"source_id":"hydrolakes:1395035","label":""},"geometry":{"type":"Polygon","coordinates":[[[75.00022867838538,17.157908799912946],[75.00033501519101,17.156122775607344],[74.99669949001736,17.155906032985854],[74.99517415364568,17.156735026041417],[74.9911027018228,17.15675835503447],[74.989861111111,17.155138888888757],[74.98838392469622,17.15529269748248],[74.98556342230904,17.156163736978954],[74.98615356445299,17.156722005208053],[74.9888205295137,17.156563042534515],[74.98917453342,17.15721435546851],[74.98944322374115,17.15865451388862],[74.99263753255207,17.161936577690767],[74.99433756510416,17.161646592881652],[74.99481038411454,17.16061631944433],[74.99723361545131,17.16000705295113],[75.00022867838538,17.157908799912946]]]}}]}