{"type":"FeatureCollection","features":[{"type":"Feature","id":"hydrolakes:1385221","properties":{"Hylak_id":1385221,"Lake_name":"","Country":"India","Continent":"Asia","Poly_src":"SWBD","Lake_type":1,"Grand_id":0,"Lake_area":0.19,"Shore_len":1.75,"Shore_dev":1.13,"Vol_total":0.39,"Vol_res":0.0,"Vol_src":3,"Depth_avg":2.0,"Dis_avg":0.023,"Res_time":196.2,"Elevation":421,"Slope_100":0.81,"Wshd_area":5.8,"Pour_long":75.00112,"Pour_lat":25.046619,"source_id":"hydrolakes:1385221","label":""},"geometry":{"type":"Polygon","coordinates":[[[75.00239691840358,25.04456651475732],[75.00208333333404,25.04375000000033],[74.99969672309106,25.04404839409756],[74.9984483506953,25.045824110243416],[74.99723741319553,25.046793619792084],[74.99748806423702,25.048089735243366],[74.99929361979252,25.04915147569494],[75.00050672743129,25.04885145399345],[75.00081814236205,25.04776258680596],[75.00220486111198,25.046112738715692],[75.00239691840358,25.04456651475732]]]}}]}