{"type":"FeatureCollection","features":[{"type":"Feature","id":"hydrolakes:175682","properties":{"Hylak_id":175682,"Lake_name":"","Country":"India","Continent":"Asia","Poly_src":"SWBD","Lake_type":1,"Grand_id":0,"Lake_area":1.03,"Shore_len":6.49,"Shore_dev":1.8,"Vol_total":1.58,"Vol_res":0.0,"Vol_src":3,"Depth_avg":1.5,"Dis_avg":0.061,"Res_time":299.5,"Elevation":202,"Slope_100":0.81,"Wshd_area":65.1,"Pour_long":74.987939,"Pour_lat":31.125695,"source_id":"hydrolakes:175682","label":""},"geometry":{"type":"Polygon","coordinates":[[[74.98094563802096,31.131383734809162],[74.98463053385427,31.128206108941015],[74.98724555121555,31.126937391493016],[74.98878146701418,31.125726182725657],[74.98959472656281,31.124486219618007],[74.9923871527779,31.12389160156249],[74.99445529513923,31.124730631510374],[74.99583604600713,31.124736328124982],[74.99850097656264,31.122066786024334],[74.99975748697938,31.121658799913234],[75.00201388888934,31.121645507812502],[75.00390842013917,31.119708930121476],[75.00389811197942,31.118023003472217],[75.00041666666698,31.11624999999998],[74.99832519531287,31.116658257378447],[74.99664930555576,31.118063693576346],[74.99610839843768,31.118052571614612],[74.99413953993093,31.118851182725848],[74.99221950954876,31.119163953993223],[74.98993815104183,31.120036078559167],[74.98833604600725,31.12194715711803],[74.98721950954894,31.12277506510418],[74.98578179253502,31.12483723958337],[74.98444173177103,31.12583062065977],[74.98359700520854,31.126952582465265],[74.98360731336817,31.128105197482682],[74.98069715711836,31.13058403862857],[74.97859700520883,31.130558810763944],[74.97861490885441,31.13143120659737],[74.98094563802096,31.131383734809162]]]}}]}