{"type":"FeatureCollection","features":[{"type":"Feature","id":"hydrolakes:13804","properties":{"Hylak_id":13804,"Lake_name":"","Country":"Kazakhstan","Continent":"Asia","Poly_src":"SWBD","Lake_type":1,"Grand_id":0,"Lake_area":11.5,"Shore_len":14.5,"Shore_dev":1.21,"Vol_total":33.48,"Vol_res":0.0,"Vol_src":3,"Depth_avg":2.9,"Dis_avg":0.193,"Res_time":2007.6,"Elevation":629,"Slope_100":1.19,"Wshd_area":445.0,"Pour_long":74.970067,"Pour_lat":49.803016,"source_id":"hydrolakes:13804","label":""},"geometry":{"type":"Polygon","coordinates":[[[75.00972493489633,49.83194722493516],[75.01111382378508,49.8300027804907],[75.01271701388913,49.826766238742664],[75.01444390191,49.824461449517344],[75.01482204861128,49.82290895250128],[75.0180457899308,49.81589306301561],[75.01807617187518,49.81440839979405],[75.01559299045175,49.8123541259767],[75.01519259982672,49.81079301622208],[75.01582953559057,49.808932444254765],[75.01588433159742,49.806249321831785],[75.01555284288219,49.8052802361384],[75.01556966145853,49.804447564019426],[75.01444173177106,49.80444732666041],[75.01154188368076,49.802864430745615],[75.01110622829884,49.80107732137077],[75.0097580295141,49.79838111029744],[75.00701660156278,49.797934858534404],[75.006549479167,49.7969725036624],[75.0049972873266,49.79666944715734],[75.00404405381971,49.79617833455427],[75.00192871093782,49.79583401150188],[75.00112630208349,49.79499898274747],[74.99402777777811,49.79375000000016],[74.98969346788238,49.79391976250565],[74.98506239149333,49.79496158176022],[74.98249728732657,49.79527499728755],[74.9811083984377,49.795830552843086],[74.97889160156268,49.79722500271282],[74.97777506510437,49.797497219509694],[74.97558268229187,49.798577423095935],[74.97502332899342,49.79915954589865],[74.97009928385438,49.80182035658123],[74.96861382378489,49.80389166937948],[74.96729112413232,49.80432089911585],[74.96494628906282,49.80784550984731],[74.96361382378507,49.81052564832913],[74.96396918402792,49.81274407280836],[74.96678765191007,49.81601186116552],[74.96750759548632,49.81778725518137],[74.96684570312522,49.819072519938345],[74.96726671006962,49.82071480645095],[74.96666937934043,49.82245920817081],[74.9669585503475,49.823684658474576],[74.97028049045173,49.82638610839865],[74.97073133680573,49.82777499728758],[74.97214789496559,49.82736399332697],[74.97432562934057,49.82480751885333],[74.97594780816007,49.8237079874678],[74.97755371093785,49.8228805541994],[74.98103895399333,49.822435048421426],[74.9886501736114,49.824451853434425],[74.99189236111147,49.82610521104618],[74.99744737413232,49.826420338948765],[74.9985796440975,49.82583680894663],[74.99962836371543,49.825815412733505],[74.99834852430598,49.827925601535696],[75.00167263454881,49.82846669514993],[75.00164713541699,49.82970794677743],[75.00332139756972,49.83053732977993],[75.00436089409754,49.83161944919186],[75.005039605035,49.83196914672868],[75.0066118706601,49.831937052409046],[75.00935601128504,49.832663591173116],[75.00972493489633,49.83194722493516]]]}},{"type":"Feature","id":"hydrolakes:169314","properties":{"Hylak_id":169314,"Lake_name":"","Country":"Kazakhstan","Continent":"Asia","Poly_src":"SWBD","Lake_type":1,"Grand_id":0,"Lake_area":2.14,"Shore_len":6.56,"Shore_dev":1.26,"Vol_total":5.86,"Vol_res":0.0,"Vol_src":3,"Depth_avg":2.7,"Dis_avg":0.003,"Res_time":22623.3,"Elevation":338,"Slope_100":1.24,"Wshd_area":3.2,"Pour_long":75.006296,"Pour_lat":46.773071,"source_id":"hydrolakes:169314","label":""},"geometry":{"type":"Polygon","coordinates":[[[75.0002381727432,46.788598090277674],[75.00138617621548,46.78666395399296],[75.00333604600723,46.78528049045133],[75.0037999131946,46.782904188368036],[75.00544270833353,46.78068847656249],[75.00833604600717,46.778891601562464],[75.01009711371552,46.77741319444442],[75.01278808593764,46.77564887152778],[75.01278537326425,46.77448974609371],[75.01243381076426,46.77304850260418],[75.01194173177112,46.773058539496446],[75.00930555555573,46.770972222222156],[75.00506184895875,46.77112603081588],[75.0002652994794,46.77473741319437],[74.99805826822956,46.77555826822913],[74.99638617621565,46.77583062065969],[74.99309678819475,46.77733452690967],[74.98389160156285,46.778067491319405],[74.98419704861146,46.77961561414929],[74.98645887586821,46.78129204644097],[74.98814778645857,46.78427191840268],[74.98938259548635,46.785519748263994],[74.99241482204889,46.78772786458319],[74.99938313802107,46.78770806206592],[75.0002381727432,46.788598090277674]]]}},{"type":"Feature","id":"hydrolakes:1358956","properties":{"Hylak_id":1358956,"Lake_name":"","Country":"Kazakhstan","Continent":"Asia","Poly_src":"SWBD","Lake_type":1,"Grand_id":0,"Lake_area":0.34,"Shore_len":3.3,"Shore_dev":1.6,"Vol_total":0.36,"Vol_res":0.0,"Vol_src":3,"Depth_avg":1.1,"Dis_avg":0.003,"Res_time":1396.7,"Elevation":356,"Slope_100":0.18,"Wshd_area":6.0,"Pour_long":74.996685,"Pour_lat":45.326716,"source_id":"hydrolakes:1358956","label":""},"geometry":{"type":"Polygon","coordinates":[[[75.00077094184047,45.320145941840224],[75.0009722222224,45.31847222222217],[75.00026746961822,45.31860080295132],[75.00001030816009,45.31917697482635],[74.99894856770851,45.319496527777574],[74.99759385850717,45.321069335937466],[74.9958756510419,45.322145182291536],[74.99528049045153,45.32376681857619],[74.99501030815992,45.326121419270635],[74.99444227430575,45.3271392144095],[74.99416883680573,45.3295274522568],[74.99334364149342,45.33100585937484],[74.99410047743095,45.33156249999979],[74.99891438802115,45.32573296440961],[74.99998969184043,45.32332302517341],[75.00079210069475,45.32263183593727],[75.00112413194466,45.32110839843733],[75.00077094184047,45.320145941840224]]]}}]}