{"type":"FeatureCollection","features":[{"type":"Feature","id":"hydrolakes:178944","properties":{"Hylak_id":178944,"Lake_name":"","Country":"India","Continent":"Asia","Poly_src":"SWBD","Lake_type":1,"Grand_id":0,"Lake_area":2.85,"Shore_len":13.2,"Shore_dev":2.2,"Vol_total":3.88,"Vol_res":0.0,"Vol_src":3,"Depth_avg":1.4,"Dis_avg":3.059,"Res_time":14.7,"Elevation":524,"Slope_100":0.49,"Wshd_area":2364.1,"Pour_long":76.189207,"Pour_lat":14.997917,"source_id":"hydrolakes:178944","label":""},"geometry":{"type":"Polygon","coordinates":[[[76.19003363715245,14.999417525397917],[76.19091444227394,14.997602029377049],[76.19047444661425,14.99545335239884],[76.18858127170103,14.995002777311981],[76.18703952365433,14.995796980328635],[76.1843849012584,14.995116666158538],[76.18357069227409,14.99469722218032],[76.18163614908849,14.99301808357285],[76.18093234591976,14.991567592621209],[76.17998643663162,14.991108653810784],[76.179437255859,14.989976818297123],[76.17832505967863,14.98859143892986],[76.17720391167518,14.988614318636223],[76.17474473741282,14.987502777311988],[76.17333604600674,14.988767849604812],[76.17418497721337,14.990020215776724],[76.1714476182724,14.989964351654692],[76.1694264051647,14.988594217300829],[76.16777506510385,14.988058332867524],[76.16697089301215,14.987221342723103],[76.1635611979163,14.986947222816184],[76.1630582682289,14.98754079500884],[76.16386759440076,14.98990494622177],[76.16329250759514,14.991386111577867],[76.16134046766462,14.990717930264566],[76.16059299045111,14.988414551417463],[76.16041666666632,14.983194444445019],[76.15971950954838,14.983330554962663],[76.15943074544242,14.98363110648313],[76.15945054795992,14.98988391240482],[76.16053466796842,14.991483310064211],[76.16234130859357,14.99206953260682],[76.16491916232621,14.9916298166915],[76.16694173177063,14.989997222688885],[76.16760213216111,14.989724999534246],[76.16944173177058,14.992370709313775],[76.16666693793377,14.99389321433216],[76.16583333333313,14.993463804457406],[76.16500271267336,14.99389166620091],[76.1636082628035,14.994163910548309],[76.16361558702238,14.994524455600754],[76.16556884765623,14.996130679978762],[76.16862494574627,14.996125566694957],[76.16858588324618,14.998044393327973],[76.16904785156225,14.99833055549243],[76.17208889431402,14.99657911194754],[76.17391425238685,14.996952980359879],[76.17388563368041,14.99835277769347],[76.17305826822889,14.999458559884545],[76.17390218098927,14.999441337585893],[76.17501898871507,15.000274999936892],[76.17634358723933,14.998896320661345],[76.17751898871506,14.998613888952946],[76.18020874023404,15.001345407168628],[76.17970323350676,15.002822203371693],[76.17973564995634,15.004411216544213],[76.18197428385378,15.004719444447574],[76.18408650716111,15.003631327152675],[76.18694715711786,15.002780555619552],[76.18840888129307,15.001894182364595],[76.18932223849822,15.00094353728872],[76.18971950954835,14.999719444381299],[76.19003363715245,14.999417525397917]]]}}]}