{"type":"FeatureCollection","features":[{"type":"Feature","id":"hydrolakes:178246","properties":{"Hylak_id":178246,"Lake_name":"","Country":"India","Continent":"Asia","Poly_src":"SWBD","Lake_type":2,"Grand_id":4935,"Lake_area":1.88,"Shore_len":5.98,"Shore_dev":1.23,"Vol_total":21.8,"Vol_res":21.8,"Vol_src":2,"Depth_avg":11.6,"Dis_avg":1.421,"Res_time":177.6,"Elevation":137,"Slope_100":1.94,"Wshd_area":67.2,"Pour_long":85.019381,"Pour_lat":19.963856,"source_id":"hydrolakes:178246","label":""},"geometry":{"type":"Polygon","coordinates":[[[85.03162630081215,19.956443723042412],[85.03320859273305,19.954583696788916],[85.03226246515942,19.95336282306215],[85.03086169136924,19.95401996506547],[85.02915711720823,19.95211219787558],[85.02838880750897,19.95056313090805],[85.02611111111133,19.949166666666258],[85.02509747505223,19.949302236768517],[85.02451441446959,19.94995480219484],[85.02461244053347,19.951599465475795],[85.02394683308114,19.95207552062101],[85.02287412855384,19.95149260414928],[85.02166847229023,19.95284198231127],[85.0222145854105,19.954363988240175],[85.02176473511645,19.95519181887272],[85.02028274324226,19.955872003766842],[85.01957631111179,19.955081360074985],[85.01828524271667,19.955158310995785],[85.0179244793789,19.95709114604489],[85.01729268391966,19.958851947254345],[85.01726731300391,19.96268483824167],[85.01774045096528,19.96400346702967],[85.01943918122214,19.965521267387203],[85.02384966956271,19.966509790039424],[85.0250258212622,19.96587065974836],[85.02804148356154,19.962908693154304],[85.02987166934582,19.959926254484003],[85.0304088550148,19.958186631732133],[85.03162630081215,19.956443723042412]]]}},{"type":"Feature","id":"hydrolakes:178264","properties":{"Hylak_id":178264,"Lake_name":"","Country":"India","Continent":"Asia","Poly_src":"SWBD","Lake_type":1,"Grand_id":0,"Lake_area":1.08,"Shore_len":10.34,"Shore_dev":2.8,"Vol_total":0.54,"Vol_res":0.0,"Vol_src":3,"Depth_avg":0.5,"Dis_avg":0.249,"Res_time":25.2,"Elevation":5,"Slope_100":0.21,"Wshd_area":10.3,"Pour_long":85.656364,"Pour_lat":19.854906,"source_id":"hydrolakes:178264","label":""},"geometry":{"type":"Polygon","coordinates":[[[85.65818067762615,19.84845361497628],[85.65820285373292,19.84736661275184],[85.65715725368966,19.845543543497342],[85.65429348415842,19.84447945488796],[85.65430847167994,19.843747363620082],[85.65208611382405,19.8401361083981],[85.64658691406277,19.83867143419019],[85.64571343315998,19.83958055284262],[85.64513610839873,19.839308336045576],[85.64378417968777,19.837901238335064],[85.64212843153257,19.83846798366943],[85.64138888888931,19.83722222222184],[85.6404194471574,19.837536807589686],[85.64092264811245,19.839271028306428],[85.64263502332932,19.840309448241783],[85.64479424370688,19.84116110907621],[85.64569722493547,19.842913886175836],[85.64604851616787,19.844354951646267],[85.64757853190139,19.84509722391732],[85.64865573459247,19.84613216823965],[85.6495861138244,19.847358330620352],[85.64993509928433,19.849858330620293],[85.65219509548643,19.848382509019302],[85.65550001356365,19.850007442897834],[85.65698886447535,19.852986611259894],[85.65600036621123,19.854015502929315],[85.65403055826852,19.855184826320738],[85.65549248589457,19.855862384371903],[85.65955396864194,19.854736285739136],[85.65998379177546,19.852216661240902],[85.6587929958772,19.85097730000774],[85.65681193033885,19.850590557522025],[85.65680040147606,19.850024642944106],[85.65847717285186,19.849029252793684],[85.65818067762615,19.84845361497628]],[[85.64625779893692,19.840335718790243],[85.64694444444473,19.83972222222178],[85.65007853190156,19.842537180582326],[85.65169365776939,19.844762658012826],[85.65567525227897,19.84727724711064],[85.655057915582,19.848186628553208],[85.65251736111139,19.846911468505425],[85.64940572102904,19.84448315938272],[85.64625779893692,19.840335718790243]]]}},{"type":"Feature","id":"hydrolakes:178265","properties":{"Hylak_id":178265,"Lake_name":"","Country":"India","Continent":"Asia","Poly_src":"SWBD","Lake_type":1,"Grand_id":0,"Lake_area":1.26,"Shore_len":6.39,"Shore_dev":1.6,"Vol_total":0.77,"Vol_res":0.0,"Vol_src":3,"Depth_avg":0.6,"Dis_avg":0.106,"Res_time":84.0,"Elevation":4,"Slope_100":0.25,"Wshd_area":4.4,"Pour_long":85.584375,"Pour_lat":19.852676,"source_id":"hydrolakes:178265","label":""},"geometry":{"type":"Polygon","coordinates":[[[85.59651746961845,19.860427000257346],[85.59619967990483,19.85937163458908],[85.59485080295173,19.85764922247955],[85.59459364149359,19.85679522196415],[85.59397087944922,19.855982555812943],[85.59272304958807,19.857974819606852],[85.59197828504819,19.858461888630814],[85.58993943956187,19.857440889146176],[85.58848470052118,19.85630156622949],[85.5893479410812,19.85395083109495],[85.5909825303824,19.852927000257353],[85.59138658311662,19.852021526760154],[85.5909294976131,19.851202265421136],[85.58869188096816,19.85069391038644],[85.58833333333365,19.850277777777364],[85.58583624945788,19.850962515936544],[85.58280680338578,19.851424153645553],[85.58091003418008,19.850365863375828],[85.5799544949005,19.850442640516064],[85.58075785319039,19.853377939859627],[85.58064615885468,19.854767998589068],[85.58134406195774,19.85688485039583],[85.58126695421049,19.858544531927805],[85.58206102159312,19.859228642781204],[85.58395046658029,19.859797524345822],[85.58517144097249,19.859116304185306],[85.58735080295185,19.860982555812882],[85.58841484917565,19.86123966640855],[85.5907875569664,19.860368347167594],[85.59179368760897,19.860449193318345],[85.59343661838147,19.86173586527474],[85.59476196289091,19.8634490034313],[85.59648817274342,19.8628150770395],[85.59696539984833,19.861229917737774],[85.59651746961845,19.860427000257346]]]}},{"type":"Feature","id":"hydrolakes:178270","properties":{"Hylak_id":178270,"Lake_name":"","Country":"India","Continent":"Asia","Poly_src":"SWBD","Lake_type":1,"Grand_id":0,"Lake_area":1.14,"Shore_len":5.88,"Shore_dev":1.55,"Vol_total":0.61,"Vol_res":0.0,"Vol_src":3,"Depth_avg":0.5,"Dis_avg":0.472,"Res_time":14.9,"Elevation":3,"Slope_100":0.23,"Wshd_area":19.8,"Pour_long":85.574618,"Pour_lat":19.84699,"source_id":"hydrolakes:178270","label":""},"geometry":{"type":"Polygon","coordinates":[[[85.58515428331202,19.84987647162501],[85.58655219184072,19.848701205783073],[85.58780354817742,19.848856862385674],[85.58907701280413,19.8469146728512],[85.59014268663219,19.846505050658777],[85.59190070258308,19.8476235283743],[85.5928178575308,19.846984761555632],[85.59151238335534,19.845432027180607],[85.59121670193178,19.8440652804901],[85.58984571668873,19.843487582736145],[85.5879444037547,19.84209869384739],[85.5862076822919,19.843255920409717],[85.58345682779986,19.843734639485376],[85.5822859700524,19.844184705945906],[85.57929016113309,19.843487582736145],[85.57795199924101,19.84241733127135],[85.57641059027804,19.842462064954645],[85.57583333333378,19.84194444444421],[85.57502278645865,19.842176191541455],[85.57382059733123,19.843821919758796],[85.57432379828589,19.845131039089267],[85.57406599256757,19.84720380994969],[85.5753332519534,19.849290195040794],[85.57762349446665,19.848822538587342],[85.57734578450544,19.848099178737698],[85.57654317220113,19.84745641920273],[85.57692755805158,19.845987582736313],[85.57888949924086,19.848922093708893],[85.580005628798,19.849578179253115],[85.58393683539526,19.850389472113363],[85.58515428331202,19.84987647162501]]]}},{"type":"Feature","id":"hydrolakes:178278","properties":{"Hylak_id":178278,"Lake_name":"","Country":"India","Continent":"Asia","Poly_src":"SWBD","Lake_type":2,"Grand_id":4936,"Lake_area":7.19,"Shore_len":23.68,"Shore_dev":2.49,"Vol_total":59.7,"Vol_res":59.7,"Vol_src":2,"Depth_avg":8.3,"Dis_avg":5.43,"Res_time":127.3,"Elevation":58,"Slope_100":1.53,"Wshd_area":258.2,"Pour_long":85.076465,"Pour_lat":19.801626,"source_id":"hydrolakes:178278","label":""},"geometry":{"type":"Polygon","coordinates":[[[85.06815292358425,19.833798878987295],[85.06899787479,19.83291944715677],[85.07094231923446,19.833747219509235],[85.0713400438101,19.83304262797003],[85.06991388956749,19.83049994574617],[85.0690305540299,19.829580552842458],[85.06807015736922,19.829268900553018],[85.06569722069656,19.825719172159438],[85.06596944597072,19.823747219509187],[85.06680277930388,19.82169275919574],[85.06652374267622,19.819812435573738],[85.06378611246765,19.81449820624414],[85.06319722069662,19.811045701768307],[85.06348774804036,19.81007495456231],[85.0662138875328,19.80745571560294],[85.06725092570025,19.80431064181812],[85.06791054195867,19.804297180175354],[85.07056884765672,19.80596944173135],[85.07151165008571,19.805594177245666],[85.07270329793312,19.803776618109396],[85.07678735945001,19.803206481933216],[85.07790719774061,19.802130550807988],[85.07793049706373,19.80098893907291],[85.0752699534101,19.79875551011793],[85.06937936994785,19.79996312459275],[85.06514166514108,19.79346944173136],[85.06325327979232,19.791279924180344],[85.06236388736323,19.78902499728696],[85.0616666666669,19.788055555555218],[85.05197207556859,19.793053944905182],[85.05042073991586,19.793557366264793],[85.04683586120643,19.795589820013674],[85.04625277625217,19.7978649732799],[85.04652500152622,19.800141669379116],[85.04791955312118,19.801802910698484],[85.04819809807714,19.80347371419242],[85.04737308926082,19.80469080607054],[85.04732473161528,19.80706037733256],[85.04965463002549,19.807928771972342],[85.05069733089891,19.809302927652595],[85.05066457112673,19.81090820312471],[85.05144685957197,19.812836812336798],[85.05015051523878,19.8154182094994],[85.04791050381164,19.815730912949903],[85.0470564142866,19.81742509629953],[85.04514166514127,19.819264763725755],[85.04619656456873,19.820413886175857],[85.04691556718672,19.820093943277584],[85.04872147878035,19.817657792832733],[85.05043526967404,19.81679175482816],[85.05189216613803,19.816821492512645],[85.05374722374847,19.815413886175804],[85.05486573961082,19.81505093044666],[85.05645997789225,19.812365332709078],[85.05734972212088,19.812347174750073],[85.05896441141789,19.816064893934026],[85.05686590406668,19.817826521131337],[85.05375277625228,19.81852259317992],[85.05430833180787,19.819302775064727],[85.0546337000531,19.820969441731336],[85.05629179212809,19.819917602538737],[85.05716750674804,19.820758972167596],[85.05640197330092,19.82299553765148],[85.05760855356891,19.824835891723296],[85.06011759440133,19.826500015258432],[85.06109776390946,19.82811632792118],[85.06059728834407,19.829578518337428],[85.0623411178592,19.829569566514408],[85.06454316457138,19.83168526543477],[85.06488902621828,19.834868613348817],[85.06652500152632,19.83736389160123],[85.06862291971862,19.839748704697968],[85.06907814449761,19.842080552842447],[85.06977937062601,19.84170476277626],[85.07030029296897,19.840631027221264],[85.07208055708173,19.840053329467423],[85.07176182640956,19.839499782985683],[85.06820747799384,19.83647200690342],[85.06815292358425,19.833798878987295]],[[85.05027534908754,19.80255956013957],[85.05069847954678,19.8020501708981],[85.05097222222264,19.802681359184874],[85.0520508066815,19.802571428086537],[85.05278839959078,19.803459370930568],[85.05308968861937,19.802921159532104],[85.05257440778979,19.80107816908054],[85.05309633043112,19.80044984605553],[85.05444444444481,19.799722222221988],[85.05552905188699,19.800465223523872],[85.05661206139496,19.80218385484443],[85.05623509301125,19.803187086316996],[85.05631047566771,19.803926662868548],[85.05577567206518,19.804570482041697],[85.05448359171572,19.80395044962529],[85.0537194018898,19.80458523220443],[85.05483217027478,19.805271606444876],[85.05490227169486,19.805959370930623],[85.05156419542135,19.805589701334327],[85.0502827919857,19.804799313015053],[85.04972577412957,19.803826751708755],[85.05027534908754,19.80255956013957]]]}},{"type":"Feature","id":"hydrolakes:178308","properties":{"Hylak_id":178308,"Lake_name":"","Country":"India","Continent":"Asia","Poly_src":"SWBD","Lake_type":1,"Grand_id":0,"Lake_area":1.86,"Shore_len":7.42,"Shore_dev":1.53,"Vol_total":2.84,"Vol_res":0.0,"Vol_src":3,"Depth_avg":1.5,"Dis_avg":0.116,"Res_time":283.5,"Elevation":2,"Slope_100":0.65,"Wshd_area":6.1,"Pour_long":85.243747,"Pour_lat":19.589618,"source_id":"hydrolakes:178308","label":""},"geometry":{"type":"Polygon","coordinates":[[[85.25019760131858,19.59207051595007],[85.25264670477992,19.589313354491765],[85.25426264445025,19.586422085231845],[85.25486892700235,19.584591132269566],[85.25513107299844,19.58162933349564],[85.2523196919762,19.581253323024782],[85.2519444444448,19.580833333332976],[85.25111197577621,19.580988701714034],[85.2494935438371,19.583581746418815],[85.24722958034977,19.584452107747154],[85.24555562337287,19.586985270181856],[85.24390245225726,19.587908867729595],[85.24194883558528,19.586847229003467],[85.23882956610811,19.585707465277267],[85.2372479926218,19.584481811523062],[85.2348689270022,19.585630052354247],[85.23709114922451,19.586242201062987],[85.23801922268376,19.586890462239126],[85.23790802001997,19.5887562730573],[85.23823293050168,19.589354214138154],[85.23815165201853,19.59071794297921],[85.23910871717703,19.59151997884078],[85.24016008165188,19.590948655869852],[85.24087412516297,19.590991210937148],[85.24239898681674,19.592697821722652],[85.24227215237119,19.59482598198747],[85.24296947903144,19.595449049207446],[85.24257246229428,19.59768310546832],[85.24402752346492,19.598983154296548],[85.24709114922456,19.598202243380683],[85.24976026746987,19.597175360785172],[85.25114922417566,19.596098971896254],[85.250127258301,19.59325076632996],[85.25019760131858,19.59207051595007]]]}},{"type":"Feature","id":"hydrolakes:1392423","properties":{"Hylak_id":1392423,"Lake_name":"","Country":"India","Continent":"Asia","Poly_src":"SWBD","Lake_type":1,"Grand_id":0,"Lake_area":0.16,"Shore_len":1.82,"Shore_dev":1.27,"Vol_total":0.12,"Vol_res":0.0,"Vol_src":3,"Depth_avg":0.7,"Dis_avg":0.033,"Res_time":41.8,"Elevation":4,"Slope_100":0.1,"Wshd_area":1.4,"Pour_long":85.496228,"Pour_lat":19.899653,"source_id":"hydrolakes:1392423","label":""},"geometry":{"type":"Polygon","coordinates":[[[85.49620635986366,19.900774777729907],[85.49673567030209,19.89933341979946],[85.49385335286485,19.89937536875368],[85.49305555555583,19.89861111111071],[85.49235076904336,19.8990174484249],[85.48987145317955,19.90138427310484],[85.49060326470305,19.902612737019524],[85.49620635986366,19.900774777729907]]]}},{"type":"Feature","id":"hydrolakes:1392455","properties":{"Hylak_id":1392455,"Lake_name":"","Country":"India","Continent":"Asia","Poly_src":"SWBD","Lake_type":1,"Grand_id":0,"Lake_area":0.21,"Shore_len":1.75,"Shore_dev":1.09,"Vol_total":0.29,"Vol_res":0.0,"Vol_src":3,"Depth_avg":1.4,"Dis_avg":0.019,"Res_time":175.1,"Elevation":3,"Slope_100":0.36,"Wshd_area":0.8,"Pour_long":85.596683,"Pour_lat":19.866166,"source_id":"hydrolakes:1392455","label":""},"geometry":{"type":"Polygon","coordinates":[[[85.59827114529116,19.867777023315057],[85.59722222222263,19.865555555555204],[85.59562255859419,19.86569209628601],[85.59486891004798,19.866535593668345],[85.59366916232682,19.8672986094154],[85.59264668782578,19.869180230034374],[85.593044433594,19.86980366176988],[85.5947692192928,19.87068068610256],[85.59564554850306,19.870732922023876],[85.59827114529116,19.867777023315057]]]}},{"type":"Feature","id":"hydrolakes:1392468","properties":{"Hylak_id":1392468,"Lake_name":"","Country":"India","Continent":"Asia","Poly_src":"SWBD","Lake_type":1,"Grand_id":0,"Lake_area":0.2,"Shore_len":1.67,"Shore_dev":1.06,"Vol_total":0.43,"Vol_res":0.0,"Vol_src":3,"Depth_avg":2.2,"Dis_avg":0.024,"Res_time":205.9,"Elevation":1,"Slope_100":0.91,"Wshd_area":1.0,"Pour_long":85.627784,"Pour_lat":19.851114,"source_id":"hydrolakes:1392468","label":""},"geometry":{"type":"Polygon","coordinates":[[[85.63098761664531,19.849845750596387],[85.63000000000028,19.848333333332903],[85.62829149034326,19.848547024196648],[85.62627868652368,19.849769617716106],[85.62607883029557,19.85137614779967],[85.62706793891101,19.852098693847324],[85.63043314615919,19.85290130615209],[85.63126864963147,19.851816652085688],[85.63098761664531,19.849845750596387]]]}},{"type":"Feature","id":"hydrolakes:1392504","properties":{"Hylak_id":1392504,"Lake_name":"","Country":"India","Continent":"Asia","Poly_src":"SWBD","Lake_type":1,"Grand_id":0,"Lake_area":0.62,"Shore_len":3.41,"Shore_dev":1.22,"Vol_total":1.48,"Vol_res":0.0,"Vol_src":3,"Depth_avg":2.4,"Dis_avg":0.11,"Res_time":155.9,"Elevation":0,"Slope_100":0.79,"Wshd_area":4.6,"Pour_long":85.585417,"Pour_lat":19.814602,"source_id":"hydrolakes:1392504","label":""},"geometry":{"type":"Polygon","coordinates":[[[85.59041137695345,19.814866400824314],[85.58984280056455,19.813661600748333],[85.58851433648044,19.812430759005736],[85.58694444444484,19.811944444444123],[85.58526719835106,19.812595299614372],[85.58435085720532,19.814536827934887],[85.58319417317733,19.8137408616804],[85.58197652181036,19.814674580891563],[85.58258429633293,19.815823160806985],[85.58369506835965,19.816347368028175],[85.58708224826415,19.81989296807143],[85.59376627604212,19.8195770263668],[85.59372172037797,19.818453809949858],[85.59041137695345,19.814866400824314]]]}},{"type":"Feature","id":"hydrolakes:1392590","properties":{"Hylak_id":1392590,"Lake_name":"","Country":"India","Continent":"Asia","Poly_src":"SWBD","Lake_type":1,"Grand_id":0,"Lake_area":0.19,"Shore_len":1.82,"Shore_dev":1.18,"Vol_total":0.81,"Vol_res":0.0,"Vol_src":3,"Depth_avg":4.3,"Dis_avg":0.246,"Res_time":38.3,"Elevation":70,"Slope_100":3.91,"Wshd_area":12.3,"Pour_long":85.11821,"Pour_lat":19.724277,"source_id":"hydrolakes:1392590","label":""},"geometry":{"type":"Polygon","coordinates":[[[85.11929773966506,19.72403559366819],[85.1191666666669,19.723333333332903],[85.11716874864408,19.72354153103271],[85.11679773966495,19.724575517442076],[85.11652987162296,19.727146046955966],[85.11570226033564,19.728669060600737],[85.1165977223717,19.729276953802867],[85.11707551744274,19.72874218410874],[85.11879737006319,19.728473866780178],[85.12013107299828,19.726752861870295],[85.11985871209066,19.725067901610885],[85.11929773966506,19.72403559366819]]]}},{"type":"Feature","id":"hydrolakes:1392641","properties":{"Hylak_id":1392641,"Lake_name":"","Country":"India","Continent":"Asia","Poly_src":"SWBD","Lake_type":1,"Grand_id":0,"Lake_area":0.49,"Shore_len":3.05,"Shore_dev":1.23,"Vol_total":0.86,"Vol_res":0.0,"Vol_src":3,"Depth_avg":1.7,"Dis_avg":0.04,"Res_time":248.4,"Elevation":3,"Slope_100":0.44,"Wshd_area":1.8,"Pour_long":85.496047,"Pour_lat":19.676262,"source_id":"hydrolakes:1392641","label":""},"geometry":{"type":"Polygon","coordinates":[[[85.4962422010637,19.676813354491685],[85.49595757378523,19.67287573920322],[85.49274305555593,19.670975680880645],[85.49037580702071,19.670698377820827],[85.49000000000046,19.67027777777747],[85.48698849148263,19.670353054470127],[85.48710045708577,19.672231784396274],[85.48947513156509,19.674511922200224],[85.49059461805581,19.676272108289538],[85.49188649495488,19.676797756618498],[85.49291666666699,19.676237928602006],[85.49513108995251,19.67736891004739],[85.49668653700115,19.67763108995183],[85.4962422010637,19.676813354491685]]]}},{"type":"Feature","id":"hydrolakes:1392647","properties":{"Hylak_id":1392647,"Lake_name":"","Country":"India","Continent":"Asia","Poly_src":"SWBD","Lake_type":1,"Grand_id":0,"Lake_area":0.14,"Shore_len":1.48,"Shore_dev":1.14,"Vol_total":0.34,"Vol_res":0.0,"Vol_src":3,"Depth_avg":2.5,"Dis_avg":0.023,"Res_time":173.3,"Elevation":28,"Slope_100":1.42,"Wshd_area":1.2,"Pour_long":85.096689,"Pour_lat":19.669296,"source_id":"hydrolakes:1392647","label":""},"geometry":{"type":"Polygon","coordinates":[[[85.09685014512826,19.66804612901433],[85.09638888888918,19.667222222221824],[85.09567656623022,19.667343241373317],[85.09502644009103,19.668888888888432],[85.09543454488158,19.66956546359563],[85.09574844360378,19.671052958170264],[85.09711410522488,19.672065463595573],[85.09859368218372,19.671739400227466],[85.0992565409345,19.670640496147655],[85.09784930759037,19.66881737603046],[85.09685014512826,19.66804612901433]]]}},{"type":"Feature","id":"hydrolakes:1392680","properties":{"Hylak_id":1392680,"Lake_name":"","Country":"India","Continent":"Asia","Poly_src":"SWBD","Lake_type":1,"Grand_id":0,"Lake_area":0.18,"Shore_len":1.64,"Shore_dev":1.09,"Vol_total":0.33,"Vol_res":0.0,"Vol_src":3,"Depth_avg":1.8,"Dis_avg":0.024,"Res_time":156.8,"Elevation":2,"Slope_100":0.63,"Wshd_area":1.2,"Pour_long":85.257328,"Pour_lat":19.628215,"source_id":"hydrolakes:1392680","label":""},"geometry":{"type":"Polygon","coordinates":[[[85.25931337144675,19.62818664550747],[85.2583333333339,19.62694444444412],[85.25595614963134,19.627697618272293],[85.2543133714467,19.62916544596311],[85.2546591864695,19.630826314289948],[85.25675716824031,19.631966383191866],[85.25957551744284,19.628735012477932],[85.25931337144675,19.62818664550747]]]}},{"type":"Feature","id":"hydrolakes:1392691","properties":{"Hylak_id":1392691,"Lake_name":"","Country":"India","Continent":"Asia","Poly_src":"SWBD","Lake_type":1,"Grand_id":0,"Lake_area":0.37,"Shore_len":3.16,"Shore_dev":1.47,"Vol_total":0.62,"Vol_res":0.0,"Vol_src":3,"Depth_avg":1.7,"Dis_avg":0.268,"Res_time":27.0,"Elevation":2,"Slope_100":0.45,"Wshd_area":13.8,"Pour_long":85.251042,"Pour_lat":19.613873,"source_id":"hydrolakes:1392691","label":""},"geometry":{"type":"Polygon","coordinates":[[[85.25296759711392,19.614266662597288],[85.25680026584229,19.6100422837996],[85.25608016967811,19.609795905218846],[85.25540186564155,19.61015482584594],[85.2532350836862,19.610123969183633],[85.25056442260802,19.61068274603906],[85.24888888888933,19.60944444444408],[85.2483117336701,19.609979214138036],[85.2488290066193,19.611454976399386],[85.24764417860285,19.6136940850148],[85.24819402058944,19.61403608534033],[85.24909632364933,19.613558654784697],[85.25250734117327,19.616517062716582],[85.2540093315975,19.616576605902367],[85.25403915405303,19.61582390679223],[85.25296759711392,19.614266662597288]]]}},{"type":"Feature","id":"hydrolakes:1392738","properties":{"Hylak_id":1392738,"Lake_name":"","Country":"India","Continent":"Asia","Poly_src":"SWBD","Lake_type":1,"Grand_id":0,"Lake_area":0.11,"Shore_len":1.55,"Shore_dev":1.3,"Vol_total":0.34,"Vol_res":0.0,"Vol_src":3,"Depth_avg":3.1,"Dis_avg":0.154,"Res_time":25.9,"Elevation":20,"Slope_100":2.26,"Wshd_area":8.5,"Pour_long":85.072218,"Pour_lat":19.548175,"source_id":"hydrolakes:1392738","label":""},"geometry":{"type":"Polygon","coordinates":[[[85.07293203142012,19.547623528374288],[85.07222222222248,19.54611111111086],[85.07116372002531,19.54624348958299],[85.07065424177415,19.547110222710103],[85.0729617267188,19.55179019504095],[85.0739823362565,19.55147644042944],[85.07414889017775,19.55013739691816],[85.07317907969195,19.54848758273613],[85.07293203142012,19.547623528374288]]]}},{"type":"Feature","id":"hydrolakes:1392742","properties":{"Hylak_id":1392742,"Lake_name":"","Country":"India","Continent":"Asia","Poly_src":"SWBD","Lake_type":1,"Grand_id":0,"Lake_area":0.14,"Shore_len":1.75,"Shore_dev":1.31,"Vol_total":0.37,"Vol_res":0.0,"Vol_src":3,"Depth_avg":2.6,"Dis_avg":0.044,"Res_time":96.9,"Elevation":36,"Slope_100":1.48,"Wshd_area":2.4,"Pour_long":85.04356,"Pour_lat":19.544046,"source_id":"hydrolakes:1392742","label":""},"geometry":{"type":"Polygon","coordinates":[[[85.0418184026085,19.54459618462414],[85.04249436908333,19.544209018283027],[85.04339099460219,19.5451260375973],[85.04539174397831,19.544411180283873],[85.04545413547135,19.543799065483483],[85.0445961803864,19.543181593152838],[85.04270334667655,19.542899644639363],[85.04194444444477,19.542222222221937],[85.04076489342617,19.542373148599893],[85.03909774780311,19.543758002386767],[85.03899251937895,19.544790344237867],[85.03949705123927,19.545397745767787],[85.0418184026085,19.54459618462414]]]}},{"type":"Feature","id":"hydrolakes:1392770","properties":{"Hylak_id":1392770,"Lake_name":"","Country":"India","Continent":"Asia","Poly_src":"SWBD","Lake_type":1,"Grand_id":0,"Lake_area":0.12,"Shore_len":1.54,"Shore_dev":1.28,"Vol_total":0.23,"Vol_res":0.0,"Vol_src":3,"Depth_avg":2.0,"Dis_avg":0.408,"Res_time":6.5,"Elevation":20,"Slope_100":0.91,"Wshd_area":23.5,"Pour_long":85.018665,"Pour_lat":19.491561,"source_id":"hydrolakes:1392770","label":""},"geometry":{"type":"Polygon","coordinates":[[[85.01962545183,19.492083129882474],[85.01916666666705,19.491388888888423],[85.01796340306623,19.491525709363714],[85.01710876782772,19.49262844509508],[85.0177761363986,19.495247090657188],[85.0195414087512,19.49678012423999],[85.02039123217293,19.4964705403641],[85.01913266605834,19.492839898003183],[85.01962545183,19.492083129882474]]]}},{"type":"Feature","id":"hydrolakes:1392796","properties":{"Hylak_id":1392796,"Lake_name":"","Country":"India","Continent":"Asia","Poly_src":"SWBD","Lake_type":1,"Grand_id":0,"Lake_area":0.46,"Shore_len":3.97,"Shore_dev":1.65,"Vol_total":0.74,"Vol_res":0.0,"Vol_src":3,"Depth_avg":1.6,"Dis_avg":0.084,"Res_time":102.0,"Elevation":9,"Slope_100":0.38,"Wshd_area":5.1,"Pour_long":85.014166,"Pour_lat":19.437264,"source_id":"hydrolakes:1392796","label":""},"geometry":{"type":"Polygon","coordinates":[[[85.01237144099377,19.44153811984546],[85.01337489393046,19.440826619465724],[85.01408938090032,19.442610371907165],[85.01531331274265,19.44270870632556],[85.0159546730257,19.442156134710956],[85.01668308470016,19.440523749457213],[85.01871747334843,19.4399112277556],[85.01908473756606,19.43891113281211],[85.01864559915373,19.437927008734505],[85.01679522620333,19.438184102375942],[85.01561992168467,19.439017435709275],[85.01461851755812,19.438493448892814],[85.01444444444468,19.43694444444401],[85.01343793180286,19.437247483994895],[85.01135118563997,19.439045308430593],[85.01092541482728,19.43999949137327],[85.00764921875492,19.442809583875487],[85.00801055524113,19.444536064995248],[85.00947828597515,19.446239657931415],[85.01116944657457,19.444891391329918],[85.0111551083462,19.44215237087633],[85.01237144099377,19.44153811984546]]]}}]}