{"type":"FeatureCollection","features":[{"type":"Feature","id":"hydrolakes:178320","properties":{"Hylak_id":178320,"Lake_name":"","Country":"Myanmar","Continent":"Asia","Poly_src":"SWBD","Lake_type":1,"Grand_id":0,"Lake_area":4.42,"Shore_len":16.58,"Shore_dev":2.22,"Vol_total":9.07,"Vol_res":0.0,"Vol_src":3,"Depth_avg":2.0,"Dis_avg":0.565,"Res_time":185.8,"Elevation":-3,"Slope_100":0.68,"Wshd_area":5.5,"Pour_long":93.80746,"Pour_lat":19.49958,"source_id":"hydrolakes:178320","label":""},"geometry":{"type":"Polygon","coordinates":[[[93.80033961069029,19.51761954471999],[93.80418772470387,19.516514944025573],[93.80605219613955,19.516903195436157],[93.80657572519237,19.51528990062286],[93.80778735781507,19.514028812569393],[93.80949483326509,19.51374164215929],[93.81006183291248,19.512619544720053],[93.81145804602022,19.510956336712184],[93.81062294944911,19.50933524296221],[93.81114674976897,19.509240909737457],[93.81197435257957,19.510847456775195],[93.81231816700551,19.514362810507805],[93.81428795799383,19.515952878053383],[93.81642167923945,19.513764598159696],[93.81644505909537,19.509847565282087],[93.81700103850602,19.509836205961335],[93.81809026173221,19.510397322497738],[93.81865819386098,19.509899343439656],[93.81900477182319,19.5085470078277],[93.81840072722696,19.50737445465927],[93.81982771222562,19.50826980649299],[93.82039915387611,19.510030840292984],[93.82098164967141,19.508830177044217],[93.82172849957914,19.509547747031206],[93.82141871225298,19.51020475657981],[93.81979585526489,19.511764001371603],[93.8197784941541,19.51261432282348],[93.82051739253706,19.514561852934037],[93.8211838964433,19.514575450210486],[93.82283537213772,19.51199417172745],[93.82283440574776,19.510147654800335],[93.82380917110169,19.509133080961362],[93.8249032940941,19.510271861343256],[93.825759668199,19.50944907352857],[93.8238076282687,19.507123735800747],[93.82422849957925,19.505397322497913],[93.82532316510662,19.50346976444655],[93.82977574757177,19.501915843277004],[93.82979522795927,19.500961151707827],[93.82906426414627,19.499882796130635],[93.82978405513467,19.49848556577041],[93.82843660233544,19.498405507990356],[93.82783399884681,19.49929448504122],[93.82787877491552,19.50148825809896],[93.82677398772472,19.502057410930945],[93.82510438797988,19.502091454984736],[93.82450868485472,19.50178458378241],[93.8236773860267,19.502348073908365],[93.82141632170914,19.501962433446295],[93.81936698156693,19.502977515911425],[93.81652798213662,19.502423282784207],[93.81348471838356,19.498963844036382],[93.81478961611577,19.497347327923137],[93.81617294402383,19.493620656916164],[93.81474711191106,19.49318571361107],[93.81317433765963,19.493995921401847],[93.81204574675803,19.49401897912759],[93.81187016895848,19.492761214099403],[93.81096557708025,19.493054759292534],[93.81006739389352,19.495125105700936],[93.80927485238959,19.495509593276893],[93.80867850500465,19.497347327923137],[93.8075277888588,19.499095612157134],[93.80562262731905,19.500926056492972],[93.80530780459213,19.502538707046426],[93.80265509802223,19.50593704282113],[93.79872295046613,19.507128245620663],[93.79379226775427,19.510626068700105],[93.79323434708618,19.512256046456173],[93.79409339147924,19.512698585247392],[93.79649722719961,19.510680661256515],[93.7975618329126,19.511243812298233],[93.79655849971476,19.51258136383899],[93.79451183833794,19.514547747031315],[93.79478405513476,19.515402883478657],[93.79561601517707,19.516202206666662],[93.79596533124419,19.517635108684885],[93.79726822837961,19.517608524483478],[93.79815728172446,19.518066525514257],[93.80033961069029,19.51761954471999]]]}},{"type":"Feature","id":"hydrolakes:1392365","properties":{"Hylak_id":1392365,"Lake_name":"","Country":"Myanmar","Continent":"Asia","Poly_src":"SWBD","Lake_type":1,"Grand_id":0,"Lake_area":0.26,"Shore_len":2.01,"Shore_dev":1.12,"Vol_total":0.75,"Vol_res":0.0,"Vol_src":3,"Depth_avg":2.9,"Dis_avg":1.236,"Res_time":7.0,"Elevation":181,"Slope_100":1.56,"Wshd_area":61.6,"Pour_long":94.574354,"Pour_lat":19.962898,"source_id":"hydrolakes:1392365","label":""},"geometry":{"type":"Polygon","coordinates":[[[94.57574345997415,19.95749906121563],[94.57548128006977,19.95720565854384],[94.57465608475712,19.95746047661254],[94.57324461286049,19.959180781631346],[94.57229463456184,19.962388665201274],[94.57283777963573,19.962888967847277],[94.57546954775631,19.96359382128253],[94.57676966440118,19.961549582271516],[94.57839014779984,19.960518966305926],[94.57574345997415,19.95749906121563]]]}},{"type":"Feature","id":"hydrolakes:1392384","properties":{"Hylak_id":1392384,"Lake_name":"","Country":"Myanmar","Continent":"Asia","Poly_src":"SWBD","Lake_type":1,"Grand_id":0,"Lake_area":0.14,"Shore_len":2.22,"Shore_dev":1.7,"Vol_total":0.25,"Vol_res":0.0,"Vol_src":3,"Depth_avg":1.9,"Dis_avg":0.092,"Res_time":31.8,"Elevation":166,"Slope_100":0.75,"Wshd_area":4.0,"Pour_long":94.536397,"Pour_lat":19.948337,"source_id":"hydrolakes:1392384","label":""},"geometry":{"type":"Polygon","coordinates":[[[94.54033208302121,19.95117377975464],[94.54003877518682,19.95027942186141],[94.53733640973547,19.950496560787542],[94.53679211177541,19.949014494739004],[94.53783208302116,19.947547802980125],[94.5368701689585,19.946927880766054],[94.53535269934059,19.947082667405766],[94.53625995302974,19.952873392689924],[94.53718639888484,19.952947832268592],[94.53783208302116,19.951500884746906],[94.54033208302121,19.95117377975464]]]}},{"type":"Feature","id":"hydrolakes:1392490","properties":{"Hylak_id":1392490,"Lake_name":"","Country":"Myanmar","Continent":"Asia","Poly_src":"SWBD","Lake_type":1,"Grand_id":0,"Lake_area":0.19,"Shore_len":2.28,"Shore_dev":1.48,"Vol_total":0.22,"Vol_res":0.0,"Vol_src":3,"Depth_avg":1.2,"Dis_avg":0.041,"Res_time":61.6,"Elevation":291,"Slope_100":0.26,"Wshd_area":2.0,"Pour_long":94.647942,"Pour_lat":19.829784,"source_id":"hydrolakes:1392490","label":""},"geometry":{"type":"Polygon","coordinates":[[[94.6508876385767,19.82846599213491],[94.65075905784744,19.82831676965492],[94.64660263152365,19.829103572158772],[94.64588316266514,19.830118256200024],[94.64669276010437,19.83455643606385],[94.64893071583367,19.83415622345808],[94.64901548688391,19.83310097646921],[94.64840825489614,19.831500880508315],[94.64785934539083,19.831027968249884],[94.6478109919837,19.830425763185247],[94.65099539953582,19.829807137968146],[94.6508876385767,19.82846599213491]]]}},{"type":"Feature","id":"hydrolakes:1392754","properties":{"Hylak_id":1392754,"Lake_name":"","Country":"Myanmar","Continent":"Asia","Poly_src":"SWBD","Lake_type":1,"Grand_id":0,"Lake_area":0.39,"Shore_len":3.59,"Shore_dev":1.62,"Vol_total":0.71,"Vol_res":0.0,"Vol_src":3,"Depth_avg":1.8,"Dis_avg":0.042,"Res_time":195.9,"Elevation":-3,"Slope_100":0.51,"Wshd_area":0.4,"Pour_long":93.823168,"Pour_lat":19.51748,"source_id":"hydrolakes:1392754","label":""},"geometry":{"type":"Polygon","coordinates":[[[93.81937118621107,19.520394135106244],[93.82347278261966,19.518124339370615],[93.82394568640103,19.51701539839854],[93.82325905784751,19.516094547432658],[93.82208862395532,19.51677597104384],[93.82173909596037,19.517907901924787],[93.82124886497621,19.51817008182934],[93.82080619055131,19.516736501642754],[93.81964511538331,19.51680570872827],[93.81807152732995,19.517660811267376],[93.81600055361554,19.517537384618038],[93.81507242929388,19.51818567970264],[93.81404320701745,19.518447859607306],[93.81266954300901,19.51748831913403],[93.81224895992005,19.517959035822457],[93.81230311166684,19.518867544123168],[93.81352120384344,19.522499068103286],[93.81426996957708,19.523168081232598],[93.81477901973437,19.522058970718263],[93.81577909772363,19.52076848406466],[93.81937118621107,19.520394135106244]]]}},{"type":"Feature","id":"hydrolakes:1392756","properties":{"Hylak_id":1392756,"Lake_name":"","Country":"Myanmar","Continent":"Asia","Poly_src":"SWBD","Lake_type":1,"Grand_id":0,"Lake_area":0.22,"Shore_len":3.14,"Shore_dev":1.89,"Vol_total":0.39,"Vol_res":0.0,"Vol_src":3,"Depth_avg":1.8,"Dis_avg":0.062,"Res_time":73.0,"Elevation":-2,"Slope_100":0.59,"Wshd_area":0.6,"Pour_long":93.831995,"Pour_lat":19.512672,"source_id":"hydrolakes:1392756","label":""},"geometry":{"type":"Polygon","coordinates":[[[93.82814437957052,19.51373374149739],[93.83055981197072,19.51284076325311],[93.83204315276396,19.512844018461294],[93.83421693680788,19.51200848108084],[93.83449369733302,19.510106964696092],[93.83529576710299,19.509008942235198],[93.83437016895857,19.50776121409939],[93.8337017322724,19.50852683231767],[93.83341330725062,19.509859907947032],[93.8328172989498,19.510337202868868],[93.83291193735056,19.511098073908386],[93.83130286413535,19.511495853585018],[93.83059249968761,19.51060877540573],[93.82885649030186,19.512339223810784],[93.8263765810409,19.51264941803811],[93.82551413732887,19.51442788076605],[93.8260247811819,19.51529658058155],[93.82792110957809,19.51506071361115],[93.82782387718333,19.51427898889324],[93.82814437957052,19.51373374149739]]]}},{"type":"Feature","id":"hydrolakes:1392763","properties":{"Hylak_id":1392763,"Lake_name":"","Country":"Myanmar","Continent":"Asia","Poly_src":"SWBD","Lake_type":1,"Grand_id":0,"Lake_area":0.6,"Shore_len":4.3,"Shore_dev":1.57,"Vol_total":1.47,"Vol_res":0.0,"Vol_src":3,"Depth_avg":2.4,"Dis_avg":0.313,"Res_time":54.3,"Elevation":-3,"Slope_100":0.83,"Wshd_area":3.0,"Pour_long":93.832188,"Pour_lat":19.502196,"source_id":"hydrolakes:1392763","label":""},"geometry":{"type":"Polygon","coordinates":[[[93.84282058806656,19.50278301721346],[93.83735900969748,19.49853819163843],[93.8367932646616,19.49980609528427],[93.83602094953034,19.49986814769312],[93.83497038190353,19.49955184995008],[93.83325905784733,19.49803899187708],[93.83123167340722,19.498649377348045],[93.83202621550811,19.49900392378902],[93.83098395544403,19.501690860909264],[93.83080425777155,19.50392712121743],[93.83205627532254,19.50481487756514],[93.83405683820223,19.50497560347651],[93.83527859248824,19.50392301829862],[93.83638660097904,19.50124377838972],[93.83742345265,19.501994714262082],[93.83788781150946,19.50303539758471],[93.83985760249811,19.504949019275102],[93.84307710526485,19.505448456395413],[93.84347437631521,19.504736413480828],[93.84282058806656,19.50278301721346]]]}},{"type":"Feature","id":"hydrolakes:1392864","properties":{"Hylak_id":1392864,"Lake_name":"","Country":"Myanmar","Continent":"Asia","Poly_src":"SWBD","Lake_type":1,"Grand_id":0,"Lake_area":0.37,"Shore_len":2.64,"Shore_dev":1.23,"Vol_total":0.54,"Vol_res":0.0,"Vol_src":3,"Depth_avg":1.5,"Dis_avg":0.303,"Res_time":20.8,"Elevation":-1,"Slope_100":0.34,"Wshd_area":2.6,"Pour_long":93.66422,"Pour_lat":19.344268,"source_id":"hydrolakes:1392864","label":""},"geometry":{"type":"Polygon","coordinates":[[[93.66565924947241,19.347767724516018],[93.66728154061354,19.346720157784205],[93.66673130126242,19.345134871325854],[93.66509381914904,19.34290240876078],[93.66377515088959,19.342484860475167],[93.66325905784743,19.341927880766036],[93.66226487753897,19.342063717897247],[93.66173657521375,19.343183170479506],[93.66012066481636,19.344680430679205],[93.66002635659231,19.347059716703654],[93.66094222662957,19.347059513252987],[93.66248607567383,19.348725773018543],[93.66292168814061,19.347349837146282],[93.66352920808498,19.347686954659196],[93.66496570942905,19.34923731544484],[93.66565924947241,19.347767724516018]]]}},{"type":"Feature","id":"hydrolakes:1393421","properties":{"Hylak_id":1393421,"Lake_name":"","Country":"Myanmar","Continent":"Asia","Poly_src":"SWBD","Lake_type":1,"Grand_id":0,"Lake_area":0.1,"Shore_len":1.51,"Shore_dev":1.34,"Vol_total":0.41,"Vol_res":0.0,"Vol_src":3,"Depth_avg":4.1,"Dis_avg":0.221,"Res_time":21.7,"Elevation":112,"Slope_100":4.16,"Wshd_area":3.7,"Pour_long":94.923881,"Pour_lat":18.751614,"source_id":"hydrolakes:1393421","label":""},"geometry":{"type":"Polygon","coordinates":[[[94.92185077334227,18.749227685453434],[94.92103683562522,18.748316769654878],[94.92008007564266,18.74861217981106],[94.92005430524341,18.749046343222517],[94.92366541635437,18.752892236234686],[94.92477612056462,18.752384695002092],[94.92485790767387,18.751013709759036],[94.92185077334227,18.749227685453434]]]}},{"type":"Feature","id":"hydrolakes:1393631","properties":{"Hylak_id":1393631,"Lake_name":"","Country":"Myanmar","Continent":"Asia","Poly_src":"SWBD","Lake_type":1,"Grand_id":0,"Lake_area":0.21,"Shore_len":2.92,"Shore_dev":1.79,"Vol_total":0.78,"Vol_res":0.0,"Vol_src":3,"Depth_avg":3.7,"Dis_avg":0.682,"Res_time":13.3,"Elevation":43,"Slope_100":2.68,"Wshd_area":11.2,"Pour_long":94.985417,"Pour_lat":18.564357,"source_id":"hydrolakes:1393631","label":""},"geometry":{"type":"Polygon","coordinates":[[[94.98352707000038,18.565915375340637],[94.98402253983528,18.565027381634025],[94.98536422820331,18.565135210410006],[94.98743155676237,18.56753484148635],[94.98810986079883,18.566684011408256],[94.98631461340295,18.562761214099282],[94.98563047711826,18.56346596670346],[94.98458352073811,18.563723128161826],[94.98337380394122,18.562865245132286],[94.98207497581643,18.563589935887478],[94.980587345608,18.565131277033345],[94.98063929330755,18.565776757719107],[94.98235641570335,18.56569456370869],[94.98338763857663,18.56818818892566],[94.98379779482667,18.568541514663536],[94.98449874968787,18.568222504246876],[94.98352707000038,18.565915375340637]]]}},{"type":"Feature","id":"hydrolakes:1394848","properties":{"Hylak_id":1394848,"Lake_name":"","Country":"Myanmar","Continent":"Asia","Poly_src":"SWBD","Lake_type":1,"Grand_id":0,"Lake_area":0.5,"Shore_len":3.27,"Shore_dev":1.31,"Vol_total":2.29,"Vol_res":0.0,"Vol_src":3,"Depth_avg":4.6,"Dis_avg":0.089,"Res_time":297.4,"Elevation":0,"Slope_100":3.26,"Wshd_area":1.2,"Pour_long":94.568823,"Pour_lat":17.331193,"source_id":"hydrolakes:1394848","label":""},"geometry":{"type":"Polygon","coordinates":[[[94.57088763857666,17.325965966703336],[94.5707590578474,17.32553899187701],[94.56998506424941,17.32568005090485],[94.5673390545922,17.32795978180752],[94.56623825164115,17.330876448474157],[94.56743074296031,17.333256277033172],[94.56944232607663,17.33470050446374],[94.57080062957056,17.33705646149508],[94.57135001379362,17.33629392894295],[94.57072481034322,17.33284557824851],[94.57155387121566,17.331883392918655],[94.5733299942624,17.330770925470688],[94.57394319413214,17.32967175012351],[94.57285269934044,17.32872312816164],[94.57174660667567,17.32822942156446],[94.5717749541148,17.327217594307513],[94.57088763857666,17.325965966703336]]]}},{"type":"Feature","id":"hydrolakes:1394856","properties":{"Hylak_id":1394856,"Lake_name":"","Country":"Myanmar","Continent":"Asia","Poly_src":"SWBD","Lake_type":1,"Grand_id":0,"Lake_area":0.22,"Shore_len":2.75,"Shore_dev":1.66,"Vol_total":0.22,"Vol_res":0.0,"Vol_src":3,"Depth_avg":1.0,"Dis_avg":0.165,"Res_time":15.7,"Elevation":4,"Slope_100":0.19,"Wshd_area":2.7,"Pour_long":94.943765,"Pour_lat":17.323079,"source_id":"hydrolakes:1394856","label":""},"geometry":{"type":"Polygon","coordinates":[[[94.94418218067727,17.32259872494984],[94.9443701689587,17.32109454743255],[94.94287073861994,17.321241031807517],[94.94146882889783,17.322092268786605],[94.94179597733529,17.323182221043623],[94.94362431934928,17.324292789620017],[94.94384689421918,17.326081797866436],[94.9420243844533,17.327155474081792],[94.94239805524325,17.32788464074855],[94.94341327334229,17.327637787449873],[94.94438820823808,17.32706459951595],[94.94696294239623,17.326742605158188],[94.94707809539085,17.32581731218943],[94.94538063987886,17.324457991442955],[94.9453044137503,17.32384465593941],[94.94671595346392,17.323249766616527],[94.94646882889782,17.322884640748498],[94.94418218067727,17.32259872494984]]]}},{"type":"Feature","id":"hydrolakes:1394919","properties":{"Hylak_id":1394919,"Lake_name":"","Country":"Myanmar","Continent":"Asia","Poly_src":"SWBD","Lake_type":1,"Grand_id":0,"Lake_area":0.13,"Shore_len":2.02,"Shore_dev":1.56,"Vol_total":0.3,"Vol_res":0.0,"Vol_src":3,"Depth_avg":2.3,"Dis_avg":0.077,"Res_time":45.3,"Elevation":2,"Slope_100":1.14,"Wshd_area":1.2,"Pour_long":94.909375,"Pour_lat":17.251118,"source_id":"hydrolakes:1394919","label":""},"geometry":{"type":"Polygon","coordinates":[[[94.91332375511303,17.25228079960266],[94.910481144436,17.251340586929018],[94.90964794673624,17.25026121409934],[94.90863110103334,17.25043401140823],[94.9073431236028,17.252569156807454],[94.9083175159638,17.252713199776224],[94.90953984669306,17.251806895522805],[94.91054543480072,17.252255300470722],[94.91067672820361,17.25314370107833],[94.90991541635441,17.25417044804027],[94.91070236296895,17.25464489465469],[94.91276114660627,17.254210595609607],[94.91332375511303,17.25228079960266]]]}},{"type":"Feature","id":"hydrolakes:1394928","properties":{"Hylak_id":1394928,"Lake_name":"","Country":"Myanmar","Continent":"Asia","Poly_src":"SWBD","Lake_type":1,"Grand_id":0,"Lake_area":0.49,"Shore_len":4.63,"Shore_dev":1.87,"Vol_total":1.51,"Vol_res":0.0,"Vol_src":3,"Depth_avg":3.1,"Dis_avg":0.18,"Res_time":97.0,"Elevation":0,"Slope_100":1.46,"Wshd_area":2.9,"Pour_long":94.896343,"Pour_lat":17.241076,"source_id":"hydrolakes:1394928","label":""},"geometry":{"type":"Polygon","coordinates":[[[94.89911002355939,17.252637787449828],[94.90059914573817,17.252549083022814],[94.9016503067624,17.253725569567962],[94.90328075923662,17.252614458456947],[94.90200119109409,17.250963525297095],[94.90173290767393,17.248672672432576],[94.90071090789093,17.244962548734577],[94.89930397972245,17.24338811297065],[94.89782937034761,17.242450070436007],[94.89655590572073,17.24069551314426],[94.89548128006982,17.239705658543585],[94.8945245200872,17.240001068699826],[94.89447419999169,17.24084633779711],[94.89615727833353,17.241618907241502],[94.89609353050372,17.244417572606096],[94.89949685081638,17.248668060887326],[94.8995673803301,17.24985160038392],[94.89729470237887,17.253229692831837],[94.89810714812523,17.254835595609563],[94.89842561600733,17.254854584324846],[94.89911002355939,17.252637787449828]]]}},{"type":"Feature","id":"hydrolakes:1394937","properties":{"Hylak_id":1394937,"Lake_name":"","Country":"Myanmar","Continent":"Asia","Poly_src":"SWBD","Lake_type":1,"Grand_id":0,"Lake_area":0.44,"Shore_len":3.36,"Shore_dev":1.42,"Vol_total":1.46,"Vol_res":0.0,"Vol_src":3,"Depth_avg":3.3,"Dis_avg":0.348,"Res_time":48.5,"Elevation":0,"Slope_100":1.68,"Wshd_area":5.5,"Pour_long":94.885385,"Pour_lat":17.231087,"source_id":"hydrolakes:1394937","label":""},"geometry":{"type":"Polygon","coordinates":[[[94.88255186383702,17.23441540246722],[94.88423996062534,17.232456038317935],[94.88629318328162,17.233283403769292],[94.88757641353334,17.232567529203322],[94.88880281327278,17.232665999255403],[94.89016810190122,17.23169811731094],[94.89060986079886,17.230611420262335],[94.88998499643247,17.230072954550565],[94.88876890485261,17.2301706108006],[94.8869987496879,17.229577077814554],[94.88492572451406,17.22803899187693],[94.88422097191017,17.228167572606083],[94.88205422386318,17.229312049602754],[94.88149161535631,17.231788720609643],[94.88079296626762,17.232056461495006],[94.87964794673638,17.23141762685958],[94.87882614226584,17.231876068699876],[94.8784082548961,17.233066661147916],[94.880452254462,17.233531070869958],[94.88255186383702,17.23441540246722]]]}},{"type":"Feature","id":"hydrolakes:1394982","properties":{"Hylak_id":1394982,"Lake_name":"","Country":"Myanmar","Continent":"Asia","Poly_src":"SWBD","Lake_type":1,"Grand_id":0,"Lake_area":0.13,"Shore_len":1.67,"Shore_dev":1.29,"Vol_total":0.28,"Vol_res":0.0,"Vol_src":3,"Depth_avg":2.1,"Dis_avg":0.052,"Res_time":62.6,"Elevation":7,"Slope_100":0.99,"Wshd_area":0.8,"Pour_long":94.870417,"Pour_lat":17.186583,"source_id":"hydrolakes:1394982","label":""},"geometry":{"type":"Polygon","coordinates":[[[94.87200634517382,17.184569482328357],[94.87078943979202,17.184638926772834],[94.87000059430574,17.186943343005453],[94.87173399274343,17.189008501425576],[94.87227300098976,17.19011934126928],[94.87307798688386,17.190135617310943],[94.87422097190989,17.18903752703318],[94.87226174339446,17.186765934151254],[94.87230080589433,17.184852685453336],[94.87200634517382,17.184569482328357]]]}},{"type":"Feature","id":"hydrolakes:1395135","properties":{"Hylak_id":1395135,"Lake_name":"","Country":"Myanmar","Continent":"Asia","Poly_src":"SWBD","Lake_type":1,"Grand_id":0,"Lake_area":0.97,"Shore_len":7.86,"Shore_dev":2.25,"Vol_total":3.82,"Vol_res":0.0,"Vol_src":3,"Depth_avg":3.9,"Dis_avg":0.644,"Res_time":68.6,"Elevation":2,"Slope_100":1.9,"Wshd_area":10.1,"Pour_long":94.807038,"Pour_lat":17.074805,"source_id":"hydrolakes:1395135","label":""},"geometry":{"type":"Polygon","coordinates":[[[94.80065746822066,17.08825410689434],[94.80247590897596,17.087419417224112],[94.80283452442728,17.088143972345733],[94.80144563553841,17.08983668067907],[94.80118359126766,17.091446923734566],[94.8021278729517,17.09205890290127],[94.80396136904528,17.089574636408145],[94.80482467742212,17.087630191963797],[94.80533452442734,17.088741303074812],[94.80661097299497,17.09029702139088],[94.80792336448815,17.090670014012403],[94.81010869434931,17.08822399621721],[94.8101029977347,17.08656085602621],[94.8081257299396,17.08619193241509],[94.80661504200538,17.084110226685993],[94.8060069962155,17.082785356894362],[94.80651236730932,17.08137666548805],[94.8078502579342,17.08096352529708],[94.80913633649328,17.07907089291865],[94.8070483916149,17.077205387276365],[94.80759648731805,17.07619708649497],[94.80742572451408,17.074427880765825],[94.80640060515657,17.074885237536648],[94.80523212099848,17.07692788076588],[94.80624042177988,17.078621402901206],[94.80614330806463,17.080248735800524],[94.80389734994822,17.080986311755396],[94.80397710255232,17.08232338857829],[94.80332497581628,17.083523204116545],[94.8014347848441,17.08439098840472],[94.80150517872426,17.08557154396027],[94.79987662512173,17.087556407241493],[94.79865958410619,17.086895057415177],[94.79545456023465,17.08969046757136],[94.7961679255776,17.091796858630403],[94.79649507401501,17.09208901357846],[94.79790491830761,17.09200519196378],[94.79857820389793,17.09053817807495],[94.80031105980072,17.089742822172127],[94.80065746822066,17.08825410689434]]]}},{"type":"Feature","id":"hydrolakes:1395230","properties":{"Hylak_id":1395230,"Lake_name":"","Country":"Myanmar","Continent":"Asia","Poly_src":"SWBD","Lake_type":1,"Grand_id":0,"Lake_area":0.12,"Shore_len":1.66,"Shore_dev":1.35,"Vol_total":0.21,"Vol_res":0.0,"Vol_src":3,"Depth_avg":1.7,"Dis_avg":0.117,"Res_time":20.3,"Elevation":4,"Slope_100":0.65,"Wshd_area":1.8,"Pour_long":94.990799,"Pour_lat":16.985198,"source_id":"hydrolakes:1395230","label":""},"geometry":{"type":"Polygon","coordinates":[[[94.99486319738736,16.982425113838758],[94.99437016895865,16.981650102988112],[94.99293679222245,16.983163774862987],[94.98924660667569,16.985006765314438],[94.9908748890108,16.98649575185965],[94.99235180415837,16.985881602554116],[94.99476649057311,16.98320229482829],[94.99486319738736,16.982425113838758]]]}},{"type":"Feature","id":"hydrolakes:1395237","properties":{"Hylak_id":1395237,"Lake_name":"","Country":"Myanmar","Continent":"Asia","Poly_src":"SWBD","Lake_type":1,"Grand_id":0,"Lake_area":0.23,"Shore_len":3.09,"Shore_dev":1.8,"Vol_total":0.43,"Vol_res":0.0,"Vol_src":3,"Depth_avg":1.8,"Dis_avg":12.667,"Res_time":0.4,"Elevation":5,"Slope_100":0.61,"Wshd_area":204.6,"Pour_long":94.962331,"Pour_lat":16.97899,"source_id":"hydrolakes:1395237","label":""},"geometry":{"type":"Polygon","coordinates":[[[94.96784768089447,16.975683306113012],[94.96798128006964,16.974427880765802],[94.96674579287361,16.974663883369942],[94.96383346648474,16.977807058283247],[94.96238828961839,16.97874021800544],[94.95787195932309,16.983717974081742],[94.9591406767712,16.983768429810937],[94.96026602941879,16.983237288317923],[94.96426342525217,16.979597422866505],[94.96784768089447,16.975683306113012]]]}},{"type":"Feature","id":"hydrolakes:1395253","properties":{"Hylak_id":1395253,"Lake_name":"","Country":"Myanmar","Continent":"Asia","Poly_src":"SWBD","Lake_type":1,"Grand_id":0,"Lake_area":0.26,"Shore_len":3.71,"Shore_dev":2.06,"Vol_total":0.41,"Vol_res":0.0,"Vol_src":3,"Depth_avg":1.6,"Dis_avg":12.069,"Res_time":0.4,"Elevation":4,"Slope_100":0.45,"Wshd_area":195.2,"Pour_long":94.972864,"Pour_lat":16.970469,"source_id":"hydrolakes:1395253","label":""},"geometry":{"type":"Polygon","coordinates":[[[94.97339007998312,16.970130191963733],[94.97325905784743,16.969983436321343],[94.97230229786481,16.97027884647764],[94.97224926509568,16.971169688491557],[94.97374055741352,16.97151663944635],[94.97673168697088,16.973518592571395],[94.97910012230057,16.976169417224185],[94.98127026118942,16.977432980592255],[94.98274934647594,16.979758555678984],[94.9842839059379,16.980947791790072],[94.98466137447099,16.980072954550508],[94.98230406110292,16.97682479916864],[94.98013365094636,16.9743955999499],[94.97720152204016,16.972260454550508],[94.97339007998312,16.970130191963733]]]}},{"type":"Feature","id":"hydrolakes:1395418","properties":{"Hylak_id":1395418,"Lake_name":"","Country":"Myanmar","Continent":"Asia","Poly_src":"SWBD","Lake_type":1,"Grand_id":0,"Lake_area":0.32,"Shore_len":3.9,"Shore_dev":1.93,"Vol_total":0.74,"Vol_res":0.0,"Vol_src":3,"Depth_avg":2.3,"Dis_avg":0.083,"Res_time":103.8,"Elevation":7,"Slope_100":0.89,"Wshd_area":1.2,"Pour_long":94.752083,"Pour_lat":16.79795,"source_id":"hydrolakes:1395418","label":""},"geometry":{"type":"Polygon","coordinates":[[[94.75454968013474,16.800104150297102],[94.75442387989602,16.798869883804002],[94.7530655764021,16.797741682849107],[94.75314132781267,16.796998139012317],[94.75611251921902,16.797300873387428],[94.75644068490902,16.79514701054012],[94.75449624046456,16.794857296998487],[94.75298128006978,16.794150102988056],[94.75151582596806,16.794296316095654],[94.7523499731036,16.795752750557426],[94.75225428354184,16.796691878161596],[94.75016498232657,16.796478933283197],[94.74979965300798,16.794831797866607],[94.7483851293535,16.79457951922069],[94.7477674535723,16.79422578658182],[94.74690075435348,16.794314219741523],[94.74618854189714,16.795250634672016],[94.74682574892819,16.796363102120097],[94.74891884788667,16.796827240574885],[94.75050745737002,16.797737071304027],[94.75110831457505,16.79978459734565],[94.75241433128508,16.79903671323109],[94.75397832325552,16.800162201512308],[94.75454968013474,16.800104150297102]]]}}]}