{"type":"FeatureCollection","features":[{"type":"Feature","id":"hydrolakes:14332","properties":{"Hylak_id":14332,"Lake_name":"Barkol","Country":"China","Continent":"Asia","Poly_src":"SWBD","Lake_type":1,"Grand_id":0,"Lake_area":32.43,"Shore_len":29.7,"Shore_dev":1.47,"Vol_total":50.59,"Vol_res":0.0,"Vol_src":3,"Depth_avg":1.6,"Dis_avg":0.0,"Res_time":-1.0,"Elevation":1577,"Slope_100":0.56,"Wshd_area":5681.0,"Pour_long":92.777083,"Pour_lat":43.664583,"source_id":"hydrolakes:14332","label":"Barkol"},"geometry":{"type":"Polygon","coordinates":[[[92.79851906616835,43.67260247124625],[92.79569381660247,43.67123182508743],[92.79439308960593,43.671258341471855],[92.79380986477946,43.670957912869596],[92.79384133179349,43.66941718207528],[92.79076543118583,43.66792500813858],[92.78826027710602,43.66622673882432],[92.78827953708856,43.6652703857427],[92.7909463665157,43.66483622233142],[92.79256420505737,43.66516757541285],[92.79921188300875,43.665406019423244],[92.79966001668936,43.66402499728781],[92.80037968899825,43.663333536784364],[92.80179272068227,43.66381720648923],[92.80284822198445,43.663101603190796],[92.8021488947274,43.662069702148926],[92.80215649021375,43.66081054687555],[92.80100984307802,43.65893337673663],[92.80032950453653,43.65683614095116],[92.79967819160254,43.653500976563066],[92.79874150540456,43.65096761067758],[92.79771285957128,43.64945000542599],[92.79633210870315,43.645691663954494],[92.79310429837318,43.63893079969671],[92.79272099759197,43.63735833062117],[92.79188766425875,43.635691663954674],[92.7900075101789,43.63351162380695],[92.78870271417213,43.63439602322103],[92.78731925063028,43.63368333604666],[92.78449155965797,43.63409661187114],[92.78199779880725,43.6336711968321],[92.78160988648091,43.63208055284338],[92.78093958483169,43.63073289659343],[92.7813904311858,43.629415893555176],[92.78095965861644,43.628579847548224],[92.78270634915464,43.62641601562569],[92.77591272936286,43.62055555555622],[92.77243019898089,43.622269626194054],[92.77245434177593,43.62345364040846],[92.77203767510929,43.6242622205952],[92.77027497979691,43.62335408528702],[92.76860587172388,43.62392530653267],[92.76768573283516,43.62345119900226],[92.76438223891142,43.62513610839892],[92.76281051582123,43.62620151095973],[92.76029234090794,43.62655307345972],[92.75757722589054,43.628393554688046],[92.75688766425873,43.63014166937995],[92.75438223891149,43.63402499728784],[92.75405454793929,43.63536939832949],[92.75253165297403,43.63636779785213],[92.75109447849502,43.63855963812995],[92.75048955227948,43.64070278591629],[92.74990931139399,43.64069098578619],[92.74842276625515,43.639925198025765],[92.74578496243572,43.64171325683651],[92.74668638387686,43.64393554687547],[92.74767461087333,43.64441507975329],[92.74827112780054,43.64625278049101],[92.7494552098317,43.64799981011339],[92.74880471069969,43.64990058051262],[92.74883889038722,43.65157850477493],[92.74689715861626,43.65344407823403],[92.7454792441199,43.65571248372453],[92.74488815253989,43.657533637153335],[92.74379548760936,43.65806369357688],[92.74384350193236,43.660408460829444],[92.74314634481419,43.66244486490939],[92.7421328899531,43.662913886176796],[92.74064444594262,43.662147081163766],[92.73994321981434,43.662946573893805],[92.74068405097739,43.664384765625584],[92.74180465644616,43.66903828938871],[92.73966001668913,43.671524997287804],[92.73905509047387,43.673009372287765],[92.73912236477963,43.67630418565608],[92.74049443509205,43.67946017795191],[92.74293014472738,43.680641818577044],[92.74224682224468,43.6826380072705],[92.74391728665455,43.68532870822537],[92.74525951755737,43.68599765353781],[92.74664325236643,43.688811916775705],[92.74935185696694,43.69141418457082],[92.74966001668929,43.6923638916021],[92.75253436564765,43.693917914497035],[92.75299335002262,43.69486389160204],[92.75383210870308,43.69513610839897],[92.75574291599469,43.69643127441469],[92.75699861260944,43.696838717991],[92.7593526707692,43.69928900824709],[92.76090160740097,43.70030456543026],[92.76215920288723,43.703163180881745],[92.76466544203652,43.70346944173235],[92.7656194893454,43.7041160753044],[92.76936135132456,43.70484653049107],[92.77367124715789,43.70668063693631],[92.77730297458845,43.70909166124187],[92.78021828491836,43.710143093533475],[92.78079337172403,43.70984680175832],[92.78076000583843,43.70820495605517],[92.78220450453642,43.70648396809952],[92.78383237997042,43.703474867079535],[92.78380986477947,43.70237738715332],[92.78895634915449,43.69604125976616],[92.79022669420652,43.69542500813867],[92.79078767510936,43.69484110514372],[92.79077709568242,43.69317498101179],[92.79210766208843,43.69189663357258],[92.79285310479685,43.69075975206215],[92.79409523804333,43.69015713161946],[92.7947473647796,43.6894781494147],[92.79522072632454,43.68705423990946],[92.79605134698443,43.685441826714964],[92.79663484307815,43.682266370985815],[92.79762849542203,43.68033745659778],[92.79943486477953,43.67380920410204],[92.79851906616835,43.67260247124625]],[[92.76245841078645,43.65567654079911],[92.76193377971015,43.654806722005674],[92.76288077406775,43.6549466959641],[92.76305547024816,43.65376424153709],[92.76247956964056,43.65331963433215],[92.76238788127256,43.652699313694086],[92.76297815905036,43.65234320746583],[92.7642460626962,43.65222222222269],[92.76356952189758,43.653275553385924],[92.76435755358153,43.653600802951985],[92.76485749932812,43.652379014757514],[92.76686704793929,43.654069959852905],[92.76656919637685,43.65506598578611],[92.76525544854684,43.6556037055127],[92.76624394681068,43.656366848416326],[92.76639260132464,43.65737257215761],[92.76464482571697,43.65762098524357],[92.7644028552308,43.658490125868525],[92.76401548543936,43.65878899468373],[92.76347050931071,43.660120985243566],[92.76281132962316,43.65979702419759],[92.76262198500547,43.65851487901523],[92.76310538344268,43.65814168294327],[92.76245841078645,43.65567654079911]]]}},{"type":"Feature","id":"hydrolakes:14359","properties":{"Hylak_id":14359,"Lake_name":"","Country":"China","Continent":"Asia","Poly_src":"SWBD","Lake_type":1,"Grand_id":0,"Lake_area":29.2,"Shore_len":30.54,"Shore_dev":1.59,"Vol_total":91.67,"Vol_res":0.0,"Vol_src":3,"Depth_avg":3.1,"Dis_avg":0.0,"Res_time":-1.0,"Elevation":1893,"Slope_100":1.04,"Wshd_area":1262.6,"Pour_long":94.222917,"Pour_lat":43.39375,"source_id":"hydrolakes:14359","label":""},"geometry":{"type":"Polygon","coordinates":[[[94.17091408569979,43.42624213324706],[94.17299877536993,43.425683865017845],[94.17371627753994,43.426073811849506],[94.17495352797414,43.42511488172789],[94.17576109090817,43.42516289605089],[94.18140209568242,43.42090209960986],[94.18423331313033,43.420939805773116],[94.18566316339081,43.420162760417156],[94.19148456096008,43.4187262641064],[94.19338017727961,43.418046061198595],[94.19729646417187,43.41575520833379],[94.19921134047405,43.41266669379394],[94.20329391425872,43.41171590169324],[94.20409930705392,43.411169026693244],[94.20351309828646,43.410090196398244],[94.20362106269636,43.40827867296059],[94.20507993856432,43.407551133898096],[94.20437708483189,43.406257866754004],[94.2041150405608,43.404853244358094],[94.20328170722757,43.40275132921073],[94.20451895766149,43.40218356662393],[94.20515941990118,43.402900661892886],[94.20548819594279,43.40431342230954],[94.20793177233185,43.40563069661522],[94.20923928101223,43.40664401584252],[94.21215269247051,43.40656860351618],[94.21386113431078,43.407892659505706],[94.21656838257479,43.40825466579912],[94.2190580744151,43.40810628255258],[94.21993426799133,43.40763020833384],[94.22435484090823,43.40720852322113],[94.22931713474503,43.404957953559574],[94.24374530314776,43.40259250217065],[94.247352073981,43.402602810330336],[94.25150110826934,43.40133748372449],[94.25357494724506,43.40016235351618],[94.25409930705399,43.399575466580416],[94.25494837389414,43.39931342230955],[94.2572611994151,43.39725897895016],[94.25943350844278,43.39621148003522],[94.26212773587332,43.39637207031302],[94.2630820544498,43.39530395507876],[94.26444761434556,43.39313151041728],[94.26562301582129,43.392591959636036],[94.26943296590804,43.39199829101619],[94.27125208483176,43.391345486111675],[94.27159930705398,43.38985324435811],[94.27269848240115,43.38915432400222],[94.27298819594279,43.387908799913646],[94.27398618856444,43.386620958116794],[94.27493264038725,43.385686577691445],[94.27718578708863,43.38455390082515],[94.27713044854698,43.38362386067763],[94.27601309828663,43.38120130750917],[94.2760602988073,43.38041002061681],[94.275451574849,43.37953870985291],[94.27494837389412,43.37790879991377],[94.27438983439777,43.37740980360297],[94.27396096069975,43.376021185981415],[94.27188712172398,43.37463351779559],[94.27150137953646,43.3729756673182],[94.26942075887689,43.37135294596402],[94.26768003622067,43.36780856662381],[94.26687708483178,43.36709120008726],[94.2666150405608,43.366242133247],[94.26569761434558,43.365658637153274],[94.2641833999358,43.36406358506986],[94.26272615167198,43.362908799913725],[94.26163375800871,43.36240763346416],[94.26069761434564,43.36147433810817],[94.25914433743594,43.361566975911956],[94.25632152927614,43.35986897786512],[94.25565149889428,43.35812594943627],[94.25396828491864,43.35750000000053],[94.2524982870886,43.358113335504015],[94.25101336955385,43.359573025174086],[94.24659144030039,43.36026217990508],[94.2425769546233,43.36224148220538],[94.24126510566504,43.36325819227483],[94.23831398804344,43.36474853515671],[94.23788457181092,43.36568467881989],[94.23541359741847,43.36625949435813],[94.23352828925869,43.36844875759596],[94.23300392944986,43.369591200087314],[94.23184995809572,43.371080050998785],[94.23190231269655,43.37195760091208],[94.2309794611337,43.37327867296062],[94.22905237780043,43.37466105143278],[94.22852910306096,43.37635606553886],[94.2269033977658,43.37753580729225],[94.2236511733733,43.378786078559585],[94.22323559177613,43.379691433377275],[94.22091489950179,43.382107476128965],[94.2179005765853,43.38378241645012],[94.21442320028308,43.38628838433209],[94.21351581096013,43.38771525065164],[94.21247875583862,43.388641899957065],[94.2121705961165,43.389313422309556],[94.21058802233176,43.39117363823834],[94.20879657267886,43.39159044053872],[94.2071705961165,43.39292453342074],[94.2061595826616,43.39318657769144],[94.2041150405608,43.39207546658031],[94.20308693726219,43.39181342230955],[94.20217059611633,43.3931275770405],[94.20300745592539,43.39513997395886],[94.20267623847752,43.395749918620254],[94.19926776408545,43.39577596028698],[94.19857277710605,43.39655381944499],[94.19675392944987,43.3965770128043],[94.19519956747047,43.39616075303883],[94.19300392944973,43.3926310221359],[94.19230026191502,43.39236897786503],[94.18672083483182,43.39401882595541],[94.18523130575193,43.39505927191891],[94.18389368639413,43.3954722764762],[94.17950675063031,43.39753879123316],[94.1767843113941,43.39828870985292],[94.172182260613,43.39876831054738],[94.16319300280054,43.40040879991375],[94.16125859524851,43.399434678819944],[94.15944544420677,43.40041992187548],[94.15632152927617,43.40068657769149],[94.1560594850053,43.40098008897621],[94.15403203274843,43.401251220703614],[94.15286314168924,43.40255954318627],[94.15011004924145,43.40434380425393],[94.14933151191502,43.40521525065151],[94.14939661608173,43.406304660373735],[94.1505237319671,43.40731201171923],[94.15040545939769,43.409298502604656],[94.15184670288738,43.41058634440162],[94.15246302233174,43.41192925347275],[94.15397126885938,43.4132769097227],[94.15469609524848,43.41517822265678],[94.15576190471012,43.41511474609422],[94.15728100193229,43.41636135525226],[94.1606645197275,43.41828016493122],[94.16134214559548,43.41934556749186],[94.16244837389416,43.41985324435825],[94.16311894681081,43.42090779622447],[94.16416603882487,43.42184339735297],[94.16589102797411,43.42182088216197],[94.16780807441512,43.423966335720934],[94.16975767293928,43.42471584743981],[94.17027877754003,43.425850965712414],[94.17091408569979,43.42624213324706]]]}},{"type":"Feature","id":"hydrolakes:171679","properties":{"Hylak_id":171679,"Lake_name":"","Country":"China","Continent":"Asia","Poly_src":"SWBD","Lake_type":1,"Grand_id":0,"Lake_area":9.22,"Shore_len":15.67,"Shore_dev":1.45,"Vol_total":26.15,"Vol_res":0.0,"Vol_src":3,"Depth_avg":2.8,"Dis_avg":0.14,"Res_time":2161.8,"Elevation":1579,"Slope_100":0.77,"Wshd_area":332.8,"Pour_long":92.879793,"Pour_lat":43.745453,"source_id":"hydrolakes:171679","label":""},"geometry":{"type":"Polygon","coordinates":[[[92.90354619290463,43.78513359917599],[92.90439553101226,43.784732801649795],[92.90609447849488,43.78231757270015],[92.9072102011512,43.781790907118705],[92.90877351495311,43.78185289171063],[92.90988082832104,43.78109103732697],[92.909207542731,43.77981872558644],[92.90706941339056,43.77839918348582],[92.9078788751961,43.77609035915856],[92.90984312215801,43.775468410916346],[92.9104808717239,43.77294969346838],[92.90869376234906,43.77075364854659],[92.90753382311283,43.770206231011855],[92.90661259915464,43.768694118924145],[92.90724492337336,43.76749871148053],[92.90456778578653,43.765924818251506],[92.90331859958866,43.76457661946671],[92.90147832181083,43.76399393717492],[92.90067021634201,43.76274258083822],[92.89874069160243,43.76145772298247],[92.89563223891145,43.75691101074267],[92.89605921373789,43.755693359375584],[92.89568974759192,43.75499545627224],[92.89203007962328,43.75449530707522],[92.88648862997059,43.74952460395019],[92.8834271065329,43.74727898491801],[92.87913267293936,43.744672376845244],[92.87547219116846,43.743456692166376],[92.87491012519627,43.7434789360899],[92.87359583483169,43.74551398383295],[92.8728235366545,43.74596693250925],[92.87161178535246,43.74513319227481],[92.8711669068802,43.74515082465331],[92.86646828491848,43.739722222222724],[92.86320466729677,43.74044141981386],[92.86142976495302,43.74037109375058],[92.8589083348316,43.74133321126362],[92.85544940470999,43.741805894640436],[92.85364520549132,43.74276068793455],[92.85255172675869,43.74394070095542],[92.85300718465788,43.74655646430176],[92.85414867771345,43.747095133464086],[92.85521448717549,43.748160264757416],[92.85555764038725,43.749244045681905],[92.85779125583866,43.75018554687557],[92.8595829767587,43.750152248806955],[92.86272371026558,43.75402248806472],[92.86328984524835,43.75522237141979],[92.86642271200168,43.75706414116803],[92.86962800714082,43.757502170139446],[92.87122224542185,43.75922295464471],[92.87191831747054,43.761019897461495],[92.87379033352954,43.76222873263947],[92.87473651408499,43.76380825466646],[92.87610261651571,43.76445292155006],[92.8793890205954,43.76845221625496],[92.88222674846003,43.77045288085998],[92.88343768596019,43.77175950792156],[92.8860570435989,43.77291137695363],[92.88782516425857,43.774088066949275],[92.88878789212328,43.77512708875918],[92.8898754029741,43.77564039442325],[92.8929323148663,43.779360351563014],[92.89378680705386,43.78190097385033],[92.89592873413704,43.78272888183659],[92.89734556356439,43.78425815158471],[92.89910744507472,43.78529385036944],[92.89999394681075,43.784824693468465],[92.90113842380725,43.78487006293466],[92.9028864706824,43.78548278808648],[92.90354619290463,43.78513359917599]]]}},{"type":"Feature","id":"hydrolakes:171719","properties":{"Hylak_id":171719,"Lake_name":"","Country":"China","Continent":"Asia","Poly_src":"SWBD","Lake_type":1,"Grand_id":0,"Lake_area":1.72,"Shore_len":8.76,"Shore_dev":1.88,"Vol_total":2.58,"Vol_res":0.0,"Vol_src":3,"Depth_avg":1.5,"Dis_avg":0.148,"Res_time":201.6,"Elevation":1653,"Slope_100":0.66,"Wshd_area":2478.9,"Pour_long":93.195457,"Pour_lat":43.647395,"source_id":"hydrolakes:171719","label":""},"geometry":{"type":"Polygon","coordinates":[[[93.20664650757459,43.64295010036949],[93.20592059611624,43.642555609809506],[93.20361048326907,43.64269334581212],[93.2022525188595,43.641744723850366],[93.20114357788708,43.64234734429306],[93.2000793960296,43.64241075303869],[93.19953957398087,43.64123440212728],[93.19669642076917,43.63915188259597],[93.19854375149839,43.6375012207036],[93.19822718248787,43.63732252332949],[93.19476581095995,43.637528822157606],[93.19238842380724,43.631984727648046],[93.19245922458867,43.6307966444233],[93.18952384047407,43.6280555555561],[93.18718388821702,43.62825527615064],[93.1870742962031,43.63009677463157],[93.18760109741834,43.63180318196663],[93.1893770848319,43.635424465603876],[93.19017542467543,43.63656724717936],[93.19076597372054,43.63848002115952],[93.19205150974477,43.640853949653376],[93.19329798326902,43.64237318250923],[93.19322392727963,43.64361626519161],[93.19467059611645,43.64651997884164],[93.19538457181102,43.64883246527825],[93.1977416139116,43.6528932020405],[93.19843443075166,43.65513651530006],[93.20058585219266,43.65957553439728],[93.20142244073452,43.65862182617241],[93.20240822632462,43.656653849284396],[93.20244918769635,43.655965508355564],[93.20140263821696,43.65461520724875],[93.20248689385949,43.65217820909339],[93.20351608222757,43.65170572916725],[93.20357440471008,43.6507284206819],[93.20305411391138,43.64927829318634],[93.20439281833865,43.647646687826125],[93.20509187432822,43.64612352159338],[93.2070856894324,43.64520840115068],[93.206568653842,43.644256930881625],[93.20664650757459,43.64295010036949]]]}},{"type":"Feature","id":"hydrolakes:172076","properties":{"Hylak_id":172076,"Lake_name":"","Country":"China","Continent":"Asia","Poly_src":"SWBD","Lake_type":1,"Grand_id":0,"Lake_area":1.78,"Shore_len":5.45,"Shore_dev":1.15,"Vol_total":4.35,"Vol_res":0.0,"Vol_src":3,"Depth_avg":2.4,"Dis_avg":0.0,"Res_time":-1.0,"Elevation":620,"Slope_100":1.16,"Wshd_area":363.7,"Pour_long":93.403882,"Pour_lat":42.653044,"source_id":"hydrolakes:172076","label":""},"geometry":{"type":"Polygon","coordinates":[[[93.4207659737205,42.65580498589458],[93.42020634915451,42.65375000000046],[93.42068215210594,42.65287434895873],[93.42145445028314,42.64515462239643],[93.42104429403292,42.64513020833374],[93.42033710002283,42.646242133246915],[93.41926233873801,42.64582912868963],[93.41833324802604,42.64380466037386],[93.41744837389405,42.64318657769144],[93.41578170722755,42.642353244358105],[93.41313495158522,42.64194444444496],[93.41262876668924,42.64210069444499],[93.41105351712338,42.643863661024795],[93.4089989381302,42.644899359809415],[93.40588668769635,42.64770833333387],[93.40462746460605,42.649333224826876],[93.40396313083858,42.652188856337204],[93.40324671373781,42.65321451822956],[93.40383726278293,42.65374213324702],[93.4041709216371,42.65517645941884],[93.40585440688022,42.65507609049524],[93.40970369073437,42.65627807617227],[93.41689281833857,42.6567976888025],[93.41912182224496,42.65727403428866],[93.4207659737205,42.65580498589458]]]}},{"type":"Feature","id":"hydrolakes:172417","properties":{"Hylak_id":172417,"Lake_name":"","Country":"China","Continent":"Asia","Poly_src":"SWBD","Lake_type":1,"Grand_id":0,"Lake_area":3.29,"Shore_len":13.75,"Shore_dev":2.14,"Vol_total":12.36,"Vol_res":0.0,"Vol_src":3,"Depth_avg":3.8,"Dis_avg":0.005,"Res_time":28605.2,"Elevation":859,"Slope_100":1.55,"Wshd_area":179.1,"Pour_long":91.486914,"Pour_lat":41.287957,"source_id":"hydrolakes:172417","label":""},"geometry":{"type":"Polygon","coordinates":[[[91.52717059611615,41.29625786675376],[91.52939281833835,41.29542453342043],[91.53104483656756,41.29401909722253],[91.53262998739223,41.293991699219134],[91.53465838908488,41.29326388888927],[91.53715486260927,41.29151991102475],[91.53844840102062,41.29121907552127],[91.53986441664574,41.291303439670514],[91.54288009589948,41.289456922743454],[91.54326597372051,41.2881431749135],[91.54264192315605,41.28758544921914],[91.54112513170645,41.2876757812503],[91.53980555162843,41.28720241970535],[91.53705625692345,41.287789713542],[91.53178607463184,41.28747558593784],[91.52606843682815,41.285946451823236],[91.52514097372028,41.286001790364935],[91.52376117228812,41.28445746527814],[91.52279139147203,41.284984266493495],[91.52202384047376,41.28388888888924],[91.52060796048244,41.284919976128776],[91.51757329251376,41.285486382378906],[91.51689281833836,41.28671576605933],[91.51786151408504,41.28810275607685],[91.51675108114222,41.290640733507246],[91.51522615167187,41.28957546658029],[91.51409930705375,41.289313422309306],[91.51378517944966,41.28896158854195],[91.51325403795641,41.28667914496566],[91.51188562975358,41.28580891927112],[91.510150061177,41.2865199110247],[91.50693974759184,41.28427734375049],[91.50607277710583,41.28432915581635],[91.50521828491827,41.28386474609408],[91.5031401056649,41.28491102430587],[91.50109719116836,41.28489990234414],[91.49994837389391,41.285702311198236],[91.49723149563886,41.286867404514226],[91.49474221069966,41.28648871527827],[91.49363720310402,41.28688503689273],[91.49207090536112,41.286791720920576],[91.49105433092524,41.28623942057334],[91.48979375149827,41.2865768771706],[91.48832253296519,41.28648925781283],[91.48605948500517,41.2874419487851],[91.48665640883326,41.28854085286491],[91.48975333266134,41.28817491319484],[91.4909341594842,41.288245442708615],[91.49293163669773,41.28908338758714],[91.49477964559549,41.29008761935796],[91.49662819702763,41.29215657552112],[91.49800270874653,41.29207465277807],[91.49885245375509,41.29266818576417],[91.49877351495314,41.29399278428849],[91.49924077298243,41.29441026475729],[91.50161504056075,41.29485324435797],[91.5021838882169,41.295162489149675],[91.50334111477946,41.295093587239876],[91.50453265666312,41.29321994357673],[91.5071634075311,41.291791720920514],[91.50854375149805,41.29292453342049],[91.50925040297398,41.29318657769136],[91.51021041816483,41.29258761935802],[91.50942971069952,41.29188991970517],[91.51030861694954,41.29027262369823],[91.51175474325169,41.291282552083715],[91.51284849325168,41.291217447917006],[91.51433666599468,41.29225694444483],[91.51521041816488,41.293757866753936],[91.51772615167181,41.294297688802374],[91.51936514906765,41.295442708333724],[91.52020024563888,41.29539279513921],[91.5216051393021,41.296261393229486],[91.5228042766717,41.29598551432326],[91.52377148044786,41.297068142361525],[91.5247095229825,41.297498643663516],[91.52717059611615,41.29625786675376]],[[91.53170103231417,41.292073025174034],[91.53106192641138,41.29071343316019],[91.5328571738072,41.28916666666703],[91.53386154121159,41.29043375651071],[91.53380362563001,41.29115478515661],[91.53170103231417,41.292073025174034]]]}},{"type":"Feature","id":"hydrolakes:1361079","properties":{"Hylak_id":1361079,"Lake_name":"","Country":"Mongolia","Continent":"Asia","Poly_src":"SWBD","Lake_type":1,"Grand_id":0,"Lake_area":0.33,"Shore_len":2.94,"Shore_dev":1.44,"Vol_total":0.93,"Vol_res":0.0,"Vol_src":3,"Depth_avg":2.8,"Dis_avg":0.007,"Res_time":1540.7,"Elevation":916,"Slope_100":1.31,"Wshd_area":97.0,"Pour_long":94.291079,"Pour_lat":44.630452,"source_id":"hydrolakes:1361079","label":""},"geometry":{"type":"Polygon","coordinates":[[[94.29159930705396,44.62403559049028],[94.2903327597449,44.62404076046471],[94.289115040561,44.62578415446876],[94.28940366903316,44.62752948655094],[94.29083351929364,44.63144255028891],[94.29210115167189,44.633435497284665],[94.2947777467241,44.634548793866145],[94.29687138821726,44.63467357893842],[94.2969348647797,44.633605946302964],[94.29639477146355,44.632428927422154],[94.29494837389427,44.63124218755354],[94.29386438951911,44.63074471076385],[94.29352747545664,44.6282261806071],[94.29243182658524,44.62681225193933],[94.29251971721027,44.62533646689593],[94.2921475383908,44.62452536794933],[94.29159930705396,44.62403559049028]]]}},{"type":"Feature","id":"hydrolakes:1361119","properties":{"Hylak_id":1361119,"Lake_name":"","Country":"China","Continent":"Asia","Poly_src":"SWBD","Lake_type":1,"Grand_id":0,"Lake_area":0.82,"Shore_len":5.93,"Shore_dev":1.85,"Vol_total":2.82,"Vol_res":0.0,"Vol_src":3,"Depth_avg":3.5,"Dis_avg":0.098,"Res_time":333.0,"Elevation":739,"Slope_100":1.55,"Wshd_area":854.9,"Pour_long":94.044118,"Pour_lat":44.607389,"source_id":"hydrolakes:1361119","label":""},"geometry":{"type":"Polygon","coordinates":[[[94.03994593248797,44.61292196273865],[94.04187952623789,44.611244703929174],[94.04336878405047,44.610369271173],[94.04424579142915,44.60942262013816],[94.04493508179343,44.60756257375152],[94.04452384047408,44.60638888888951],[94.0435461929045,44.606522481706975],[94.04133482137689,44.6079219627386],[94.0396179702484,44.60846547868573],[94.0385931221582,44.6095715162495],[94.03710413561288,44.610465931363194],[94.03719148370334,44.61266754998155],[94.03552074802616,44.61260132895637],[94.03330123847746,44.614805022346275],[94.03132397068231,44.61763359387771],[94.0305823257172,44.61920513153137],[94.02938712172431,44.62076376915053],[94.02799687649849,44.62205185678329],[94.02680574151577,44.62577710363655],[94.02689146200191,44.62794393062654],[94.027755448547,44.627909692659046],[94.03256881660263,44.62341040505373],[94.0333427423837,44.62141299035869],[94.03518708917193,44.6197041172457],[94.03564254707118,44.61826499833063],[94.03742721504011,44.61661161634714],[94.03803322632484,44.61449798372115],[94.03937952623801,44.613189148373635],[94.03994593248797,44.61292196273865]]]}},{"type":"Feature","id":"hydrolakes:1361263","properties":{"Hylak_id":1361263,"Lake_name":"","Country":"China","Continent":"Asia","Poly_src":"SWBD","Lake_type":1,"Grand_id":0,"Lake_area":0.27,"Shore_len":2.71,"Shore_dev":1.47,"Vol_total":0.7,"Vol_res":0.0,"Vol_src":3,"Depth_avg":2.6,"Dis_avg":0.004,"Res_time":2023.6,"Elevation":955,"Slope_100":1.18,"Wshd_area":5.2,"Pour_long":91.196875,"Pour_lat":44.530703,"source_id":"hydrolakes:1361263","label":""},"geometry":{"type":"Polygon","coordinates":[[[91.2024154827264,44.52903678894103],[91.20492816447569,44.5290530395514],[91.20531709405446,44.52791666666724],[91.20507939602942,44.527222222222804],[91.1993274429044,44.52740393744631],[91.19883217651983,44.52791944715773],[91.19688217109456,44.528191663954544],[91.19660649563878,44.529322560628884],[91.19527342000947,44.53060336642858],[91.19466550985311,44.531530558268855],[91.19356043444088,44.532066667345475],[91.19353771579927,44.53317999098107],[91.19494315199717,44.53320866902726],[91.19575892076898,44.53235965304981],[91.19830096720983,44.53208346896764],[91.1996352635424,44.53069468180399],[91.20188786770927,44.530419430203494],[91.20187118476645,44.52960333082484],[91.2024154827264,44.52903678894103]]]}},{"type":"Feature","id":"hydrolakes:1361424","properties":{"Hylak_id":1361424,"Lake_name":"","Country":"China","Continent":"Asia","Poly_src":"SWBD","Lake_type":1,"Grand_id":0,"Lake_area":0.24,"Shore_len":2.36,"Shore_dev":1.35,"Vol_total":0.65,"Vol_res":0.0,"Vol_src":3,"Depth_avg":2.7,"Dis_avg":0.0,"Res_time":-1.0,"Elevation":625,"Slope_100":1.35,"Wshd_area":1688.7,"Pour_long":94.130187,"Pour_lat":44.42285,"source_id":"hydrolakes:1361424","label":""},"geometry":{"type":"Polygon","coordinates":[[[94.1335296455955,44.425568644206294],[94.13119050714073,44.420833333333974],[94.12854131009209,44.420961897108896],[94.12608118639429,44.42156085544224],[94.12439525974486,44.42393851386231],[94.1250167332692,44.424850785997705],[94.12606192641164,44.424593658447805],[94.12723732788731,44.42376032511447],[94.1286042441198,44.42409603542808],[94.13013988865123,44.42478134155334],[94.13231436781774,44.42648415459587],[94.13381908786988,44.426605072022085],[94.1335296455955,44.425568644206294]]]}},{"type":"Feature","id":"hydrolakes:1361497","properties":{"Hylak_id":1361497,"Lake_name":"","Country":"Mongolia","Continent":"Asia","Poly_src":"SWBD","Lake_type":1,"Grand_id":0,"Lake_area":0.44,"Shore_len":2.85,"Shore_dev":1.21,"Vol_total":1.76,"Vol_res":0.0,"Vol_src":3,"Depth_avg":4.0,"Dis_avg":0.0,"Res_time":-1.0,"Elevation":1056,"Slope_100":2.55,"Wshd_area":2.1,"Pour_long":94.989661,"Pour_lat":44.367313,"source_id":"hydrolakes:1361497","label":""},"geometry":{"type":"Polygon","coordinates":[[[94.99381908787007,44.36070476955899],[94.99270797675882,44.36068411933121],[94.99169018162002,44.36125200059752],[94.98887985175878,44.36157418145143],[94.98701190471036,44.362616238064845],[94.98338180488372,44.36291965060826],[94.98217303752278,44.36396118164129],[94.98261628839089,44.364572872586336],[94.98456236043938,44.365014936659634],[94.98612431790463,44.365711992052525],[94.98799497762695,44.367883097331344],[94.9910602988075,44.368129391141],[94.99188440905044,44.36741926405233],[94.99215893162022,44.366211174859586],[94.99402145332147,44.363225979275796],[94.99381908787007,44.36070476955899]]]}},{"type":"Feature","id":"hydrolakes:1361617","properties":{"Hylak_id":1361617,"Lake_name":"","Country":"China","Continent":"Asia","Poly_src":"SWBD","Lake_type":1,"Grand_id":0,"Lake_area":0.39,"Shore_len":2.53,"Shore_dev":1.14,"Vol_total":1.17,"Vol_res":0.0,"Vol_src":3,"Depth_avg":3.0,"Dis_avg":0.0,"Res_time":-1.0,"Elevation":666,"Slope_100":1.42,"Wshd_area":938.3,"Pour_long":94.403125,"Pour_lat":44.278097,"source_id":"hydrolakes:1361617","label":""},"geometry":{"type":"Polygon","coordinates":[[[94.40636520332157,44.27882632785429],[94.40544262302609,44.277375861274436],[94.40257939602958,44.27694444444501],[94.40065095635947,44.27741580539333],[94.39993345418952,44.2782188585075],[94.39850251885957,44.278133578830875],[94.39800392944977,44.27883093939943],[94.39869918769637,44.28011054145037],[94.39712095418946,44.28152075873538],[94.39718497328653,44.28259412977485],[94.40199535740123,44.28290886773061],[94.40718009047401,44.28140411377012],[94.40798819594295,44.280365295410775],[94.40636520332157,44.27882632785429]]]}},{"type":"Feature","id":"hydrolakes:1362145","properties":{"Hylak_id":1362145,"Lake_name":"","Country":"China","Continent":"Asia","Poly_src":"SWBD","Lake_type":1,"Grand_id":0,"Lake_area":0.6,"Shore_len":3.44,"Shore_dev":1.26,"Vol_total":2.47,"Vol_res":0.0,"Vol_src":3,"Depth_avg":4.1,"Dis_avg":0.49,"Res_time":58.3,"Elevation":302,"Slope_100":2.48,"Wshd_area":1762.1,"Pour_long":94.815001,"Pour_lat":43.899045,"source_id":"hydrolakes:1362145","label":""},"geometry":{"type":"Polygon","coordinates":[[[94.82243019898095,43.89907721625491],[94.82142759481451,43.89729017469682],[94.82055791165459,43.89777547200589],[94.81959002971013,43.89734354655019],[94.81924606269632,43.896944444444955],[94.817570715474,43.897084486220194],[94.81555791165476,43.897690429688055],[94.81409686564763,43.898739691840944],[94.81374801582137,43.89952168782605],[94.81118616686308,43.90249538845535],[94.8080063708561,43.90523471408471],[94.80855595852972,43.906239691840824],[94.81161748196706,43.90598253038246],[94.81728154446733,43.90480102539112],[94.81938169637687,43.90329271104656],[94.81968714342548,43.90128845214912],[94.82106897936308,43.89968451605955],[94.82243019898095,43.89907721625491]]]}},{"type":"Feature","id":"hydrolakes:1362186","properties":{"Hylak_id":1362186,"Lake_name":"","Country":"China","Continent":"Asia","Poly_src":"SWBD","Lake_type":1,"Grand_id":0,"Lake_area":0.15,"Shore_len":2.21,"Shore_dev":1.6,"Vol_total":0.32,"Vol_res":0.0,"Vol_src":3,"Depth_avg":2.1,"Dis_avg":0.34,"Res_time":11.0,"Elevation":332,"Slope_100":0.95,"Wshd_area":1480.1,"Pour_long":94.88125,"Pour_lat":43.868616,"source_id":"hydrolakes:1362186","label":""},"geometry":{"type":"Polygon","coordinates":[[[94.88409957832141,43.86818664550833],[94.88493291165486,43.867804158529225],[94.88435456964072,43.867321506076905],[94.88171079793932,43.867292751736784],[94.88057690036999,43.86790886773059],[94.87968443075192,43.86754564073402],[94.88121817641166,43.86617519802576],[94.88078143596016,43.86568664550839],[94.87765263821717,43.86539299858998],[94.8773016182518,43.865000000000634],[94.87633699151576,43.865179985894656],[94.87672381877263,43.86636067708395],[94.87828143596022,43.867075534397316],[94.87878653578673,43.868710937500566],[94.8806344090504,43.86985331217505],[94.88223000366884,43.86942674424972],[94.88409957832141,43.86818664550833]]]}},{"type":"Feature","id":"hydrolakes:1362330","properties":{"Hylak_id":1362330,"Lake_name":"","Country":"China","Continent":"Asia","Poly_src":"SWBD","Lake_type":1,"Grand_id":0,"Lake_area":0.61,"Shore_len":4.04,"Shore_dev":1.46,"Vol_total":5.11,"Vol_res":0.0,"Vol_src":3,"Depth_avg":8.4,"Dis_avg":0.0,"Res_time":-1.0,"Elevation":1355,"Slope_100":10.75,"Wshd_area":462.5,"Pour_long":90.268713,"Pour_lat":43.796175,"source_id":"hydrolakes:1362330","label":""},"geometry":{"type":"Polygon","coordinates":[[[90.27382626797754,43.78375230577308],[90.27396828491828,43.781666666667206],[90.27206474250545,43.78470601399795],[90.27074416212906,43.787816908095124],[90.26870717312903,43.78880520290852],[90.26799328220551,43.78985833062114],[90.26772106540858,43.79180833604653],[90.2668877320753,43.794242960612564],[90.26848440328581,43.79651224772192],[90.27203682739861,43.79658474392414],[90.27343928813269,43.79590433756567],[90.27453235996421,43.79378248426718],[90.27272106540858,43.7933409288201],[90.27383217651982,43.79180833604653],[90.27410439331675,43.790691663954476],[90.27571491611673,43.78750000000048],[90.27467836114425,43.784875284831344],[90.27382626797754,43.78375230577308]]]}},{"type":"Feature","id":"hydrolakes:1362629","properties":{"Hylak_id":1362629,"Lake_name":"","Country":"China","Continent":"Asia","Poly_src":"SWBD","Lake_type":1,"Grand_id":0,"Lake_area":0.3,"Shore_len":3.74,"Shore_dev":1.92,"Vol_total":0.55,"Vol_res":0.0,"Vol_src":3,"Depth_avg":1.8,"Dis_avg":0.112,"Res_time":56.4,"Elevation":1679,"Slope_100":0.55,"Wshd_area":2265.4,"Pour_long":93.244372,"Pour_lat":43.62681,"source_id":"hydrolakes:1362629","label":""},"geometry":{"type":"Polygon","coordinates":[[[93.24836878405034,43.632474636502366],[93.24764233005732,43.63169060601183],[93.2468808825746,43.632093573676855],[93.24583243422393,43.62874172634599],[93.24660174846002,43.62791137695365],[93.24769414212335,43.62756557888514],[93.2466109715503,43.62656195746587],[93.2463348213767,43.62568915473145],[93.24522371026569,43.624074435764385],[93.24558775106436,43.623246392144665],[93.24853371460591,43.62211507161521],[93.24855731486662,43.62152282714891],[93.24813495158514,43.62111111111159],[93.24711607137681,43.62125033908467],[93.24415844333856,43.622513834635924],[93.24378138170675,43.623312988281725],[93.24168014472735,43.624854125977095],[93.24354320896356,43.62756171332512],[93.24385136868591,43.62917650010911],[93.24657923326907,43.634022488064886],[93.24772371026557,43.63375528971409],[93.24836878405034,43.632474636502366]]]}},{"type":"Feature","id":"hydrolakes:1362983","properties":{"Hylak_id":1362983,"Lake_name":"","Country":"China","Continent":"Asia","Poly_src":"SWBD","Lake_type":1,"Grand_id":0,"Lake_area":0.42,"Shore_len":2.84,"Shore_dev":1.23,"Vol_total":1.34,"Vol_res":0.0,"Vol_src":3,"Depth_avg":3.2,"Dis_avg":0.023,"Res_time":674.6,"Elevation":1968,"Slope_100":1.57,"Wshd_area":206.9,"Pour_long":93.69405,"Pour_lat":43.465649,"source_id":"hydrolakes:1362983","label":""},"geometry":{"type":"Polygon","coordinates":[[[93.70032570679342,43.46524780273484],[93.70114086521369,43.462739664714036],[93.70063495158524,43.46194444444501],[93.6974150080087,43.46298366970541],[93.69463316122062,43.464631483290475],[93.69326787259217,43.464635823568244],[93.69188983439761,43.46564249674526],[93.69162263604693,43.46612291124177],[93.69217819160241,43.467068006728084],[93.69277525106423,43.469156358507405],[93.69350143378989,43.46973795572973],[93.69422273370321,43.47092529296924],[93.69521313083857,43.47171847873318],[93.696558888217,43.4709273274745],[93.69754792901574,43.46969224717935],[93.69835060913721,43.467216525608194],[93.69946172024828,43.466326768663635],[93.70032570679342,43.46524780273484]]]}},{"type":"Feature","id":"hydrolakes:1363201","properties":{"Hylak_id":1363201,"Lake_name":"","Country":"China","Continent":"Asia","Poly_src":"SWBD","Lake_type":1,"Grand_id":0,"Lake_area":0.84,"Shore_len":4.42,"Shore_dev":1.36,"Vol_total":2.84,"Vol_res":0.0,"Vol_src":3,"Depth_avg":3.4,"Dis_avg":0.009,"Res_time":3648.7,"Elevation":911,"Slope_100":1.45,"Wshd_area":38.7,"Pour_long":91.688152,"Pour_lat":43.347416,"source_id":"hydrolakes:1363201","label":""},"geometry":{"type":"Polygon","coordinates":[[[91.68070398912846,43.36099283854219],[91.68238313409364,43.3602221679692],[91.68289745701026,43.35927585178018],[91.68332321113371,43.356092664931],[91.68383726278279,43.35514675564292],[91.68430641968405,43.35313001844679],[91.68576597372038,43.35096435546927],[91.6885594850051,43.34792453342061],[91.68931754164578,43.34644070095544],[91.68383644898086,43.34676744249185],[91.68313495158503,43.346111111111725],[91.6818141508038,43.346357693143034],[91.68132152927586,43.346797688802724],[91.68052156182802,43.34887871636329],[91.6760677586596,43.35278550889808],[91.6759908543628,43.35407552083399],[91.67633414320835,43.355187581380676],[91.67783194594261,43.35652587890672],[91.67854131009182,43.35783121744839],[91.67926857788706,43.36095703125051],[91.68070398912846,43.36099283854219]]]}},{"type":"Feature","id":"hydrolakes:1363424","properties":{"Hylak_id":1363424,"Lake_name":"","Country":"China","Continent":"Asia","Poly_src":"SWBD","Lake_type":1,"Grand_id":0,"Lake_area":0.27,"Shore_len":3.23,"Shore_dev":1.76,"Vol_total":1.91,"Vol_res":0.0,"Vol_src":3,"Depth_avg":7.1,"Dis_avg":0.098,"Res_time":225.6,"Elevation":1058,"Slope_100":9.77,"Wshd_area":708.3,"Pour_long":90.146931,"Pour_lat":43.185431,"source_id":"hydrolakes:1363424","label":""},"geometry":{"type":"Polygon","coordinates":[[[90.1470898553996,43.18687079535641],[90.14831039904891,43.18539523654567],[90.14813495158484,43.1836111111117],[90.14655540041792,43.18374308268267],[90.14507329410304,43.18546346028705],[90.14550784348785,43.18624226888073],[90.14546819739206,43.18673570421055],[90.14411379482351,43.18623833550396],[90.14348963909009,43.1862885199659],[90.14295105754655,43.187495388455375],[90.1430163527462,43.18830810546922],[90.14510830322234,43.19011040581648],[90.14548573281377,43.19103881836003],[90.14490775001701,43.19153672960118],[90.14495243946055,43.19209296332525],[90.14431214371649,43.192378607856426],[90.14311336837875,43.193770073785174],[90.14506123356676,43.194990098741755],[90.14612418465504,43.194236382378904],[90.14599509635894,43.192629937066556],[90.14687964677142,43.19186781141542],[90.14736250399892,43.19026407877658],[90.1470898553996,43.18687079535641]]]}},{"type":"Feature","id":"hydrolakes:1363509","properties":{"Hylak_id":1363509,"Lake_name":"","Country":"China","Continent":"Asia","Poly_src":"SWBD","Lake_type":1,"Grand_id":0,"Lake_area":0.47,"Shore_len":5.94,"Shore_dev":2.43,"Vol_total":4.34,"Vol_res":0.0,"Vol_src":3,"Depth_avg":9.2,"Dis_avg":0.0,"Res_time":-1.0,"Elevation":1384,"Slope_100":13.94,"Wshd_area":821.8,"Pour_long":93.769926,"Pour_lat":43.107454,"source_id":"hydrolakes:1363509","label":""},"geometry":{"type":"Polygon","coordinates":[[[93.77872794203665,43.11183648003515],[93.78114357788712,43.111692437066495],[93.7822446521061,43.11229085286516],[93.78542065036987,43.11296929253524],[93.78604375149831,43.11241251627655],[93.78522615167196,43.11179768880254],[93.78116853448438,43.11102810329925],[93.77607765991854,43.11066826714455],[93.7752500231997,43.1111180284293],[93.77296730835599,43.109731716580484],[93.77085983222753,43.10784884982695],[93.77035717380733,43.1063888888894],[93.76914325236629,43.10661539713607],[93.76907082398094,43.10783298068628],[93.76993264038714,43.10931342230947],[93.77160690253999,43.11061916775219],[93.77232955878998,43.1121941460508],[93.77501998847754,43.11352742513071],[93.77661504056096,43.114019911024855],[93.77958894464075,43.11632473415847],[93.78210739082118,43.117579345703575],[93.78382749715803,43.11899061414988],[93.78592629273106,43.120131022135865],[93.78709464125524,43.11968627929747],[93.78754982788735,43.11884860568625],[93.7857895739811,43.11748440212716],[93.78114656182834,43.1148543294276],[93.77802698717534,43.11412841796931],[93.77794262302604,43.11271525065155],[93.77872794203665,43.11183648003515]]]}},{"type":"Feature","id":"hydrolakes:1363546","properties":{"Hylak_id":1363546,"Lake_name":"","Country":"China","Continent":"Asia","Poly_src":"SWBD","Lake_type":1,"Grand_id":0,"Lake_area":0.31,"Shore_len":2.46,"Shore_dev":1.25,"Vol_total":2.1,"Vol_res":0.0,"Vol_src":3,"Depth_avg":6.8,"Dis_avg":0.001,"Res_time":24332.1,"Elevation":3300,"Slope_100":8.69,"Wshd_area":24.9,"Pour_long":94.186933,"Pour_lat":43.080687,"source_id":"hydrolakes:1363546","label":""},"geometry":{"type":"Polygon","coordinates":[[[94.19551884915472,43.081661105686294],[94.1935342571407,43.08010674370718],[94.19210413561302,43.08022176106823],[94.19078414863384,43.07957302517406],[94.18911178535245,43.079267985026604],[94.18841272936294,43.078055555556034],[94.18667200670677,43.07823310004386],[94.18612241903315,43.080752631293876],[94.18681089559556,43.08229546441021],[94.18883970418949,43.08290635850739],[94.18978561347745,43.08343410915842],[94.19245081530045,43.08373969184072],[94.19342710653319,43.084284396702],[94.19401521417188,43.08433159722273],[94.19520309394636,43.083801676432756],[94.19523293335624,43.08342732747445],[94.19432364516155,43.08264390733552],[94.19546757962331,43.08229953342061],[94.19551884915472,43.081661105686294]]]}},{"type":"Feature","id":"hydrolakes:1363560","properties":{"Hylak_id":1363560,"Lake_name":"","Country":"China","Continent":"Asia","Poly_src":"SWBD","Lake_type":1,"Grand_id":0,"Lake_area":0.13,"Shore_len":1.55,"Shore_dev":1.2,"Vol_total":0.89,"Vol_res":0.0,"Vol_src":3,"Depth_avg":6.8,"Dis_avg":0.001,"Res_time":10297.5,"Elevation":3588,"Slope_100":11.15,"Wshd_area":20.5,"Pour_long":94.269936,"Pour_lat":43.07194,"source_id":"hydrolakes:1363560","label":""},"geometry":{"type":"Polygon","coordinates":[[[94.27295754273092,43.071288519965776],[94.27257939602958,43.07083333333378],[94.26969962172399,43.07097018771748],[94.26828659004013,43.071841769748744],[94.27107603231457,43.07351182725745],[94.27573559177614,43.07398681640677],[94.2758617310991,43.07274983724011],[94.27295754273092,43.071288519965776]]]}},{"type":"Feature","id":"hydrolakes:1363565","properties":{"Hylak_id":1363565,"Lake_name":"","Country":"China","Continent":"Asia","Poly_src":"SWBD","Lake_type":1,"Grand_id":0,"Lake_area":0.11,"Shore_len":1.49,"Shore_dev":1.28,"Vol_total":0.77,"Vol_res":0.0,"Vol_src":3,"Depth_avg":7.1,"Dis_avg":0.001,"Res_time":8856.7,"Elevation":3565,"Slope_100":12.94,"Wshd_area":23.5,"Pour_long":94.255208,"Pour_lat":43.068093,"source_id":"hydrolakes:1363565","label":""},"geometry":{"type":"Polygon","coordinates":[[[94.25493508179346,43.06708862304731],[94.25133482137693,43.06711954752649],[94.25235478665462,43.06811442057341],[94.25672978665489,43.069571668837455],[94.2581618070542,43.06962849934945],[94.25910174846035,43.06918470594667],[94.25872088908517,43.06816134982682],[94.25720748847749,43.06736056857687],[94.25493508179346,43.06708862304731]]]}},{"type":"Feature","id":"hydrolakes:1363803","properties":{"Hylak_id":1363803,"Lake_name":"","Country":"China","Continent":"Asia","Poly_src":"SWBD","Lake_type":1,"Grand_id":0,"Lake_area":0.79,"Shore_len":4.21,"Shore_dev":1.34,"Vol_total":2.97,"Vol_res":0.0,"Vol_src":3,"Depth_avg":3.8,"Dis_avg":0.0,"Res_time":-1.0,"Elevation":502,"Slope_100":1.89,"Wshd_area":8.5,"Pour_long":92.819792,"Pour_lat":42.885199,"source_id":"hydrolakes:1363803","label":""},"geometry":{"type":"Polygon","coordinates":[[[92.81786639689761,42.886264377170676],[92.81860098891138,42.885704752604624],[92.81914650757454,42.88692735460114],[92.82323532050884,42.88779500325575],[92.82409686564768,42.88679524739632],[92.82538240167179,42.88599012586849],[92.8272630982865,42.886680772569946],[92.82793719767892,42.8851703559032],[92.82879847155033,42.88442843967067],[92.82996437866848,42.88390814887208],[92.82983118639407,42.882250434028265],[92.83048575453654,42.88070773654556],[92.82980161825196,42.87916666666723],[92.82706561564754,42.88020914713587],[92.82558910740113,42.88009060329915],[92.82409171156763,42.880640462240024],[92.82133970418914,42.87957302517418],[92.81951922892893,42.8793158637157],[92.8184379572275,42.880570882161976],[92.81643573283509,42.88424479166713],[92.81528447415462,42.887155897352955],[92.81666413995322,42.88818413628519],[92.81786639689761,42.886264377170676]]]}},{"type":"Feature","id":"hydrolakes:1364258","properties":{"Hylak_id":1364258,"Lake_name":"","Country":"China","Continent":"Asia","Poly_src":"SWBD","Lake_type":1,"Grand_id":0,"Lake_area":0.22,"Shore_len":1.95,"Shore_dev":1.18,"Vol_total":0.47,"Vol_res":0.0,"Vol_src":3,"Depth_avg":2.1,"Dis_avg":0.005,"Res_time":1084.2,"Elevation":658,"Slope_100":0.87,"Wshd_area":2151.2,"Pour_long":93.84885,"Pour_lat":42.506855,"source_id":"hydrolakes:1364258","label":""},"geometry":{"type":"Polygon","coordinates":[[[93.85244701755755,42.5057070583772],[93.85230161825172,42.505555555555986],[93.84716544203661,42.50572903103341],[93.84754277493579,42.506840142144654],[93.84914623630743,42.509003092448324],[93.8522666247622,42.50906670464451],[93.85456859958867,42.50850558810811],[93.8568822389114,42.50738308376788],[93.85636954359916,42.506813286675765],[93.85244701755755,42.5057070583772]]]}},{"type":"Feature","id":"hydrolakes:1364545","properties":{"Hylak_id":1364545,"Lake_name":"","Country":"China","Continent":"Asia","Poly_src":"SWBD","Lake_type":1,"Grand_id":0,"Lake_area":0.24,"Shore_len":2.31,"Shore_dev":1.33,"Vol_total":0.73,"Vol_res":0.0,"Vol_src":3,"Depth_avg":3.1,"Dis_avg":0.002,"Res_time":4236.9,"Elevation":1063,"Slope_100":1.77,"Wshd_area":10.0,"Pour_long":94.890779,"Pour_lat":42.210861,"source_id":"hydrolakes:1364545","label":""},"geometry":{"type":"Polygon","coordinates":[[[94.89610695679352,42.21324571397605],[94.89885652276587,42.21322998046918],[94.89968822849488,42.21226426866377],[94.89964753839075,42.211754014757446],[94.89681116686313,42.210359429253856],[94.89685999498806,42.20885796441013],[94.8950793960297,42.20833333333377],[94.89326353231439,42.20846191406292],[94.89155183526572,42.2090310329865],[94.89166956530045,42.210499674479536],[94.89010163995323,42.210373806424],[94.88967303752264,42.211149088542015],[94.89334816773106,42.21152398003517],[94.89610695679352,42.21324571397605]]]}},{"type":"Feature","id":"hydrolakes:1364601","properties":{"Hylak_id":1364601,"Lake_name":"","Country":"China","Continent":"Asia","Poly_src":"SWBD","Lake_type":1,"Grand_id":0,"Lake_area":0.2,"Shore_len":2.01,"Shore_dev":1.28,"Vol_total":0.67,"Vol_res":0.0,"Vol_src":3,"Depth_avg":3.4,"Dis_avg":0.001,"Res_time":7702.4,"Elevation":1160,"Slope_100":2.36,"Wshd_area":4.5,"Pour_long":94.96875,"Pour_lat":42.136537,"source_id":"hydrolakes:1364601","label":""},"geometry":{"type":"Polygon","coordinates":[[[94.9726222562727,42.14019504123303],[94.97325051148118,42.1396733940976],[94.97333243422412,42.13887044270871],[94.97106463908523,42.13836751302125],[94.9714096911685,42.13773220486149],[94.97242748630737,42.136886664496956],[94.9718979724185,42.13651502821216],[94.97017054186313,42.13625759548654],[94.96813495158523,42.13527777777813],[94.96721806790481,42.135441080729606],[94.96550908352981,42.13686089409765],[94.96687193075195,42.13820719401093],[94.9691576295366,42.13992675781287],[94.97070765123806,42.13976888020869],[94.9726222562727,42.14019504123303]]]}},{"type":"Feature","id":"hydrolakes:1364624","properties":{"Hylak_id":1364624,"Lake_name":"","Country":"China","Continent":"Asia","Poly_src":"SWBD","Lake_type":1,"Grand_id":0,"Lake_area":0.1,"Shore_len":1.56,"Shore_dev":1.39,"Vol_total":0.16,"Vol_res":0.0,"Vol_src":3,"Depth_avg":1.6,"Dis_avg":0.001,"Res_time":1847.0,"Elevation":928,"Slope_100":0.59,"Wshd_area":10.2,"Pour_long":92.025512,"Pour_lat":42.104762,"source_id":"hydrolakes:1364624","label":""},"geometry":{"type":"Polygon","coordinates":[[[92.02718144681069,42.10403076171923],[92.02674606269608,42.103333333333694],[92.02458067098604,42.10414903428864],[92.02343022610756,42.10496500651078],[92.02051776408507,42.10584174262209],[92.0204042386946,42.107253417969275],[92.0226569784947,42.107434353299084],[92.02465242120303,42.10568413628516],[92.02611902819086,42.1051274956601],[92.02718144681069,42.10403076171923]]]}},{"type":"Feature","id":"hydrolakes:1364713","properties":{"Hylak_id":1364713,"Lake_name":"","Country":"China","Continent":"Asia","Poly_src":"SWBD","Lake_type":1,"Grand_id":0,"Lake_area":0.1,"Shore_len":1.55,"Shore_dev":1.37,"Vol_total":0.21,"Vol_res":0.0,"Vol_src":3,"Depth_avg":2.0,"Dis_avg":0.0,"Res_time":-1.0,"Elevation":1052,"Slope_100":1.0,"Wshd_area":1.1,"Pour_long":91.367708,"Pour_lat":42.005197,"source_id":"hydrolakes:1364713","label":""},"geometry":{"type":"Polygon","coordinates":[[[91.37076353231419,42.00457302517401],[91.3713397041891,42.0043158637157],[91.37146828491836,42.002500000000396],[91.36973963365955,42.00267632378507],[91.3691169394321,42.00431749131985],[91.36617151842512,42.00408094618098],[91.36578414863368,42.0055452473963],[91.3665114164288,42.00651746961847],[91.36897018378971,42.00584445529563],[91.37076353231419,42.00457302517401]]]}},{"type":"Feature","id":"hydrolakes:1364729","properties":{"Hylak_id":1364729,"Lake_name":"","Country":"China","Continent":"Asia","Poly_src":"SWBD","Lake_type":1,"Grand_id":0,"Lake_area":0.17,"Shore_len":1.74,"Shore_dev":1.19,"Vol_total":0.38,"Vol_res":0.0,"Vol_src":3,"Depth_avg":2.2,"Dis_avg":0.0,"Res_time":-1.0,"Elevation":1065,"Slope_100":1.02,"Wshd_area":13.4,"Pour_long":91.399118,"Pour_lat":41.983008,"source_id":"hydrolakes:1364729","label":""},"geometry":{"type":"Polygon","coordinates":[[[91.39981436781767,41.984903157552424],[91.40193527168043,41.984503309462184],[91.40322948826025,41.98466417100735],[91.40623350301735,41.98350938585111],[91.40519020874649,41.98208116319489],[91.40229999064763,41.98145589192751],[91.40202384047393,41.981111111111545],[91.39971915297377,41.98273220486146],[91.39856179077776,41.98258843316012],[91.39801138930187,41.98334499783027],[91.39863530423258,41.98440619574694],[91.39981436781767,41.984903157552424]]]}},{"type":"Feature","id":"hydrolakes:1364777","properties":{"Hylak_id":1364777,"Lake_name":"","Country":"China","Continent":"Asia","Poly_src":"SWBD","Lake_type":1,"Grand_id":0,"Lake_area":0.25,"Shore_len":2.33,"Shore_dev":1.31,"Vol_total":0.63,"Vol_res":0.0,"Vol_src":3,"Depth_avg":2.5,"Dis_avg":0.002,"Res_time":3648.3,"Elevation":1090,"Slope_100":1.13,"Wshd_area":50.3,"Pour_long":91.388128,"Pour_lat":41.933104,"source_id":"hydrolakes:1364777","label":""},"geometry":{"type":"Polygon","coordinates":[[[91.39071497545643,41.93701850043436],[91.39164013279157,41.93648871527819],[91.39243264038714,41.93656955295177],[91.39270539971852,41.936189236111545],[91.39106450345139,41.93531901041706],[91.39315366903287,41.93441297743095],[91.39231925063001,41.93371988932324],[91.3909328031475,41.93386121961839],[91.38996193726194,41.93330512152812],[91.38952384047383,41.9327777777782],[91.38770539971881,41.932903917101044],[91.38704581312999,41.933281521267816],[91.38604076755723,41.933179253472645],[91.3857867256736,41.93348497178857],[91.38336824151548,41.93435384114633],[91.38300894789597,41.93507921006983],[91.38626564819958,41.93649169921929],[91.38828672567354,41.93679280598997],[91.38864913886783,41.93722900390668],[91.39071497545643,41.93701850043436]]]}},{"type":"Feature","id":"hydrolakes:1364799","properties":{"Hylak_id":1364799,"Lake_name":"","Country":"China","Continent":"Asia","Poly_src":"SWBD","Lake_type":1,"Grand_id":0,"Lake_area":0.29,"Shore_len":2.55,"Shore_dev":1.33,"Vol_total":0.63,"Vol_res":0.0,"Vol_src":3,"Depth_avg":2.1,"Dis_avg":0.001,"Res_time":7240.9,"Elevation":1113,"Slope_100":0.8,"Wshd_area":52.1,"Pour_long":91.542706,"Pour_lat":41.917244,"source_id":"hydrolakes:1364799","label":""},"geometry":{"type":"Polygon","coordinates":[[[91.544210391038,41.917002224392775],[91.54465242120301,41.915893012153106],[91.54292322740952,41.915121256510815],[91.54257939602951,41.91472222222262],[91.54161883830369,41.91491590711843],[91.5391941149964,41.91663519965323],[91.53625113539579,41.91658989800385],[91.5343952597446,41.91737141927126],[91.53298575453624,41.91762858072951],[91.5322381416891,41.918045789931],[91.53189525974466,41.91859917534765],[91.53413809828629,41.91927463107692],[91.5354890097446,41.92002821180597],[91.54043719767878,41.91900634765665],[91.54159686564736,41.91818413628522],[91.5427285930781,41.917926974826855],[91.544210391038,41.917002224392775]]]}},{"type":"Feature","id":"hydrolakes:1364809","properties":{"Hylak_id":1364809,"Lake_name":"","Country":"China","Continent":"Asia","Poly_src":"SWBD","Lake_type":1,"Grand_id":0,"Lake_area":0.18,"Shore_len":2.36,"Shore_dev":1.57,"Vol_total":0.32,"Vol_res":0.0,"Vol_src":3,"Depth_avg":1.8,"Dis_avg":0.001,"Res_time":3721.1,"Elevation":1110,"Slope_100":0.63,"Wshd_area":47.6,"Pour_long":91.553668,"Pour_lat":41.901945,"source_id":"hydrolakes:1364809","label":""},"geometry":{"type":"Polygon","coordinates":[[[91.55313617228802,41.902631022135836],[91.55526385783509,41.902061089410154],[91.55653637302595,41.90213704427117],[91.55920279555193,41.90066189236154],[91.56139233005712,41.898965115017745],[91.56195344659358,41.89774278428854],[91.56119050714045,41.89611111111145],[91.56024676799132,41.89640245225735],[91.55992735067355,41.897437065972554],[91.55877785523074,41.89908257378528],[91.55693676365081,41.89897298177124],[91.55439281833839,41.9009800889761],[91.5521733087898,41.902272135417036],[91.55313617228802,41.902631022135836]]]}},{"type":"Feature","id":"hydrolakes:1364838","properties":{"Hylak_id":1364838,"Lake_name":"","Country":"China","Continent":"Asia","Poly_src":"SWBD","Lake_type":1,"Grand_id":0,"Lake_area":0.45,"Shore_len":3.87,"Shore_dev":1.63,"Vol_total":1.02,"Vol_res":0.0,"Vol_src":3,"Depth_avg":2.3,"Dis_avg":0.001,"Res_time":11835.7,"Elevation":1103,"Slope_100":0.79,"Wshd_area":297.4,"Pour_long":91.623958,"Pour_lat":41.866248,"source_id":"hydrolakes:1364838","label":""},"geometry":{"type":"Polygon","coordinates":[[[91.62665491686278,41.872011176215665],[91.62801138930189,41.87015435112886],[91.62825851386799,41.86915500217049],[91.62686365709715,41.86803792317738],[91.62606694485754,41.86609944661501],[91.62662250041313,41.86515435112881],[91.62686962497924,41.86409966362902],[91.62646828491836,41.863055555555945],[91.62564525974466,41.86371473524355],[91.62523361152432,41.86515435112881],[91.62456900648948,41.86606418185801],[91.6234915325312,41.86564995659762],[91.62275680488352,41.865741373698256],[91.6220238404739,41.86531060112884],[91.62129087606417,41.865741373698256],[91.62048914537837,41.86564181857682],[91.62023361152416,41.866767578125405],[91.62162250041303,41.86706787109409],[91.62270295831235,41.86759385850729],[91.62168787584733,41.86898356119832],[91.61992518053466,41.86929009331641],[91.61892528904161,41.869877929687846],[91.61856694485766,41.8706689453129],[91.62076041273946,41.87200113932329],[91.62213221178467,41.87119466145873],[91.6239118613073,41.87273925781295],[91.62670252428455,41.87401231553861],[91.62735343031756,41.87319959852465],[91.62665491686278,41.872011176215665]]]}},{"type":"Feature","id":"hydrolakes:1364873","properties":{"Hylak_id":1364873,"Lake_name":"","Country":"China","Continent":"Asia","Poly_src":"SWBD","Lake_type":1,"Grand_id":0,"Lake_area":0.51,"Shore_len":3.66,"Shore_dev":1.45,"Vol_total":1.42,"Vol_res":0.0,"Vol_src":3,"Depth_avg":2.8,"Dis_avg":0.001,"Res_time":16415.4,"Elevation":1158,"Slope_100":1.16,"Wshd_area":37.6,"Pour_long":91.800119,"Pour_lat":41.83032,"source_id":"hydrolakes:1364873","label":""},"geometry":{"type":"Polygon","coordinates":[[[91.79531214342518,41.83242947048643],[91.79766959242704,41.831723632812896],[91.7995755169062,41.8317567274309],[91.80035554620315,41.83019938151091],[91.79856192641131,41.82843967013923],[91.7991155830955,41.82848415798645],[91.80070209025689,41.82724148220535],[91.79930492771331,41.82576768663233],[91.7981349515851,41.8250000000005],[91.79597227254845,41.82578857421913],[91.79454581313018,41.82567382812539],[91.792239091125,41.827955457899634],[91.79116704251379,41.8304012044274],[91.78745583374638,41.82842990451428],[91.7866174819668,41.82947889539963],[91.78820792250525,41.83027316623304],[91.78904898695828,41.831249457465674],[91.79179312758333,41.83187282986148],[91.79254860718385,41.83145128038228],[91.79531214342518,41.83242947048643]]]}},{"type":"Feature","id":"hydrolakes:1364898","properties":{"Hylak_id":1364898,"Lake_name":"","Country":"China","Continent":"Asia","Poly_src":"SWBD","Lake_type":1,"Grand_id":0,"Lake_area":0.34,"Shore_len":3.1,"Shore_dev":1.5,"Vol_total":0.79,"Vol_res":0.0,"Vol_src":3,"Depth_avg":2.3,"Dis_avg":0.0,"Res_time":-1.0,"Elevation":1181,"Slope_100":0.9,"Wshd_area":14.2,"Pour_long":91.736985,"Pour_lat":41.803321,"source_id":"hydrolakes:1364898","label":""},"geometry":{"type":"Polygon","coordinates":[[[91.73894766859877,41.798353949653176],[91.73763676907652,41.79683241102464],[91.73574684937142,41.79684109158018],[91.73535717380713,41.796388888889396],[91.73439525974482,41.79656439887185],[91.73472512085579,41.79759982638933],[91.73591639147213,41.7989824761288],[91.73700851386815,41.7994696723095],[91.73798575453628,41.800311686198256],[91.73772859307815,41.801260308160124],[91.73604131009182,41.80401746961843],[91.73522859307798,41.80638427734419],[91.7365938817066,41.80664279513928],[91.7378418472012,41.80608588324685],[91.73878395874641,41.805274251302535],[91.73911354859024,41.80453559027819],[91.74029573174994,41.80400824652827],[91.74227381334703,41.801698133680986],[91.7415531916024,41.799915093316315],[91.74033316664577,41.79954779730946],[91.73894766859877,41.798353949653176]]]}},{"type":"Feature","id":"hydrolakes:1364908","properties":{"Hylak_id":1364908,"Lake_name":"","Country":"China","Continent":"Asia","Poly_src":"SWBD","Lake_type":1,"Grand_id":0,"Lake_area":0.33,"Shore_len":3.68,"Shore_dev":1.8,"Vol_total":0.5,"Vol_res":0.0,"Vol_src":3,"Depth_avg":1.5,"Dis_avg":0.003,"Res_time":1931.5,"Elevation":1061,"Slope_100":0.37,"Wshd_area":113.2,"Pour_long":91.238157,"Pour_lat":41.796169,"source_id":"hydrolakes:1364908","label":""},"geometry":{"type":"Polygon","coordinates":[[[91.24248485935425,41.79509467230935],[91.24301525486175,41.793377007378865],[91.2429486587248,41.79226074218792],[91.2433193455737,41.790525716146306],[91.24540186510484,41.790041232639226],[91.24576604153725,41.7884345160594],[91.24452384047373,41.7877777777781],[91.24333087443654,41.78800048828157],[91.24164738919336,41.78891520182333],[91.24067048760918,41.791043836805954],[91.2407558690112,41.793356662326744],[91.23798934882876,41.794019097222645],[91.23300386163265,41.798712293837184],[91.23448450670651,41.799297688802596],[91.23873709730964,41.796002061632294],[91.24161497274378,41.79570231119828],[91.24248485935425,41.79509467230935]]]}},{"type":"Feature","id":"hydrolakes:1364929","properties":{"Hylak_id":1364929,"Lake_name":"","Country":"China","Continent":"Asia","Poly_src":"SWBD","Lake_type":1,"Grand_id":0,"Lake_area":0.2,"Shore_len":2.35,"Shore_dev":1.47,"Vol_total":0.37,"Vol_res":0.0,"Vol_src":3,"Depth_avg":1.8,"Dis_avg":0.0,"Res_time":-1.0,"Elevation":1197,"Slope_100":0.63,"Wshd_area":6.2,"Pour_long":91.740682,"Pour_lat":41.779936,"source_id":"hydrolakes:1364929","label":""},"geometry":{"type":"Polygon","coordinates":[[[91.73851024997902,41.78116861979203],[91.74089062107294,41.78065999348985],[91.7463753758471,41.780788302951805],[91.74748038344273,41.78039171006998],[91.747398731967,41.77902072482681],[91.74800392944962,41.77848008897621],[91.74813495158509,41.77750000000037],[91.74532991143741,41.777675781250366],[91.74347064494435,41.77957546658024],[91.74205639255729,41.778806966146306],[91.739829965691,41.77848008897621],[91.73813101820838,41.77908962673649],[91.73772615167172,41.780467936198306],[91.73851024997902,41.78116861979203]]]}},{"type":"Feature","id":"hydrolakes:1365000","properties":{"Hylak_id":1365000,"Lake_name":"","Country":"China","Continent":"Asia","Poly_src":"SWBD","Lake_type":1,"Grand_id":0,"Lake_area":0.68,"Shore_len":4.2,"Shore_dev":1.44,"Vol_total":1.37,"Vol_res":0.0,"Vol_src":3,"Depth_avg":2.0,"Dis_avg":0.002,"Res_time":7934.7,"Elevation":1151,"Slope_100":0.55,"Wshd_area":104.3,"Pour_long":91.772917,"Pour_lat":41.71875,"source_id":"hydrolakes:1365000","label":""},"geometry":{"type":"Polygon","coordinates":[[[91.77422029229683,41.72651638454903],[91.7749193482864,41.72526340060796],[91.77499530314753,41.7243172200524],[91.77437003187998,41.72319661458374],[91.77516403144614,41.720740831163596],[91.7774563762814,41.71946180555591],[91.77970043552585,41.71964219835104],[91.78128490818216,41.71916503906283],[91.78135842163698,41.71825032552118],[91.78021150323428,41.71691921658021],[91.77829364299134,41.71621500651082],[91.77722498522206,41.716300726996906],[91.77661748196704,41.71596191406303],[91.77381908786981,41.715704752604495],[91.77321158461444,41.71536593967056],[91.77201421048267,41.71546196831645],[91.77158967706225,41.71451063368107],[91.7709127293628,41.7138888888893],[91.77025531291315,41.71408691406282],[91.76949386543049,41.71667127821223],[91.77076353231428,41.71920057508714],[91.77012849542172,41.72054877387194],[91.77023008504858,41.721813151042],[91.7693952597449,41.72330946180597],[91.76982860935414,41.724537489149725],[91.77174443509205,41.72603786892404],[91.77272045505731,41.72567952474009],[91.77422029229683,41.72651638454903]]]}},{"type":"Feature","id":"hydrolakes:1365062","properties":{"Hylak_id":1365062,"Lake_name":"","Country":"China","Continent":"Asia","Poly_src":"SWBD","Lake_type":1,"Grand_id":0,"Lake_area":0.15,"Shore_len":1.98,"Shore_dev":1.43,"Vol_total":0.32,"Vol_res":0.0,"Vol_src":3,"Depth_avg":2.1,"Dis_avg":0.0,"Res_time":-1.0,"Elevation":1132,"Slope_100":0.9,"Wshd_area":18.8,"Pour_long":91.401283,"Pour_lat":41.650243,"source_id":"hydrolakes:1365062","label":""},"geometry":{"type":"Polygon","coordinates":[[[91.40293692641131,41.64985948350727],[91.40198993205377,41.648760308160035],[91.40015101061266,41.64934434678872],[91.39536219225334,41.64727267795172],[91.39507939602936,41.646944444444784],[91.39356192641122,41.64781928168435],[91.39395282267884,41.648827582465685],[91.3955583185554,41.649310980903124],[91.39604131009196,41.64987141927128],[91.39745081530015,41.65012858072953],[91.3989342408646,41.65118028428873],[91.39994878079506,41.651261935764296],[91.40076353231416,41.65068413628512],[91.40293692641131,41.64985948350727]]]}},{"type":"Feature","id":"hydrolakes:1365081","properties":{"Hylak_id":1365081,"Lake_name":"","Country":"China","Continent":"Asia","Poly_src":"SWBD","Lake_type":1,"Grand_id":0,"Lake_area":0.2,"Shore_len":1.8,"Shore_dev":1.13,"Vol_total":0.41,"Vol_res":0.0,"Vol_src":3,"Depth_avg":2.1,"Dis_avg":0.002,"Res_time":2379.9,"Elevation":1090,"Slope_100":0.82,"Wshd_area":78.8,"Pour_long":91.296461,"Pour_lat":41.624206,"source_id":"hydrolakes:1365081","label":""},"geometry":{"type":"Polygon","coordinates":[[[91.29834274238345,41.62497070312537],[91.29656648370326,41.62338785807327],[91.29546717272217,41.62363444010458],[91.29412765449291,41.62313313802122],[91.29369050714041,41.62250000000034],[91.29297381877257,41.62268391927114],[91.29107711738351,41.62481255425382],[91.2924377944671,41.62714246961838],[91.29413606378125,41.62752332899339],[91.29596603339928,41.626838378906655],[91.29658167467511,41.62594672309075],[91.29821795939768,41.6255268012157],[91.29834274238345,41.62497070312537]]]}},{"type":"Feature","id":"hydrolakes:1365111","properties":{"Hylak_id":1365111,"Lake_name":"","Country":"China","Continent":"Asia","Poly_src":"SWBD","Lake_type":1,"Grand_id":0,"Lake_area":0.45,"Shore_len":2.64,"Shore_dev":1.11,"Vol_total":1.41,"Vol_res":0.0,"Vol_src":3,"Depth_avg":3.2,"Dis_avg":0.003,"Res_time":5456.8,"Elevation":1072,"Slope_100":1.56,"Wshd_area":140.6,"Pour_long":91.310551,"Pour_lat":41.589954,"source_id":"hydrolakes:1365111","label":""},"geometry":{"type":"Polygon","coordinates":[[[91.31264599216661,41.59415283203157],[91.31428824477075,41.59367404513938],[91.31525911065626,41.593817545573245],[91.31579594876388,41.5929275173616],[91.31566004381574,41.592007378472545],[91.31641186130719,41.590286729601075],[91.31468063300872,41.588176540799],[91.3117460626961,41.587777777778115],[91.30805791165432,41.58908962673655],[91.30634729967528,41.59274441189274],[91.30767691664573,41.59400987413227],[91.30829174411974,41.59376790364621],[91.30868996460583,41.59325195312539],[91.31176627211443,41.59468370225727],[91.31264599216661,41.59415283203157]]]}},{"type":"Feature","id":"hydrolakes:1365120","properties":{"Hylak_id":1365120,"Lake_name":"","Country":"China","Continent":"Asia","Poly_src":"SWBD","Lake_type":1,"Grand_id":0,"Lake_area":0.98,"Shore_len":4.77,"Shore_dev":1.36,"Vol_total":3.31,"Vol_res":0.0,"Vol_src":3,"Depth_avg":3.4,"Dis_avg":0.0,"Res_time":-1.0,"Elevation":1102,"Slope_100":1.4,"Wshd_area":230.2,"Pour_long":91.528125,"Pour_lat":41.582165,"source_id":"hydrolakes:1365120","label":""},"geometry":{"type":"Polygon","coordinates":[[[91.53244321981424,41.58752549913231],[91.53433463148946,41.58605984158021],[91.53604375149826,41.58513102213578],[91.54001781833841,41.58420654296907],[91.54326597372051,41.58184895833375],[91.54097227254846,41.5803615993928],[91.53859624173265,41.57962782118091],[91.53710277927621,41.578584526910106],[91.53544560696707,41.57974202474003],[91.53369050714042,41.57777777777824],[91.53271041816492,41.57790879991353],[91.52972932549994,41.58062391493087],[91.52754223240106,41.58113281250036],[91.52476662476198,41.58240668402817],[91.52152443726209,41.58563530816002],[91.52266687975333,41.58679768880239],[91.5243822389113,41.585125325521176],[91.52536992337315,41.58566216362891],[91.52786232788708,41.58564453125041],[91.52997143161969,41.58712293836845],[91.53153108331242,41.587029893663555],[91.53244321981424,41.58752549913231]]]}},{"type":"Feature","id":"hydrolakes:1365130","properties":{"Hylak_id":1365130,"Lake_name":"","Country":"China","Continent":"Asia","Poly_src":"SWBD","Lake_type":1,"Grand_id":0,"Lake_area":0.29,"Shore_len":2.64,"Shore_dev":1.39,"Vol_total":0.79,"Vol_res":0.0,"Vol_src":3,"Depth_avg":2.8,"Dis_avg":0.006,"Res_time":1529.9,"Elevation":1080,"Slope_100":1.34,"Wshd_area":279.9,"Pour_long":91.305466,"Pour_lat":41.574746,"source_id":"hydrolakes:1365130","label":""},"geometry":{"type":"Polygon","coordinates":[[[91.29739669746158,41.58091715494828],[91.29831765015274,41.5803615993928],[91.29920388062129,41.580492621528094],[91.30207768704508,41.57984917534753],[91.30485288778289,41.57804090711841],[91.30677630900686,41.5772536892365],[91.30714482571693,41.57680935329893],[91.30584599759197,41.57520209418442],[91.30563495158486,41.57444444444485],[91.30520038127247,41.57456542968788],[91.30158927016129,41.57678765191008],[91.30088058418033,41.57770589192745],[91.29966272936264,41.57722710503509],[91.29742260349474,41.57789876302115],[91.29597010240951,41.57913004557332],[91.29551396634196,41.58005777994822],[91.29634729967512,41.58039876302115],[91.29660717380739,41.581033799913655],[91.29739669746158,41.58091715494828]]]}},{"type":"Feature","id":"hydrolakes:1365167","properties":{"Hylak_id":1365167,"Lake_name":"","Country":"China","Continent":"Asia","Poly_src":"SWBD","Lake_type":1,"Grand_id":0,"Lake_area":0.93,"Shore_len":5.06,"Shore_dev":1.48,"Vol_total":3.18,"Vol_res":0.0,"Vol_src":3,"Depth_avg":3.4,"Dis_avg":0.009,"Res_time":4093.0,"Elevation":1265,"Slope_100":1.44,"Wshd_area":94.6,"Pour_long":93.963367,"Pour_lat":41.528408,"source_id":"hydrolakes:1365167","label":""},"geometry":{"type":"Polygon","coordinates":[[[93.97361916382476,41.53313069661493],[93.97409686564788,41.53208767361144],[93.97309182007467,41.531538085937825],[93.9709311755434,41.53212944878504],[93.96995244290457,41.53205078125046],[93.96669750583851,41.52962293836839],[93.96534116903302,41.52877360026088],[93.96437464342534,41.52848253038235],[93.96300637085591,41.52735080295173],[93.96082022719293,41.526137695312855],[93.96007939602964,41.525277777778115],[93.95707266859904,41.526043023003865],[93.95535717380744,41.52590521918438],[93.95313169637666,41.52608398437536],[93.9514365466373,41.52670654296912],[93.95106192641163,41.52876030816003],[93.95068025323445,41.52944444444489],[93.9514270522796,41.530782877604565],[93.95320168335599,41.53157470703161],[93.95566316339062,41.530482042101085],[93.95764775540476,41.5318893771705],[93.9599405071408,41.53170518663228],[93.96177834351226,41.53185275607672],[93.96726933743577,41.534213324653194],[93.96903013387691,41.535592447917],[93.97127053101218,41.53383789062531],[93.97361916382476,41.53313069661493]]]}},{"type":"Feature","id":"hydrolakes:1365251","properties":{"Hylak_id":1365251,"Lake_name":"","Country":"China","Continent":"Asia","Poly_src":"SWBD","Lake_type":1,"Grand_id":0,"Lake_area":0.35,"Shore_len":3.33,"Shore_dev":1.58,"Vol_total":0.87,"Vol_res":0.0,"Vol_src":3,"Depth_avg":2.5,"Dis_avg":0.0,"Res_time":-1.0,"Elevation":1023,"Slope_100":0.99,"Wshd_area":22.7,"Pour_long":91.302664,"Pour_lat":41.452854,"source_id":"hydrolakes:1365251","label":""},"geometry":{"type":"Polygon","coordinates":[[[91.3138190878696,41.45623969184078],[91.31437464342531,41.45524386935796],[91.31321361911961,41.454233940972586],[91.31171052667167,41.45356309678863],[91.3101529094842,41.452458767361406],[91.30644400648953,41.45321207682326],[91.30425067424113,41.454017469618464],[91.303480139302,41.45313476562535],[91.30230161825153,41.45083333333372],[91.3013601848748,41.451005045573254],[91.30116080336444,41.45348741319481],[91.30187464342532,41.45431586371569],[91.30477462714941,41.45660291883712],[91.30581710761805,41.456219889323336],[91.30723325887658,41.45633382161492],[91.30877432875508,41.455241156684394],[91.30968972046509,41.456303710938016],[91.31074657810422,41.45621880425398],[91.31333514689743,41.457323947483076],[91.3138190878696,41.45623969184078]]]}},{"type":"Feature","id":"hydrolakes:1365361","properties":{"Hylak_id":1365361,"Lake_name":"","Country":"China","Continent":"Asia","Poly_src":"SWBD","Lake_type":1,"Grand_id":0,"Lake_area":0.5,"Shore_len":3.81,"Shore_dev":1.52,"Vol_total":1.06,"Vol_res":0.0,"Vol_src":3,"Depth_avg":2.1,"Dis_avg":0.001,"Res_time":12273.1,"Elevation":917,"Slope_100":0.65,"Wshd_area":44.1,"Pour_long":91.349794,"Pour_lat":41.378521,"source_id":"hydrolakes:1365361","label":""},"geometry":{"type":"Polygon","coordinates":[[[91.35465255683658,41.38684950086838],[91.3564148452482,41.38494764539968],[91.3596328899531,41.38378038194486],[91.36049077298259,41.38253363715313],[91.35724668661118,41.381050347222526],[91.35530481920642,41.38207790798646],[91.35549077298248,41.38096679687533],[91.35606057007448,41.38013888888918],[91.35519644789599,41.37888319227466],[91.35523306898943,41.37796169704899],[91.35299077298242,41.37708875868094],[91.35202384047386,41.37583333333362],[91.3514187786248,41.37602484809065],[91.34939024129869,41.37851752387189],[91.35021299520469,41.37958875868094],[91.35183653036108,41.380636935764244],[91.35271299520474,41.38191080729206],[91.3523528877829,41.382524685330225],[91.35132410631593,41.38318901909753],[91.3506000937291,41.38461859809075],[91.35181021742693,41.38592447916699],[91.35244050714044,41.38625813802116],[91.35349573717542,41.38569986979206],[91.35465255683658,41.38684950086838]]]}},{"type":"Feature","id":"hydrolakes:1365439","properties":{"Hylak_id":1365439,"Lake_name":"","Country":"China","Continent":"Asia","Poly_src":"SWBD","Lake_type":1,"Grand_id":0,"Lake_area":0.2,"Shore_len":2.51,"Shore_dev":1.58,"Vol_total":0.51,"Vol_res":0.0,"Vol_src":3,"Depth_avg":2.5,"Dis_avg":0.0,"Res_time":-1.0,"Elevation":891,"Slope_100":1.27,"Wshd_area":2.3,"Pour_long":91.396947,"Pour_lat":41.326998,"source_id":"hydrolakes:1365439","label":""},"geometry":{"type":"Polygon","coordinates":[[[91.3953571738071,41.3261111111114],[91.3956958511078,41.326206325955184],[91.39545225301731,41.326449652778194],[91.3953571738071,41.3261111111114],[91.39383210870312,41.327994791667095],[91.39577655314747,41.328180338542154],[91.3968544340068,41.329302029080225],[91.39798711087309,41.32932508680591],[91.39798249932795,41.32322319878506],[91.3984414837031,41.32188205295182],[91.39570303969265,41.32069715711839],[91.39477611911963,41.322271050347524],[91.39603547784355,41.32412923177117],[91.3953571738071,41.3261111111114]]]}},{"type":"Feature","id":"hydrolakes:1365491","properties":{"Hylak_id":1365491,"Lake_name":"","Country":"China","Continent":"Asia","Poly_src":"SWBD","Lake_type":1,"Grand_id":0,"Lake_area":0.11,"Shore_len":1.55,"Shore_dev":1.3,"Vol_total":0.27,"Vol_res":0.0,"Vol_src":3,"Depth_avg":2.3,"Dis_avg":0.0,"Res_time":-1.0,"Elevation":855,"Slope_100":1.26,"Wshd_area":7.7,"Pour_long":91.359358,"Pour_lat":41.282299,"source_id":"hydrolakes:1365491","label":""},"geometry":{"type":"Polygon","coordinates":[[[91.36243019898086,41.28193983289964],[91.3620238404738,41.2808333333337],[91.35997550063013,41.28135335286487],[91.35844297567343,41.281230197482955],[91.35689525974459,41.28209364149336],[91.35576760132443,41.282433268229454],[91.3552285930781,41.28333794487878],[91.35652253839055,41.284452853733],[91.35907597806062,41.283515082465556],[91.36020797675872,41.282628580729465],[91.36243019898086,41.28193983289964]]]}},{"type":"Feature","id":"hydrolakes:1365516","properties":{"Hylak_id":1365516,"Lake_name":"","Country":"China","Continent":"Asia","Poly_src":"SWBD","Lake_type":1,"Grand_id":0,"Lake_area":0.17,"Shore_len":2.22,"Shore_dev":1.54,"Vol_total":0.32,"Vol_res":0.0,"Vol_src":3,"Depth_avg":1.9,"Dis_avg":0.001,"Res_time":3745.9,"Elevation":871,"Slope_100":0.78,"Wshd_area":30.5,"Pour_long":91.74984,"Pour_lat":41.266391,"source_id":"hydrolakes:1365516","label":""},"geometry":{"type":"Polygon","coordinates":[[[91.75463668769606,41.270063747830136],[91.75340689711459,41.268924153646196],[91.75300135240963,41.26680013020865],[91.75101011434532,41.26596028645872],[91.75063495158508,41.26555555555586],[91.74964645332113,41.2662548828128],[91.74967778470119,41.26704779730932],[91.75165247545641,41.26849609375029],[91.75155129273094,41.26985568576424],[91.75036232788716,41.269226616753826],[91.7496680190763,41.269568413628804],[91.75244633938883,41.27266628689267],[91.7533858738941,41.2726288519969],[91.75382410631596,41.27124457465311],[91.75463668769606,41.270063747830136]]]}},{"type":"Feature","id":"hydrolakes:1365604","properties":{"Hylak_id":1365604,"Lake_name":"","Country":"China","Continent":"Asia","Poly_src":"SWBD","Lake_type":1,"Grand_id":0,"Lake_area":0.51,"Shore_len":4.13,"Shore_dev":1.64,"Vol_total":1.13,"Vol_res":0.0,"Vol_src":3,"Depth_avg":2.2,"Dis_avg":0.021,"Res_time":620.4,"Elevation":1224,"Slope_100":0.72,"Wshd_area":206.4,"Pour_long":93.942545,"Pour_lat":41.20887,"source_id":"hydrolakes:1365604","label":""},"geometry":{"type":"Polygon","coordinates":[[[93.93011113431089,41.2127091471358],[93.9310198799705,41.2122154405385],[93.93258699151579,41.213310004340656],[93.93481491035249,41.211583387587154],[93.93593741469283,41.21118055555604],[93.9385437514984,41.21040879991352],[93.94083813083859,41.210139973958746],[93.94187708483173,41.20957546658036],[93.94414108222742,41.20900499131983],[93.94492151842536,41.209051378038566],[93.94539026842557,41.20774441189269],[93.94369050714079,41.2069444444449],[93.93744023587334,41.20767306857675],[93.93578170722776,41.20848008897599],[93.93403718682828,41.20875189887187],[93.93262225627268,41.20952067057328],[93.92987269030033,41.20994927300376],[93.92605948500545,41.212045627170426],[93.92635706530035,41.21304334852465],[93.92840269247057,41.21533284505239],[93.93011113431089,41.2127091471358]]]}},{"type":"Feature","id":"hydrolakes:1366537","properties":{"Hylak_id":1366537,"Lake_name":"","Country":"China","Continent":"Asia","Poly_src":"SWBD","Lake_type":1,"Grand_id":0,"Lake_area":0.32,"Shore_len":2.57,"Shore_dev":1.27,"Vol_total":0.84,"Vol_res":0.0,"Vol_src":3,"Depth_avg":2.6,"Dis_avg":0.087,"Res_time":111.2,"Elevation":1011,"Slope_100":1.14,"Wshd_area":494.0,"Pour_long":93.844925,"Pour_lat":40.361757,"source_id":"hydrolakes:1366537","label":""},"geometry":{"type":"Polygon","coordinates":[[[93.84761791599499,40.364933268229436],[93.84887605401565,40.36423122829888],[93.85069734307814,40.36437744140653],[93.85160256226214,40.36373562283012],[93.85279261217539,40.36406141493086],[93.85463804403321,40.36364203559049],[93.85471237129013,40.36271484375027],[93.85356192641166,40.36207302517391],[93.85104131009206,40.36181586371555],[93.85011330444979,40.361158040364785],[93.8482863187727,40.361304796007346],[93.84619050714082,40.360277777778094],[93.8444082805782,40.361245117187764],[93.8427530071408,40.36317789713581],[93.84268925931076,40.3639718967018],[93.8432014120886,40.36456624348989],[93.84761791599499,40.364933268229436]]]}},{"type":"Feature","id":"hydrolakes:1366653","properties":{"Hylak_id":1366653,"Lake_name":"","Country":"China","Continent":"Asia","Poly_src":"SWBD","Lake_type":1,"Grand_id":0,"Lake_area":0.35,"Shore_len":2.56,"Shore_dev":1.21,"Vol_total":0.59,"Vol_res":0.0,"Vol_src":3,"Depth_avg":1.7,"Dis_avg":0.011,"Res_time":620.7,"Elevation":1071,"Slope_100":0.44,"Wshd_area":218.3,"Pour_long":94.94652,"Pour_lat":40.175769,"source_id":"hydrolakes:1366653","label":""},"geometry":{"type":"Polygon","coordinates":[[[94.9433964533215,40.17720540364604],[94.94484881877281,40.17632948133712],[94.9464514663423,40.17656629774325],[94.94718063300883,40.17626790364619],[94.94951678752284,40.17415201822939],[94.95077384047403,40.17396620008702],[94.95214482571708,40.17416883680585],[94.95179868856434,40.173146701389044],[94.94933124064778,40.17213704427121],[94.94829174412007,40.17079020182314],[94.94730161825186,40.17027777777798],[94.9455383804048,40.170415852864835],[94.94457809394646,40.171156684028006],[94.94261249064778,40.17383572048635],[94.94224139689777,40.17634874131966],[94.9433964533215,40.17720540364604]]]}}]}