{"type":"FeatureCollection","features":[{"type":"Feature","id":"hydrolakes:14525","properties":{"Hylak_id":14525,"Lake_name":"","Country":"China","Continent":"Asia","Poly_src":"SWBD","Lake_type":1,"Grand_id":0,"Lake_area":26.83,"Shore_len":36.51,"Shore_dev":1.99,"Vol_total":67.1,"Vol_res":0.0,"Vol_src":3,"Depth_avg":2.5,"Dis_avg":21.089,"Res_time":36.8,"Elevation":1304,"Slope_100":0.87,"Wshd_area":20084.0,"Pour_long":96.32066,"Pour_lat":40.553016,"source_id":"hydrolakes:14525","label":""},"geometry":{"type":"Polygon","coordinates":[[[96.35605763673232,40.57170185991629],[96.35860019179961,40.57099927745105],[96.3607836227892,40.5726735396039],[96.36183013835972,40.57263203569761],[96.36311933649341,40.5740233659929],[96.36468190431037,40.57294806217328],[96.36792195557979,40.57266594411777],[96.3693796785617,40.57166279741631],[96.37127587132414,40.569332610784556],[96.37201829618323,40.57090569021153],[96.37389546632204,40.569912309135134],[96.37737796279566,40.57091192936082],[96.37880221816664,40.57041279741651],[96.38062157444932,40.57048495453438],[96.38179188966188,40.56986565114903],[96.38336354493538,40.569928042642005],[96.38807471301266,40.568723615558724],[96.39045057428655,40.56679002180874],[96.3920491867542,40.56685322710388],[96.39285919109415,40.56642462467323],[96.39624921930596,40.56738952267676],[96.39747707710785,40.56706779958648],[96.39901984240709,40.56625155609686],[96.40200402073827,40.5637770552288],[96.40270931587725,40.565556026582954],[96.4039746085748,40.56488653873589],[96.40542195557998,40.56461038856219],[96.40638159777836,40.56394985253792],[96.4056887470295,40.562942908093476],[96.40570234430601,40.56260029741634],[96.40882941271963,40.562651838215004],[96.41055257081422,40.560792029187155],[96.41160410483116,40.56016594411773],[96.41272847413461,40.56137932302403],[96.41426893366145,40.560721499673264],[96.41596693170828,40.56214049923932],[96.41523372993964,40.56281975271145],[96.4163635584988,40.56386657345803],[96.41813056018066,40.562991736218464],[96.41996473444294,40.56363463986423],[96.42099446534547,40.561452565211425],[96.42213222847482,40.56185159949973],[96.42346727079251,40.560410627277406],[96.42467332548,40.560458370333095],[96.42595743735063,40.561844275280976],[96.42656487278919,40.561820132485764],[96.4274262144774,40.55909959212124],[96.42628519613976,40.55804246321492],[96.42487643691675,40.55878790592334],[96.42416293594022,40.55841030175674],[96.42497456788448,40.557230831270545],[96.42371548042809,40.555401132919826],[96.42197747044526,40.55547003482957],[96.42097039036713,40.556002803926845],[96.42044487767186,40.55543558387467],[96.41813856256778,40.55516594411773],[96.4163153407253,40.555988426756755],[96.4146724099528,40.55472866113166],[96.41391598091622,40.55155320540251],[96.41286075088152,40.55072149967339],[96.41180555475535,40.55127976790243],[96.41117713000483,40.550947194117725],[96.40795732206209,40.55095695974279],[96.406264545912,40.55212178179136],[96.40308207113975,40.550275807398975],[96.40004204564065,40.55129523014199],[96.39852572890891,40.55123528005521],[96.39734588543007,40.55185946625312],[96.39736680692545,40.553776241426704],[96.39665005074045,40.55481790809341],[96.3947505688613,40.55515509342331],[96.39400048069916,40.55317972449967],[96.39165523872862,40.55204175791977],[96.39030693821877,40.55058667979483],[96.38931084446887,40.54904398231207],[96.38763359837515,40.548777055228925],[96.38594597630475,40.547350731444226],[96.38599873780652,40.54601935123577],[96.38484931018053,40.54400790375314],[96.38274576742873,40.54188740679132],[96.3786655333252,40.53884839854487],[96.37585510173886,40.53987731564547],[96.37317657390662,40.537139414169815],[96.37321075359432,40.536276512694144],[96.37264271973993,40.535750254013635],[96.37235595623099,40.53484449229484],[96.37120910564494,40.5348897939441],[96.3689165912678,40.53408630002053],[96.36749220026303,40.53310621104475],[96.36625159289537,40.53405754568024],[96.36470404650862,40.533421966253115],[96.36314459826656,40.53404181217326],[96.36151204347044,40.53291849403098],[96.36154757949487,40.532021684135145],[96.36217034153913,40.53084465505526],[96.36141723552782,40.52961038856216],[96.36003343290184,40.5315439823122],[96.357644177802,40.52959953786774],[96.35551689915633,40.52897996321491],[96.35643022245279,40.52637416894407],[96.35472222142187,40.525854963214954],[96.35276936768918,40.52692592675663],[96.35179514487021,40.5262556251073],[96.3503920822618,40.526243146808724],[96.34883382081432,40.52792500444758],[96.3475222770316,40.52823723318022],[96.34595635228123,40.52906595496842],[96.3459801559921,40.529665727103804],[96.34653652534979,40.53071715939552],[96.34560794326427,40.53182176008994],[96.34359581761339,40.53075730696497],[96.34208862224654,40.53155483300662],[96.3406891539305,40.53182176008994],[96.3379417580972,40.53301126746845],[96.33647386258934,40.535225894204586],[96.33493533584243,40.53482279090588],[96.33343909289545,40.535852250541325],[96.33347869793022,40.53685187076718],[96.33257873455125,40.537685746635134],[96.33154256104865,40.53764451399621],[96.33095635228136,40.537954843857335],[96.33051320313842,40.539823875975344],[96.32977647489406,40.540506384655885],[96.32707627958166,40.54039950531569],[96.3271005241021,40.541010941947604],[96.32566192546932,40.54100063378786],[96.32315538114409,40.544075449326044],[96.32235656658247,40.54404371104482],[96.32158030112032,40.5444544098296],[96.32043284018272,40.55376294932603],[96.31846693170831,40.55626620453438],[96.31797471708154,40.55730922753787],[96.31652248726385,40.55765509342325],[96.31524220704478,40.558536169812214],[96.31486640002458,40.559332610784395],[96.3139056049398,40.56022263899615],[96.31438910510246,40.56113653873581],[96.3156229986028,40.56028747189555],[96.31743109729007,40.56103020193018],[96.3170594270967,40.562448387694246],[96.31921925782603,40.56403258908301],[96.31984524117024,40.56600985687817],[96.32073801596425,40.56683695106216],[96.32198174290619,40.56947231347533],[96.32112352079253,40.570267398110786],[96.32193203316234,40.57144252831915],[96.32096652480726,40.57237785818029],[96.32098171577957,40.57276115896144],[96.32271043485514,40.57436299272888],[96.32795901748301,40.57400926008995],[96.32848402155219,40.57289679264221],[96.3292700865477,40.5721684397775],[96.33136389758289,40.572902217989224],[96.3324915899114,40.57230570106219],[96.33152096138491,40.570471391166336],[96.33153696615926,40.57006720279833],[96.33427249404565,40.570175709742784],[96.33617245064289,40.57172193370104],[96.33906968778473,40.57099927745105],[96.34335191434741,40.574359466253156],[96.34502661730943,40.57429300574972],[96.3469942551132,40.57278421668718],[96.34735582059727,40.57126620453437],[96.34988481229635,40.56966626963873],[96.35206041044103,40.571436831704546],[96.35078270726166,40.572039859048346],[96.35171464628081,40.57380119802394],[96.35301337268055,40.57487731564555],[96.35605763673232,40.57170185991629]],[[96.32730282173651,40.56054626095806],[96.32972222142212,40.56029940765944],[96.33059831327301,40.56226907996847],[96.33213775554731,40.563233435437326],[96.3320951665716,40.56433559472532],[96.33119154108334,40.56548929481221],[96.33015631701676,40.56540628699969],[96.32753950250924,40.56722052311085],[96.32547570042578,40.56651251529826],[96.32482733752425,40.564358923718544],[96.32522192980963,40.563651729708056],[96.32709367460114,40.563226382485766],[96.32762854602049,40.56273511729478],[96.32654161161275,40.561201914169885],[96.32730282173651,40.56054626095806]],[[96.32657728327075,40.554900644638565],[96.32749999919957,40.55474385210391],[96.32793453560367,40.55542039290248],[96.32817657390672,40.5562927887359],[96.32757093561463,40.558369882919806],[96.3259543516844,40.55903150401355],[96.32458753717702,40.560136104707965],[96.32404564671475,40.55971048621848],[96.3251977531059,40.55745516937816],[96.3262678689373,40.55601175574964],[96.32657728327075,40.554900644638565]],[[96.3337858743082,40.555783348631564],[96.3349999991998,40.55557718543719],[96.33706546279547,40.556845902885186],[96.33516143718805,40.55902553613174],[96.33251573270672,40.556763708874655],[96.3337858743082,40.555783348631564]]]}},{"type":"Feature","id":"hydrolakes:171135","properties":{"Hylak_id":171135,"Lake_name":"","Country":"Mongolia","Continent":"Asia","Poly_src":"SWBD","Lake_type":1,"Grand_id":0,"Lake_area":1.13,"Shore_len":4.4,"Shore_dev":1.17,"Vol_total":1.84,"Vol_res":0.0,"Vol_src":3,"Depth_avg":1.6,"Dis_avg":0.0,"Res_time":-1.0,"Elevation":2032,"Slope_100":0.85,"Wshd_area":628.5,"Pour_long":98.702083,"Pour_lat":44.952083,"source_id":"hydrolakes:171135","label":""},"geometry":{"type":"Polygon","coordinates":[[[98.70288547012007,44.94793772010553],[98.70249999919997,44.94752162988203],[98.7012445738527,44.947655222699495],[98.7004220912138,44.94822137039779],[98.69846245579703,44.94853352283644],[98.69708875788046,44.94980642479533],[98.69741617758524,44.95194960860948],[98.69902045275899,44.95343600116058],[98.69714925050192,44.953881700852264],[98.69671305258532,44.9551259247649],[98.69789713461665,44.95622303593706],[98.69851779433867,44.95904358971666],[98.70006266196049,44.960710779314695],[98.70236653565826,44.96016581378262],[98.70342800484212,44.95901994283213],[98.70541124051925,44.95765522375916],[98.70942355605757,44.955977192473654],[98.71029513808872,44.95462736820406],[98.71176540718614,44.95427711329745],[98.71220296143952,44.95134306432686],[98.70661458253318,44.94878482237664],[98.70288547012007,44.94793772010553]]]}},{"type":"Feature","id":"hydrolakes:171571","properties":{"Hylak_id":171571,"Lake_name":"","Country":"Mongolia","Continent":"Asia","Poly_src":"SWBD","Lake_type":1,"Grand_id":0,"Lake_area":1.05,"Shore_len":5.57,"Shore_dev":1.54,"Vol_total":1.11,"Vol_res":0.0,"Vol_src":3,"Depth_avg":1.1,"Dis_avg":0.624,"Res_time":20.6,"Elevation":1296,"Slope_100":0.52,"Wshd_area":1791.5,"Pour_long":98.651787,"Pour_lat":44.045713,"source_id":"hydrolakes:171571","label":""},"geometry":{"type":"Polygon","coordinates":[[[98.64980848444287,44.062097164278555],[98.65157958904376,44.060724483614706],[98.65241237984213,44.061541608723076],[98.653094345988,44.06077853363621],[98.65292833036295,44.05538363617535],[98.65374701525883,44.054651892468655],[98.65401991022412,44.05365274696106],[98.65269666803675,44.05281113997307],[98.65234049399157,44.05203511186971],[98.65239203479013,44.051170921874075],[98.65459119928659,44.04989053992978],[98.65540879911299,44.04912251421348],[98.65426432211649,44.04876912065879],[98.65431721925194,44.04788363617547],[98.65486979086654,44.047389793944376],[98.65484564807133,44.04698370670485],[98.65251600397426,44.04621696950875],[98.65194444364437,44.04557718543748],[98.65068657689079,44.0457082753897],[98.6501611320125,44.04685336273781],[98.64904079781098,44.046786563150135],[98.64848008817557,44.04766831770746],[98.64702555258532,44.047939856335915],[98.64706814156108,44.04999992849304],[98.6449522561445,44.051949527017314],[98.64450086725549,44.05388969900088],[98.64351670926942,44.054769012151894],[98.64028130345349,44.05632235687847],[98.64105495796719,44.057746035806474],[98.64598008817563,44.058208275389745],[98.64624213244628,44.05933498437412],[98.64776339980739,44.05980475162664],[98.64981228218596,44.05925597775513],[98.65035752958198,44.059866329317686],[98.64942328479026,44.06120408430894],[98.64980848444287,44.062097164278555]]]}},{"type":"Feature","id":"hydrolakes:172603","properties":{"Hylak_id":172603,"Lake_name":"","Country":"China","Continent":"Asia","Poly_src":"SWBD","Lake_type":1,"Grand_id":0,"Lake_area":3.77,"Shore_len":8.44,"Shore_dev":1.23,"Vol_total":7.3,"Vol_res":0.0,"Vol_src":3,"Depth_avg":1.9,"Dis_avg":0.003,"Res_time":28161.8,"Elevation":1669,"Slope_100":0.68,"Wshd_area":84.0,"Pour_long":97.277083,"Pour_lat":40.785417,"source_id":"hydrolakes:172603","label":""},"geometry":{"type":"Polygon","coordinates":[[[97.28228569798438,40.79510789290248],[97.2847482630886,40.79319952701701],[97.28346001439064,40.790994123371206],[97.28434556669117,40.789364620333174],[97.28689141087506,40.78767109819756],[97.28790879911293,40.788223941079536],[97.28908528565802,40.78848598535035],[97.28899237658698,40.7863714562705],[97.28759955432145,40.78568270844079],[97.28766167454705,40.78463887163508],[97.2873220478109,40.783692419812155],[97.28592624160416,40.78244513248586],[97.28665825657833,40.78011386078441],[97.28502658340113,40.77800855479484],[97.28383829672572,40.774917191947566],[97.28302924182134,40.77419426443021],[97.28139404216859,40.77344393890945],[97.27948269234201,40.773462927624735],[97.27861111031098,40.77196607432609],[97.27790879911299,40.77209709646149],[97.2765294045816,40.77322909515942],[97.27586873292375,40.77286993717337],[97.27442626873119,40.772955928926876],[97.27264675484219,40.77433505219068],[97.27013970189063,40.77544996104484],[97.26777099529346,40.774407480576144],[97.26618774334037,40.77617939897891],[97.26669230063197,40.777107675888544],[97.26540879911295,40.778763763128154],[97.26482028457298,40.78021341590596],[97.26240885336654,40.78163973969066],[97.26184624485944,40.78346130002052],[97.26502631213384,40.7869601064441],[97.26738416803647,40.78824537120113],[97.26735012398285,40.78881801660037],[97.26792453261982,40.789874874239274],[97.2681865768908,40.79100171885739],[97.27036336183005,40.79340189246841],[97.27251179933012,40.79406514116636],[97.2736739087049,40.793995967989304],[97.27453504694273,40.79446390418735],[97.2761603453369,40.792946163301735],[97.27735446426044,40.79378031043717],[97.27815741564933,40.79373256738165],[97.28068996773288,40.795448604707985],[97.28228569798438,40.79510789290248]]]}},{"type":"Feature","id":"hydrolakes:172755","properties":{"Hylak_id":172755,"Lake_name":"","Country":"China","Continent":"Asia","Poly_src":"SWBD","Lake_type":1,"Grand_id":0,"Lake_area":1.25,"Shore_len":6.43,"Shore_dev":1.62,"Vol_total":0.86,"Vol_res":0.0,"Vol_src":3,"Depth_avg":0.7,"Dis_avg":0.044,"Res_time":225.8,"Elevation":1204,"Slope_100":0.29,"Wshd_area":15872.1,"Pour_long":98.039583,"Pour_lat":40.397917,"source_id":"hydrolakes:172755","label":""},"geometry":{"type":"Polygon","coordinates":[[[98.0436440692954,40.39734856130519],[98.04342393583181,40.393655527451074],[98.0389636222468,40.38759704220797],[98.0372222214221,40.38668829654824],[98.03651991022406,40.386819589951074],[98.03625786595325,40.38721564029822],[98.03705213678666,40.38942918196494],[98.03586073053651,40.39049363508991],[98.03772677871393,40.3931650760623],[98.03691365479881,40.39376403439553],[98.03367214546716,40.39307121755536],[98.03163682645669,40.39417744585393],[98.03125786595325,40.39463805783305],[98.03292453261992,40.3951529232844],[98.03318657689073,40.39622225922193],[98.03087090306263,40.39539109602748],[98.02974894125714,40.39294697710386],[98.02786634577097,40.39362243283301],[98.02792724529365,40.39464402571491],[98.03012179824498,40.3956515126942],[98.03040879911299,40.396309607312276],[98.0292976880018,40.39681958995101],[98.02903564373099,40.397185800888565],[98.02986897706438,40.397930701062194],[98.03040879911299,40.399334780923255],[98.0307977965088,40.399682545680264],[98.03431342150878,40.40015292328434],[98.03519829564084,40.40063360904833],[98.03731201091847,40.40299906043714],[98.04106011204715,40.40277553613157],[98.04255520210774,40.401963361652406],[98.04290879911292,40.399319589951176],[98.0436440692954,40.39734856130519]]]}},{"type":"Feature","id":"hydrolakes:172816","properties":{"Hylak_id":172816,"Lake_name":"","Country":"China","Continent":"Asia","Poly_src":"SWBD","Lake_type":1,"Grand_id":0,"Lake_area":2.28,"Shore_len":8.69,"Shore_dev":1.62,"Vol_total":24.29,"Vol_res":0.0,"Vol_src":3,"Depth_avg":10.6,"Dis_avg":0.481,"Res_time":584.4,"Elevation":1546,"Slope_100":6.01,"Wshd_area":2809.6,"Pour_long":97.400995,"Pour_lat":40.133794,"source_id":"hydrolakes:172816","label":""},"geometry":{"type":"Polygon","coordinates":[[[97.38558756430388,40.10315585297184],[97.38499999919969,40.102521629881664],[97.38418796035432,40.10267679481217],[97.3834629983316,40.1037992991524],[97.38072875896529,40.105267398110755],[97.38067084338388,40.10672790158293],[97.38176011747231,40.10903584429133],[97.3830677617866,40.10965270627048],[97.3851002324896,40.112842810437144],[97.38541137615283,40.115443721895474],[97.38652248726385,40.11822149967321],[97.38736640002452,40.119321760089974],[97.38772270970316,40.120446977103825],[97.38847751113565,40.121543982312176],[97.38899956517207,40.12319328786771],[97.39065795818414,40.12400871755523],[97.3923558205974,40.125443721895465],[97.39367106039776,40.125859846027424],[97.39596693170859,40.130443721895574],[97.39822984403492,40.133714663735816],[97.40096150636117,40.13428595279828],[97.40235161595331,40.13299797536763],[97.40089640219458,40.131100731444064],[97.40107028457305,40.12671488074966],[97.3993002650418,40.124054833006596],[97.39894287029341,40.1210687218956],[97.39636894993754,40.120340640298195],[97.39509711291504,40.1182638173816],[97.39592678413891,40.11705830522885],[97.39487996339238,40.11496412120101],[97.39425957493773,40.11300448578447],[97.39267184707307,40.11250209863158],[97.3920886222466,40.11126620453439],[97.39043538331424,40.11048603960376],[97.39207804281966,40.10834411252051],[97.3893975143908,40.10546054047188],[97.38811631864411,40.10505472449961],[97.38558756430388,40.10315585297184]]]}},{"type":"Feature","id":"hydrolakes:1360236","properties":{"Hylak_id":1360236,"Lake_name":"","Country":"Mongolia","Continent":"Asia","Poly_src":"SWBD","Lake_type":1,"Grand_id":0,"Lake_area":0.35,"Shore_len":3.23,"Shore_dev":1.53,"Vol_total":0.58,"Vol_res":0.0,"Vol_src":3,"Depth_avg":1.6,"Dis_avg":0.0,"Res_time":-1.0,"Elevation":1767,"Slope_100":0.43,"Wshd_area":1584.4,"Pour_long":99.375725,"Pour_lat":44.963704,"source_id":"hydrolakes:1360236","label":""},"geometry":{"type":"Polygon","coordinates":[[[99.37425157255063,44.960697952395094],[99.37497911161336,44.9581500705271],[99.37444444364434,44.956966074326374],[99.37317762506797,44.957089751050376],[99.37126546143952,44.95862098430803],[99.37152506430408,44.95937935619105],[99.37317898140486,44.95917361526239],[99.37288167237705,44.960045947517415],[99.37182101699494,44.96045366130153],[99.36932128826237,44.960727749419334],[99.36909233860968,44.96256848390118],[99.37024576742903,44.96400886961362],[99.37406412680406,44.9665020909099],[99.37555474095348,44.96668751625765],[99.37534179607496,44.964974430288464],[99.37790120362689,44.96452899510871],[99.37579074355756,44.961914419616676],[99.37435167020675,44.961502908619366],[99.37425157255063,44.960697952395094]]]}},{"type":"Feature","id":"hydrolakes:1361627","properties":{"Hylak_id":1361627,"Lake_name":"","Country":"Mongolia","Continent":"Asia","Poly_src":"SWBD","Lake_type":1,"Grand_id":0,"Lake_area":0.81,"Shore_len":4.48,"Shore_dev":1.4,"Vol_total":2.09,"Vol_res":0.0,"Vol_src":3,"Depth_avg":2.6,"Dis_avg":0.005,"Res_time":4834.1,"Elevation":1389,"Slope_100":0.84,"Wshd_area":22.7,"Pour_long":96.537272,"Pour_lat":44.268323,"source_id":"hydrolakes:1361627","label":""},"geometry":{"type":"Polygon","coordinates":[[[96.5466833488091,44.271659610025324],[96.54708570612257,44.27041971473432],[96.54791598769788,44.26962198524211],[96.54849148140465,44.26790913530721],[96.54846910184716,44.26514641286809],[96.5473792174073,44.265168656791616],[96.54595960748964,44.2648048194435],[96.54598171577959,44.263724429361105],[96.54712558242454,44.262625389647496],[96.5463888880887,44.2614105187709],[96.5440680601805,44.26191222775532],[96.54149786975103,44.26127441037232],[96.53987942085763,44.262108150606764],[96.5387633591173,44.26208536414845],[96.53728807157393,44.263265377169205],[96.53680833524567,44.26442924978227],[96.53793077176903,44.26516513031595],[96.53790140707719,44.2666035933151],[96.53681559164755,44.26871134071092],[96.53822435087062,44.269046627169246],[96.54098096979425,44.26764993934381],[96.54096889839684,44.268241641275154],[96.53958611302357,44.27046372786367],[96.54097479846189,44.27043538042443],[96.54260938776315,44.271070756401],[96.54291388537587,44.27294107703921],[96.54342040935586,44.27342773068483],[96.54575100288884,44.27262993337587],[96.5466833488091,44.271659610025324]]]}},{"type":"Feature","id":"hydrolakes:1361867","properties":{"Hylak_id":1361867,"Lake_name":"","Country":"Mongolia","Continent":"Asia","Poly_src":"SWBD","Lake_type":1,"Grand_id":0,"Lake_area":0.68,"Shore_len":3.84,"Shore_dev":1.32,"Vol_total":1.32,"Vol_res":0.0,"Vol_src":3,"Depth_avg":2.0,"Dis_avg":0.024,"Res_time":635.7,"Elevation":1308,"Slope_100":0.5,"Wshd_area":44.9,"Pour_long":98.562251,"Pour_lat":44.103054,"source_id":"hydrolakes:1361867","label":""},"geometry":{"type":"Polygon","coordinates":[[[98.57232042020689,44.10447760318931],[98.57511311768951,44.102950096678796],[98.57572319798447,44.10136311479948],[98.57564968452965,44.10077344737317],[98.57647406604002,44.10067090831075],[98.57847357775893,44.101534013236915],[98.57904323921713,44.10128702430461],[98.57929009251592,44.09958956879245],[98.57984564807145,44.099144690320315],[98.57959879477272,44.098200679903584],[98.57833333253325,44.09752162988201],[98.57088351699508,44.097646412868016],[98.56788438505049,44.09884053179172],[98.56557345840116,44.100554805880336],[98.5645678702935,44.100978457681435],[98.56376546143952,44.10239813541574],[98.56182101699505,44.10281880327602],[98.56215982992893,44.10338500607543],[98.56430691109216,44.104311791014766],[98.56570990588398,44.10406480208246],[98.56665500136995,44.10350924652687],[98.57232042020689,44.10447760318931]]]}},{"type":"Feature","id":"hydrolakes:1361920","properties":{"Hylak_id":1361920,"Lake_name":"","Country":"Mongolia","Continent":"Asia","Poly_src":"SWBD","Lake_type":1,"Grand_id":0,"Lake_area":0.3,"Shore_len":2.68,"Shore_dev":1.37,"Vol_total":0.46,"Vol_res":0.0,"Vol_src":3,"Depth_avg":1.5,"Dis_avg":0.543,"Res_time":9.9,"Elevation":1299,"Slope_100":0.38,"Wshd_area":1660.3,"Pour_long":98.661192,"Pour_lat":44.061802,"source_id":"hydrolakes:1361920","label":""},"geometry":{"type":"Polygon","coordinates":[[[98.66411539633526,44.06570088335411],[98.66552598661298,44.0641220394956],[98.66619872966857,44.06487494205635],[98.66710123617901,44.064490013670934],[98.6670092765437,44.06294609548519],[98.6682023103977,44.06320827538974],[98.66939534425188,44.06404160872302],[98.66975287463384,44.06305575531604],[98.66812771187352,44.06205098101037],[98.66669867541503,44.06213615896178],[98.66583333253317,44.060021629881874],[98.66401991022417,44.06015271983421],[98.66207546577971,44.0607082753898],[98.65932508600537,44.0619156185972],[98.659200031752,44.06401244748167],[98.6604087991131,44.06461276215191],[98.66411539633526,44.06570088335411]]]}},{"type":"Feature","id":"hydrolakes:1361961","properties":{"Hylak_id":1361961,"Lake_name":"","Country":"Mongolia","Continent":"Asia","Poly_src":"SWBD","Lake_type":1,"Grand_id":0,"Lake_area":0.18,"Shore_len":1.98,"Shore_dev":1.31,"Vol_total":0.42,"Vol_res":0.0,"Vol_src":3,"Depth_avg":2.3,"Dis_avg":0.0,"Res_time":-1.0,"Elevation":1300,"Slope_100":1.11,"Wshd_area":0.5,"Pour_long":98.71875,"Pour_lat":44.029826,"source_id":"hydrolakes:1361961","label":""},"geometry":{"type":"Polygon","coordinates":[[[98.72246934598809,44.02644123979945],[98.72222222142199,44.02613274099298],[98.7215123147381,44.026256235459186],[98.71992214546714,44.02726806271613],[98.71772135336647,44.027744204751855],[98.71543592584919,44.029132415472134],[98.71404323921729,44.03103888248614],[98.71894693930415,44.03046243934375],[98.72211507081454,44.028552513671],[98.72361029650892,44.02735507172213],[98.72246934598809,44.02644123979945]]]}},{"type":"Feature","id":"hydrolakes:1366484","properties":{"Hylak_id":1366484,"Lake_name":"","Country":"China","Continent":"Asia","Poly_src":"SWBD","Lake_type":1,"Grand_id":0,"Lake_area":0.12,"Shore_len":1.73,"Shore_dev":1.39,"Vol_total":0.16,"Vol_res":0.0,"Vol_src":3,"Depth_avg":1.3,"Dis_avg":0.005,"Res_time":360.9,"Elevation":1390,"Slope_100":0.35,"Wshd_area":13.1,"Pour_long":97.088535,"Pour_lat":40.44941,"source_id":"hydrolakes:1366484","label":""},"geometry":{"type":"Polygon","coordinates":[[[97.08651746881787,40.44767082693022],[97.0863888880886,40.447521629881635],[97.0849305547552,40.447787743162905],[97.08448554064938,40.448999494465],[97.08879706408698,40.450547346027406],[97.08870456191687,40.45169779090588],[97.090255533054,40.452463849933736],[97.09123969104007,40.45161586816283],[97.09093003934726,40.45018520410031],[97.08651746881787,40.44767082693022]]]}},{"type":"Feature","id":"hydrolakes:1366505","properties":{"Hylak_id":1366505,"Lake_name":"","Country":"China","Continent":"Asia","Poly_src":"SWBD","Lake_type":1,"Grand_id":0,"Lake_area":0.19,"Shore_len":1.97,"Shore_dev":1.26,"Vol_total":0.31,"Vol_res":0.0,"Vol_src":3,"Depth_avg":1.6,"Dis_avg":0.001,"Res_time":3540.7,"Elevation":1342,"Slope_100":0.48,"Wshd_area":9.8,"Pour_long":97.278125,"Pour_lat":40.424051,"source_id":"hydrolakes:1366505","label":""},"geometry":{"type":"Polygon","coordinates":[[[97.28071750136996,40.42238762380521],[97.28055555475532,40.42196607432601],[97.27984578370501,40.42208950097546],[97.27798516087512,40.423183250975455],[97.27547729412174,40.42354837684337],[97.27459865913909,40.424064869898984],[97.27320977025022,40.424462005315604],[97.27347317085776,40.42581508691285],[97.27842108752435,40.42742831390939],[97.27876532580564,40.42684264767689],[97.27901245037174,40.42542283430868],[97.28018771621356,40.4240249935969],[97.28009073813195,40.42324564246843],[97.28071750136996,40.42238762380521]]]}},{"type":"Feature","id":"hydrolakes:1366555","properties":{"Hylak_id":1366555,"Lake_name":"","Country":"China","Continent":"Asia","Poly_src":"SWBD","Lake_type":1,"Grand_id":0,"Lake_area":0.44,"Shore_len":3.34,"Shore_dev":1.42,"Vol_total":0.6,"Vol_res":0.0,"Vol_src":3,"Depth_avg":1.3,"Dis_avg":11.328,"Res_time":0.6,"Elevation":1179,"Slope_100":0.26,"Wshd_area":16236.8,"Pour_long":99.454928,"Pour_lat":40.328753,"source_id":"hydrolakes:1366555","label":""},"geometry":{"type":"Polygon","coordinates":[[[99.44844238201239,40.32405049272893],[99.4480555547554,40.323632740992764],[99.4475301098771,40.3238166602635],[99.4431966137833,40.32375535383994],[99.44292209121386,40.32416876529834],[99.44788248617903,40.32650980262463],[99.4502094176026,40.328528031791336],[99.44984591933883,40.329915293076056],[99.44984483426947,40.3309889692913],[99.45111273791531,40.332164099499664],[99.45383707602281,40.33265509342323],[99.45532009468599,40.3306330665136],[99.45568901829722,40.32893873057611],[99.45396945449505,40.327586734048225],[99.45347764676944,40.32654398231222],[99.45261121881799,40.32598462901353],[99.45199652697767,40.32468200314548],[99.44844238201239,40.32405049272893]]]}},{"type":"Feature","id":"hydrolakes:1366583","properties":{"Hylak_id":1366583,"Lake_name":"","Country":"China","Continent":"Asia","Poly_src":"SWBD","Lake_type":1,"Grand_id":0,"Lake_area":0.24,"Shore_len":2.27,"Shore_dev":1.3,"Vol_total":0.27,"Vol_res":0.0,"Vol_src":3,"Depth_avg":1.1,"Dis_avg":35.88,"Res_time":0.1,"Elevation":1178,"Slope_100":0.22,"Wshd_area":35855.0,"Pour_long":99.478504,"Pour_lat":40.292308,"source_id":"hydrolakes:1366583","label":""},"geometry":{"type":"Polygon","coordinates":[[[99.48318901829708,40.290937971027404],[99.48261664416515,40.2898561567913],[99.47942328479013,40.289870805228816],[99.47887369711651,40.28870598318031],[99.47619167671718,40.28876403439557],[99.4755555547556,40.2880771854372],[99.47487711508523,40.288292029187176],[99.47559000571033,40.2896391429025],[99.4742925339221,40.289588144638515],[99.47472493409566,40.29082186859682],[99.4772607413874,40.29201870019415],[99.47846679607494,40.29294372189548],[99.48021511421717,40.2932106489788],[99.4825056958145,40.292407697589965],[99.48318901829708,40.290937971027404]]]}},{"type":"Feature","id":"hydrolakes:1366616","properties":{"Hylak_id":1366616,"Lake_name":"","Country":"China","Continent":"Asia","Poly_src":"SWBD","Lake_type":1,"Grand_id":0,"Lake_area":0.23,"Shore_len":2.81,"Shore_dev":1.66,"Vol_total":0.27,"Vol_res":0.0,"Vol_src":3,"Depth_avg":1.2,"Dis_avg":35.492,"Res_time":0.1,"Elevation":1188,"Slope_100":0.24,"Wshd_area":35796.5,"Pour_long":99.436727,"Pour_lat":40.238556,"source_id":"hydrolakes:1366616","label":""},"geometry":{"type":"Polygon","coordinates":[[[99.44208089112698,40.23788946842325],[99.44336479954706,40.23669968977748],[99.44402235163051,40.23551967675661],[99.44092990371394,40.23764749793719],[99.44039198053662,40.23706752831907],[99.4380088967693,40.23716192936081],[99.43512857992914,40.23627597015934],[99.43555555475547,40.235021629881544],[99.4337331806235,40.23515455088858],[99.43375786595328,40.23577683821503],[99.434577907186,40.23794372189553],[99.43563829130056,40.239021738388544],[99.4385413945995,40.24059400401353],[99.44003363635267,40.240988426756644],[99.44068901829723,40.23959953786766],[99.44208089112698,40.23788946842325]]]}},{"type":"Feature","id":"hydrolakes:1366671","properties":{"Hylak_id":1366671,"Lake_name":"","Country":"China","Continent":"Asia","Poly_src":"SWBD","Lake_type":1,"Grand_id":0,"Lake_area":0.41,"Shore_len":3.24,"Shore_dev":1.43,"Vol_total":2.34,"Vol_res":0.0,"Vol_src":3,"Depth_avg":5.7,"Dis_avg":0.392,"Res_time":69.1,"Elevation":1574,"Slope_100":5.53,"Wshd_area":2517.4,"Pour_long":95.851042,"Pour_lat":40.147215,"source_id":"hydrolakes:1366671","label":""},"geometry":{"type":"Polygon","coordinates":[[[95.85210333532189,40.14861700748577],[95.8538092297922,40.147251447589895],[95.85538473155202,40.14384432953449],[95.8557537500007,40.141887406791454],[95.85561616393687,40.14078117849277],[95.85595685666908,40.13958977224269],[95.85734574555795,40.13793775401348],[95.85709869728589,40.13681199446506],[95.85666666586638,40.13641051877056],[95.85543203061917,40.13739793196504],[95.85319127029288,40.138623517902374],[95.85237416478748,40.140014034395506],[95.85207027805603,40.14141811425674],[95.85084787699344,40.143497649846836],[95.85015425264277,40.14684237640938],[95.84945867491518,40.14802564463855],[95.84989885342884,40.14857577484685],[95.85210333532189,40.14861700748577]]]}},{"type":"Feature","id":"hydrolakes:1366711","properties":{"Hylak_id":1366711,"Lake_name":"","Country":"China","Continent":"Asia","Poly_src":"SWBD","Lake_type":1,"Grand_id":0,"Lake_area":0.18,"Shore_len":2.38,"Shore_dev":1.59,"Vol_total":0.25,"Vol_res":0.0,"Vol_src":3,"Depth_avg":1.4,"Dis_avg":34.286,"Res_time":0.1,"Elevation":1210,"Slope_100":0.38,"Wshd_area":35270.8,"Pour_long":99.358191,"Pour_lat":40.079321,"source_id":"hydrolakes:1366711","label":""},"geometry":{"type":"Polygon","coordinates":[[[99.36028293105767,40.08228454220796],[99.36179144885267,40.081704572589956],[99.36391737116185,40.081968786999596],[99.36487657255066,40.08156459863159],[99.36512342584945,40.08014532779822],[99.3654758021512,40.0795458269302],[99.36328152046735,40.07952955088848],[99.36235595623106,40.08007317068018],[99.36121853218606,40.0791627974163],[99.36129123183872,40.078579572589945],[99.36083278999854,40.07800719845801],[99.35986111031104,40.07788621321498],[99.35949462810629,40.07875643890941],[99.35835476265476,40.07838588769408],[99.35777777697785,40.07696607432604],[99.35709879477292,40.07716030175669],[99.35762939373126,40.07886494585375],[99.35932101699501,40.08070088335376],[99.36028293105767,40.08228454220796]]]}}]}